id;address;schooltype;title;content;type;2017;2018;2019;2020;2021;2022;finance;costs;comments;lat;lng;icon;color
1;Amerner Str. 1-3, NG;Grundschule ;Astrid-Lindgren-Schule;Nebengebäude, Einbau HAZ;Brandschutz;x;;;;;;;765000;;51.376276;6.493546;fa-graduation-cap;blue
2;Amerner Str. 1-3, NG;Grundschule ;Astrid-Lindgren-Schule;Nebengebäude, Anstrich/ Rep. Fenster;Gebäudehülle;;;;x;;;;765000;;51.376276;6.493546;fa-graduation-cap;blue
3;Amerner Str. 1-3, NG;Grundschule ;Astrid-Lindgren-Schule;Nebengebäude, Sanierung Klassenäume;Sanierung;;;;x;;;Gute Schule 2020-Mittel;765000;;51.376276;6.493546;fa-graduation-cap;blue
4;Amerner Str. 1-3, NG;Grundschule ;Astrid-Lindgren-Schule;Nebengebäude Digitalisierung;Digitalisierung;;;;;;x;Gute Schule 2020-Mittel;765000;;51.376276;6.493546;fa-graduation-cap;blue
5;Amerner Str. 1-3, NG;Grundschule ;Astrid-Lindgren-Schule;Nebengebäude, Sanierung Flurbereiche u. Treppenhäuser;Sanierung;;;;x;;;Gute Schule 2020-Mittel;765000;;51.376276;6.493546;fa-graduation-cap;blue
6;Amerner Str. 1-3, NG;Grundschule ;Astrid-Lindgren-Schule;Nebengebäude, Erneuerung Fenster;Gebäudehülle;;;;x;;;;765000;;51.376276;6.493546;fa-graduation-cap;blue
7;Amerner Str. 1-3, NG;Grundschule ;Astrid-Lindgren-Schule;Nebengebäude  Umsetzung Brandschutzkonzept (Beginn in 2017);Brandschutz;x;;;;;;;765000;;51.376276;6.493546;fa-graduation-cap;blue
8;Amerner Str. 1-3, NG;Grundschule ;Astrid-Lindgren-Schule;Nebengebäude Ertüchtigung Lärmschutz;Verkehrssicherheit;;x;;;;;;765000;;51.376276;6.493546;fa-graduation-cap;blue
9;Amerner Str. 1-3, NG;Grundschule ;Astrid-Lindgren-Schule;Ggf. Erweiterung auf Grundlage SEP u. Musterraumprogramm;SEP;;;;;;;;765000;;51.376276;6.493546;fa-graduation-cap;blue
10;Bonhoeffer Str. 16;Grundschule ;Astrid-Lindgren-Schule;Digitalisierung;Digitalisierung;;;;;;x;Gute Schule 2020-Mittel;765000;;51.371415;6.508907;fa-graduation-cap;blue
11;Bonhoeffer Str. 16;Grundschule ;Astrid-Lindgren-Schule;Einbau RWA;Brandschutz;;;;x;;;;765000;;51.371415;6.508907;fa-graduation-cap;blue
12;Bonhoeffer Str. 16;Grundschule ;Astrid-Lindgren-Schule;Einbau HAZ;Brandschutz;;;x;;;;;765000;;51.371415;6.508907;fa-graduation-cap;blue
13;Bonhoeffer Str. 16;Grundschule ;Astrid-Lindgren-Schule;Sanierung Klassenräume;Sanierung;;;;;;x;;765000;;51.371415;6.508907;fa-graduation-cap;blue
14;Bonhoeffer Str. 16;Grundschule ;Astrid-Lindgren-Schule;Sanierung Flure und Treppenhäuser;Sanierung;;;;;;x;;765000;;51.371415;6.508907;fa-graduation-cap;blue
15;Bonhoeffer Str. 16;Grundschule ;Astrid-Lindgren-Schule;Sanierung Sanitäranlagen;Sanierung;;;;;;x;;765000;;51.371415;6.508907;fa-graduation-cap;blue
16;Bonhoeffer Str. 16;Grundschule ;Astrid-Lindgren-Schule;2. Rettungsweg für 1. OG, Außentreppe;Brandschutz;;;;;;x;;765000;;51.371415;6.508907;fa-graduation-cap;blue
17;Bonhoeffer Str. 16;Grundschule ;Astrid-Lindgren-Schule;Bauunterhalt < 10.000 Euro;Sanierung;;x;x;x;x;x;;765000;;51.371415;6.508907;fa-graduation-cap;blue
19;Bismarckstr. 67;Grundschule ;Bismarckschule;Ertüchtigung Außentreppe (Rest aus 2017);Brandschutz;x;; ; ; ; ;;4525000;;51.341559;06.57382;fa-graduation-cap;blue
20;Bismarckstr. 67;Grundschule ;Bismarckschule;Digitalisierung;Digitalisierung;;x;; ; ;;Gute Schule 2020-Mittel;4525000;;51.341559;06.57382;fa-graduation-cap;blue
21;Bismarckstr. 67;Grundschule ;Bismarckschule;Einbau von Sekuranten;Verkehrssicherheit;; ; ; ; ;x;;4525000;;51.341559;06.57382;fa-graduation-cap;blue
22;Bismarckstr. 67;Grundschule ;Bismarckschule;Erweiterung Alarmierung Altbau (Rest aus 2017);Brandschutz;x;; ; ; ; ;;4525000;;51.341559;06.57382;fa-graduation-cap;blue
23;Bismarckstr. 67;Grundschule ;Bismarckschule;Umsetzung Brandschutzmaßnahme;Brandschutz;;x; ; ; ; ;;4525000;;51.341559;06.57382;fa-graduation-cap;blue
24;Bismarckstr. 67;Grundschule ;Bismarckschule;Erneuerung abgehängte Decken in Flurbereiche;Sanierung;x; ; ; ; ;x;;4525000;;51.341559;06.57382;fa-graduation-cap;blue
25;Bismarckstr. 67;Grundschule ;Bismarckschule;Sanierung Bodenbelag;Verkehrssicherheit;;x; ; ; ; ;Gute Schule 2020-Mittel;4525000;;51.341559;06.57382;fa-graduation-cap;blue
26;Bismarckstr. 67;Grundschule ;Bismarckschule;kleiner Schulhof, Erneuerung Asphaltdecke;Außenanlagen;x;;x; ; ; ;Gute Schule 2020-Mittel;4525000;;51.341559;06.57382;fa-graduation-cap;blue
27;Bismarckstr. 67;Grundschule ;Bismarckschule;großer Schulhof, Erneuerung Pflaster;Außenanlagen;; ; ;x; ; ;Gute Schule 2020-Mittel;4525000;;51.341559;06.57382;fa-graduation-cap;blue
28;Bismarckstr. 67;Grundschule ;Bismarckschule;ergänzende Unterstellmöglichkeiten Fahrräder;Nutzung;; ; ;x; ; ;;4525000;;51.341559;06.57382;fa-graduation-cap;blue
29;Bismarckstr. 67;Grundschule ;Bismarckschule;Sanierung Sanitäranlagen;Sanierung;; ;x; ; ;x;Gute Schule 2020-Mittel;4525000;;51.341559;06.57382;fa-graduation-cap;blue
30;Bismarckstr. 67;Grundschule ;Bismarckschule;Hauptgebäude, Erneuerung Holzfenster;Gebäudehülle;; ;; ;x; ;;4525000;;51.341559;06.57382;fa-graduation-cap;blue
31;Bismarckstr. 67;Grundschule ;Bismarckschule;Erneuerung Eingangstüren Verwaltung u. Flachbau;Gebäudehülle;; ; ;;x; ;;4525000;;51.341559;06.57382;fa-graduation-cap;blue
32;Bismarckstr. 67;Grundschule ;Bismarckschule;Anstrich Flurwände;Sanierung;; ;x; ; ; ;Gute Schule 2020-Mittel;4525000;;51.341559;06.57382;fa-graduation-cap;blue
33;Bismarckstr. 67;Grundschule ;Bismarckschule;Klassentrakt, Erneuerung Fenster ;Gebäudehülle;; ; ; ;x; ;;4525000;;51.341559;06.57382;fa-graduation-cap;blue
34;Bismarckstr. 67;Grundschule ;Bismarckschule;Verbindung Sekretariat/Schulleitung ;Nutzung;; ;x; ; ; ;;4525000;;51.341559;06.57382;fa-graduation-cap;blue
35;Bismarckstr. 67;Grundschule ;Bismarckschule;Ggf. zusätzliche Erweiterung auf Grundlage SEP u. Musterraumprogramm;SEP;;;;;;;;4525000;;51.341559;06.57382;fa-graduation-cap;blue
36;Bismarckstr. 67;Grundschule ;Bismarckschule;Sanierung ehemalige Ganztagsräume;Sanierung;;x; ; ; ; ;Gute Schule 2020-Mittel;4525000;;51.341559;06.57382;fa-graduation-cap;blue
37;Bismarckstr. 67;Grundschule ;Bismarckschule;Pavillon, Hochbau;Neubau;x;; ; ; ; ;;4525000;;51.341559;06.57382;fa-graduation-cap;blue
38;Bismarckstr. 67;Grundschule ;Bismarckschule;Pavillon, Tiefbau;Neubau;x; ; ; ; ; ;;4525000;;51.341559;06.57382;fa-graduation-cap;blue
39;Bismarckstr. 67;Grundschule ;Bismarckschule;Pavillon, Einrichtung;Neubau;x; ; ; ; ; ;;4525000;;51.341559;06.57382;fa-graduation-cap;blue
40;Bismarckstr. 67;Grundschule ;Bismarckschule;Bauunterhalt < 10.000 Euro;Sanierung;;x;x;x;x;x;;4525000;;51.341559;06.57382;fa-graduation-cap;blue
42;Freiligrathstr. 47;Grundschule;Brüder-Grimm-Schule;Sanierung Sanitäranlagen;Sanierung;; ; ; ; ;x;;1120000;;51.333853;6.579489;fa-graduation-cap;blue
43;Freiligrathstr. 47;Grundschule;Brüder-Grimm-Schule;Sanierung Bestandsfassade inkl. Hydrophobierung;Gebäudehülle;;x; ; ; ; ;Gute Schule 2020-Mittel;1120000;;51.333853;6.579489;fa-graduation-cap;blue
44;Freiligrathstr. 47;Grundschule;Brüder-Grimm-Schule;Digitalisierung;Digitalisierung;; ;x; ; ; ;Gute Schule 2020-Mittel;1120000;;51.333853;6.579489;fa-graduation-cap;blue
45;Freiligrathstr. 47;Grundschule;Brüder-Grimm-Schule;Sonnenschutzanl. Südseite;Gebäudehülle;;x; ; ; ; ;Gute Schule 2020-Mittel;1120000;;51.333853;6.579489;fa-graduation-cap;blue
46;Freiligrathstr. 47;Grundschule;Brüder-Grimm-Schule;Hauptgebäude, Dachsanierung ;Gebäudehülle;;x; ; ; ; ;Gute Schule 2020-Mittel;1120000;;51.333853;6.579489;fa-graduation-cap;blue
47;Freiligrathstr. 47;Grundschule;Brüder-Grimm-Schule;Sanierung Flure und Treppenhäuser;Sanierung;; ; ; ; ;x;;1120000;;51.333853;6.579489;fa-graduation-cap;blue
48;Freiligrathstr. 47;Grundschule;Brüder-Grimm-Schule;Austausch Holzfenster und Türen;Gebäudehülle;;x; ; ; ; ;Gute Schule 2020-Mittel;1120000;;51.333853;6.579489;fa-graduation-cap;blue
49;Freiligrathstr. 47;Grundschule;Brüder-Grimm-Schule;Rauchmeldertausch, Erw. auf Turnhalle;Brandschutz;;x; ; ; ; ;;1120000;;51.333853;6.579489;fa-graduation-cap;blue
50;Freiligrathstr. 47;Grundschule;Brüder-Grimm-Schule;Sanierung Klassenräume;Sanierung;; ; ; ; ;x;;1120000;;51.333853;6.579489;fa-graduation-cap;blue
51;Freiligrathstr. 47;Grundschule;Brüder-Grimm-Schule;Schulhofsanierung;Außenanlagen;;;x; ; ;;Gute Schule 2020-Mittel;1120000;;51.333853;6.579489;fa-graduation-cap;blue
52;Freiligrathstr. 47;Grundschule;Brüder-Grimm-Schule;Turnhalle, 2. RW für Umkleiden;Brandschutz;; ; ; ; ;x;;1120000;;51.333853;6.579489;fa-graduation-cap;blue
53;Freiligrathstr. 47;Grundschule;Brüder-Grimm-Schule;Turnhalle: Sanierung Sanitäranlagen;Sanierung;; ; ; ; ;x;;1120000;;51.333853;6.579489;fa-graduation-cap;blue
54;Freiligrathstr. 47;Grundschule;Brüder-Grimm-Schule;Sanierung Treppenhausfenster;Gebäudehülle;;;;;x;;;1120000;;51.333853;6.579489;fa-graduation-cap;blue
55;Freiligrathstr. 47;Grundschule;Brüder-Grimm-Schule;Schulhof Sanierung Pausenhallendach ;Gebäudehülle;;;;x;;;;1120000;;51.333853;6.579489;fa-graduation-cap;blue
56;Freiligrathstr. 47;Grundschule;Brüder-Grimm-Schule;Ggf. Erweiterung auf Grundlage SEP u. Musterraumprogramm;SEP;;;;;;;;1120000;;51.333853;6.579489;fa-graduation-cap;blue
57;Freiligrathstr. 47;Grundschule;Brüder-Grimm-Schule;Bauunterhalt < 10.000 Euro;Sanierung;;x;x;x;x;x;;1120000;;51.333853;6.579489;fa-graduation-cap;blue
59;Buchenstr. 28;Grundschule;Buchenschule;Notmaßnahme Decken (Rest aus 2017);Sanierung;x;; ;; ; ;;620000;;51.321356;6.560709;fa-graduation-cap;blue
60;Buchenstr. 28;Grundschule;Buchenschule;Notmaßnahme Klassenräume;Sanierung;;;x; ; ; ;;620000;;51.321356;6.560709;fa-graduation-cap;blue
61;Buchenstr. 28;Grundschule;Buchenschule;Digitalisierung;Digitalisierung;;x; ; ; ;;Gute Schule 2020-Mittel;620000;;51.321356;6.560709;fa-graduation-cap;blue
62;Buchenstr. 28;Grundschule;Buchenschule;Sanierung Sanitäranlagen;Sanierung;;x; ; ; ; ;Gute Schule 2020-Mittel;620000;;51.321356;6.560709;fa-graduation-cap;blue
63;Buchenstr. 28;Grundschule;Buchenschule;Sanierung Treppenhäuser u. Flure;Sanierung;; ;x; ; ; ;Gute Schule 2020-Mittel;620000;;51.321356;6.560709;fa-graduation-cap;blue
64;Buchenstr. 28;Grundschule;Buchenschule;Ersatz Pavillons, Prüfung auf Grundlage SEP und Musterraumprog.;Nutzung/SEP;; ; ; ; ; ;;620000;;51.321356;6.560709;fa-graduation-cap;blue
65;Buchenstr. 28;Grundschule;Buchenschule;Schulhofsanierung;Außenanlagen;;;x; ; ;;Gute Schule 2020-Mittel;620000;;51.321356;6.560709;fa-graduation-cap;blue
66;Buchenstr. 28;Grundschule;Buchenschule;Sanierung Klassenräume;Sanierung;; ;x; ; ; ;Gute Schule 2020-Mittel;620000;;51.321356;6.560709;fa-graduation-cap;blue
67;Buchenstr. 28;Grundschule;Buchenschule;Erneuerung Außentüren;Gebäudehülle;; ;x; ; ; ;;620000;;51.321356;6.560709;fa-graduation-cap;blue
68;Buchenstr. 28;Grundschule;Buchenschule;Einbau HAZ;Brandschutz;;;;x;;;;620000;;51.321356;6.560709;fa-graduation-cap;blue
69;Buchenstr. 28;Grundschule;Buchenschule;Brandschutzkonzept und Umsetzung;Brandschutz;;;x;;;;;620000;;51.321356;6.560709;fa-graduation-cap;blue
70;Buchenstr. 28;Grundschule;Buchenschule;Bauunterhalt < 10.000 Euro;Sanierung;;x;x;x;x;x;;620000;;51.321356;6.560709;fa-graduation-cap;blue
72;Buscher Holzweg 62;Grundschule;GGS Buscher Holzweg;Sanierung Sanitäranlagen;Sanierung;;;;; ;x;;840000;;51.375494;6.588768;fa-graduation-cap;blue
73;Buscher Holzweg 62;Grundschule;GGS Buscher Holzweg;Sanierung Klassenräume;Sanierung;; ; ; ;x;;;840000;;51.375494;6.588768;fa-graduation-cap;blue
74;Buscher Holzweg 62;Grundschule;GGS Buscher Holzweg;Digitalisierung;Digitalisierung;;x; ;; ; ;Gute Schule 2020-Mittel;840000;;51.375494;6.588768;fa-graduation-cap;blue
75;Buscher Holzweg 62;Grundschule;GGS Buscher Holzweg;Sanierung Flachdächer;Gebäudehülle;x; ; ; ; ; ;;840000;;51.375494;6.588768;fa-graduation-cap;blue
76;Buscher Holzweg 62;Grundschule;GGS Buscher Holzweg;Sanierung Flure und Treppenhäuser;Sanierung;; ; ; ;x;;;840000;;51.375494;6.588768;fa-graduation-cap;blue
77;Buscher Holzweg 62;Grundschule;GGS Buscher Holzweg;Erneuerung Deckenverkleidung Flurbereich inkl. Beleuchtung und Schottung;Brandschutz;; ;x; ; ; ;;840000;;51.375494;6.588768;fa-graduation-cap;blue
78;Buscher Holzweg 62;Grundschule;GGS Buscher Holzweg;Rettungstreppe;Brandschutz;; ;x;x; ; ;;840000;;51.375494;6.588768;fa-graduation-cap;blue
79;Buscher Holzweg 62;Grundschule;GGS Buscher Holzweg;Austausch Haus-Alarm-Zentrale;Brandschutz;; ; ; ; ;x;;840000;;51.375494;6.588768;fa-graduation-cap;blue
80;Buscher Holzweg 62;Grundschule;GGS Buscher Holzweg;Bauunterhalt < 10.000 Euro;Sanierung;;x;x;x;x;x;;840000;;51.375494;6.588768;fa-graduation-cap;blue
82;Traarer Str. 105;Grundschule;Edith-Stein-Schule;Sanierung Sanitäranlagen;Sanierung;;x; ; ; ; ;Gute Schule 2020-Mittel;505000;;51.357253;6.634335;fa-graduation-cap;blue
83;Traarer Str. 105;Grundschule;Edith-Stein-Schule;Digitalisierung;Digitalisierung;; ; ; ; ;x;Gute Schule 2020-Mittel;505000;;51.357253;6.634335;fa-graduation-cap;blue
84;Traarer Str. 105;Grundschule;Edith-Stein-Schule;Einrichtung Pausenausleihe;Nutzung;; ; ; ; ;x;;505000;;51.357253;6.634335;fa-graduation-cap;blue
85;Traarer Str. 105;Grundschule;Edith-Stein-Schule;Sanierung Flure u. Treppenhäuser;Sanierung;;x; ; ; ; ;Gute Schule 2020-Mittel;505000;;51.357253;6.634335;fa-graduation-cap;blue
86;Traarer Str. 105;Grundschule;Edith-Stein-Schule;Flügel  Straßenseite, Flure, Einbau Akustikdecke;Brandschutz;;x; ; ; ; ;;505000;;51.357253;6.634335;fa-graduation-cap;blue
87;Traarer Str. 105;Grundschule;Edith-Stein-Schule;Erneuerung Fenster;Gebäudehülle;; ; ; ;x;;;505000;;51.357253;6.634335;fa-graduation-cap;blue
88;Traarer Str. 105;Grundschule;Edith-Stein-Schule;Sanierung Klassenräume;Sanierung;;x; ; ; ; ;Gute Schule 2020-Mittel;505000;;51.357253;6.634335;fa-graduation-cap;blue
89;Traarer Str. 105;Grundschule;Edith-Stein-Schule;Bauunterhalt < 10.000 Euro;Sanierung;;x;x;x;x;x;;505000;;51.357253;6.634335;fa-graduation-cap;blue
91;Bellenweg 50;Grundschule;Forstwaldschule;Erneuerung Haus-Alarm-Zentrale (Rest aus 2017);Brandschutz;;x; ; ; ; ;;630000;;51.302289;6.505864;fa-graduation-cap;blue
92;Bellenweg 50;Grundschule;Forstwaldschule;Bodensanierung Flurbereich Waldseite;Sanierung;;x; ; ; ; ;Gute Schule 2020-Mittel;630000;;51.302289;6.505864;fa-graduation-cap;blue
93;Bellenweg 50;Grundschule;Forstwaldschule;Digitalisierung;Digitalisierung;; ;x; ; ;;Gute Schule 2020-Mittel;630000;;51.302289;6.505864;fa-graduation-cap;blue
94;Bellenweg 50;Grundschule;Forstwaldschule;Sanierung Klassenräume;Sanierung;;x; ; ; ; ;Gute Schule 2020-Mittel;630000;;51.302289;6.505864;fa-graduation-cap;blue
95;Bellenweg 50;Grundschule;Forstwaldschule;Erneuerung Holzfenster;Gebäudehülle;; ; ;x; ;;;630000;;51.302289;6.505864;fa-graduation-cap;blue
96;Bellenweg 50;Grundschule;Forstwaldschule;Dachsanierung;Gebäudehülle;; ; ; ; ;x;;630000;;51.302289;6.505864;fa-graduation-cap;blue
97;Bellenweg 50;Grundschule;Forstwaldschule;Sanierung Sanitäranlagen;Sanierung;; ; ; ;x;;;630000;;51.302289;6.505864;fa-graduation-cap;blue
98;Bellenweg 50;Grundschule;Forstwaldschule;Turnhalle, Austausch verzinkte Stahlleitungen;Sanierung;; ; ; ;x;;;630000;;51.302289;6.505864;fa-graduation-cap;blue
99;Bellenweg 50;Grundschule;Forstwaldschule;Brandschutzkonzept und Umsetzung;Brandschutz;;x;;;;;;630000;;51.302289;6.505864;fa-graduation-cap;blue
100;Bellenweg 50;Grundschule;Forstwaldschule;Bauunterhalt < 10.000 Euro;Sanierung;;x;x;x;x;x;;630000;;51.302289;6.505864;fa-graduation-cap;blue
102;Fungendonk 31;Grundschule ;Geschwister-Scholl;Einbau HAZ;Brandschutz;;x;; ; ; ;;5390000;;51.319835;6.611307;fa-graduation-cap;blue
103;Fungendonk 31;Grundschule ;Geschwister-Scholl;Holzhaus/Bücherei Dachsanierung;Gebäudehülle;;x;;  ; ; ;;5390000;;51.319835;6.611307;fa-graduation-cap;blue
104;Fungendonk 31;Grundschule ;Geschwister-Scholl;Sanierung Fenster/Türen HM-Loge;Gebäudehülle;; ;x; ; ; ;;5390000;;51.319835;6.611307;fa-graduation-cap;blue
105;Fungendonk 31;Grundschule ;Geschwister-Scholl;Digitalisierung;Digitalisierung;; ; ;x; ; ;Gute Schule 2020-Mittel;5390000;;51.319835;6.611307;fa-graduation-cap;blue
106;Fungendonk 31;Grundschule ;Geschwister-Scholl;Sanierung Sanitäranlagen;Sanierung;; ;x; ; ; ;Gute Schule 2020-Mittel;5390000;;51.319835;6.611307;fa-graduation-cap;blue
107;Fungendonk 31;Grundschule ;Geschwister-Scholl;Sanierung Klassenräume;Sanierung;; ;x;; ; ;Gute Schule 2020-Mittel;5390000;;51.319835;6.611307;fa-graduation-cap;blue
108;Fungendonk 31;Grundschule ;Geschwister-Scholl;Dachsanierung;Gebäudehülle;; ;;x; ; ;;5390000;;51.319835;6.611307;fa-graduation-cap;blue
109;Fungendonk 31;Grundschule ;Geschwister-Scholl;Sanierung Flure und Treppenhäuser;Sanierung;; ;x;; ; ;Gute Schule 2020-Mittel;5390000;;51.319835;6.611307;fa-graduation-cap;blue
110;Fungendonk 31;Grundschule ;Geschwister-Scholl;Dämmung Fassade;Gebäudehülle;; ; ;x; ; ;;5390000;;51.319835;6.611307;fa-graduation-cap;blue
111;Fungendonk 31;Grundschule ;Geschwister-Scholl;Erweiterung (Planung);Neubau/SEP;x;;;; ; ;KInvFöG-Mittel;5390000;;51.319835;6.611307;fa-graduation-cap;blue
112;Fungendonk 31;Grundschule ;Geschwister-Scholl;Turnhalle: Sanierung Sanitäranlagen;Sanierung;; ;x; ; ; ;Gute Schule 2020-Mittel;5390000;;51.319835;6.611307;fa-graduation-cap;blue
113;Fungendonk 31;Grundschule ;Geschwister-Scholl;Turnhalle, fehlende Deckenkonstruktion (Hallendecke und Beleuchtung);Verkehrssicherheit;;;x; ; ; ;Gute Schule 2020-Mittel;5390000;;51.319835;6.611307;fa-graduation-cap;blue
114;Fungendonk 31;Grundschule;Geschwister-Scholl;Bauunterhalt < 10.000 Euro;Sanierung;;x;x;x;x;x;;5390000;;51.319835;6.611307;fa-graduation-cap;blue
116;Eichendorffstr. 21;Grundschule ;Grotenburgschule;Mängelbeseitigung HAZ, Rauchmeldertausch;Brandschutz;;x; ; ; ; ;;1680000;;51.339411;6.599194;fa-graduation-cap;blue
117;Eichendorffstr. 21;Grundschule ;Grotenburgschule;Digitalisierung;Digitalisierung;; ;x; ; ; ;Gute Schule 2020-Mittel;1680000;;51.339411;6.599194;fa-graduation-cap;blue
118;Eichendorffstr. 21;Grundschule ;Grotenburgschule;Sanierung Fenster Hauptgebäude und Verwaltung;Gebäudehülle;;x; ; ; ; ;Gute Schule 2020-Mittel;1680000;;51.339411;6.599194;fa-graduation-cap;blue
119;Eichendorffstr. 21;Grundschule ;Grotenburgschule;Flure und Treppenräume streichen;Sanierung;;x; ; ; ; ;Gute Schule 2020-Mittel;1680000;;51.339411;6.599194;fa-graduation-cap;blue
120;Eichendorffstr. 21;Grundschule ;Grotenburgschule;Sanierung Klassenräume;Sanierung;;x; ; ; ; ;Gute Schule 2020-Mittel;1680000;;51.339411;6.599194;fa-graduation-cap;blue
121;Eichendorffstr. 21;Grundschule ;Grotenburgschule;Hauptgebäude, Dachsanierung;Gebäudehülle;;x; ; ; ; ;Gute Schule 2020-Mittel;1680000;;51.339411;6.599194;fa-graduation-cap;blue
122;Eichendorffstr. 21;Grundschule ;Grotenburgschule;Sanierung Sanitäranlagen;Sanierung;; ; ; ; ;x;;1680000;;51.339411;6.599194;fa-graduation-cap;blue
123;Eichendorffstr. 21;Grundschule ;Grotenburgschule;Hochbau / MRP;Neubau/SEP;; ; ;x;x; ;;1680000;;51.339411;6.599194;fa-graduation-cap;blue
124;Eichendorffstr. 21;Grundschule ;Grotenburgschule;Tiefbau / MRP;Neubau/SEP;; ; ; ;x; ;;1680000;;51.339411;6.599194;fa-graduation-cap;blue
125;Eichendorffstr. 21;Grundschule ;Grotenburgschule;Einrichtung / MRP;Neubau/SEP;; ; ; ;x; ;;1680000;;51.339411;6.599194;fa-graduation-cap;blue
126;Eichendorffstr. 21;Grundschule ;Grotenburgschule;Ersatz/Austausch Pavillon / MRP;Sanierung/SEP;; ; ; ;x; ;;1680000;;51.339411;6.599194;fa-graduation-cap;blue
127;Eichendorffstr. 21;Grundschule ;Grotenburgschule;Turnhalle: Sanierung Sanitäranlagen;Sanierung;; ; ; ; ;x;;1680000;;51.339411;6.599194;fa-graduation-cap;blue
128;Eichendorffstr. 21;Grundschule ;Grotenburgschule;Bauunterhalt < 10.000 Euro;Sanierung;;x;x;x;x;x;;1680000;;51.339411;6.599194;fa-graduation-cap;blue
129;Eichendorffstr. 21;Grundschule;Grotenburgschule;Versammlungsstätte  Überprüfung/Ertüchtigung;Verkehrssicherheit;;;;;;;;1680000;;51.339411;6.599194;fa-graduation-cap;blue
131;Körnerstr. 17;Grundschule;Heinrichsschule;Abdichtung Flurwände und Anstriche;Sanierung;;;x;;;;Gute Schule 2020-Mittel;625000;;51.363608;6.646081;fa-graduation-cap;blue
132;Körnerstr. 17;Grundschule;Heinrichsschule;Sanierung Klassenräume;Sanierung;;;x;;;;Gute Schule 2020-Mittel;625000;;51.363608;6.646081;fa-graduation-cap;blue
133;Körnerstr. 17;Grundschule;Heinrichsschule;Sanierung Schulhofkanäle/Grundleitungen;Sanierung;;x; ;;; ;;625000;;51.363608;6.646081;fa-graduation-cap;blue
134;Körnerstr. 17;Grundschule;Heinrichsschule;Digitalisierung;Digitalisierung;; ; ;;x; ;Gute Schule 2020-Mittel;625000;;51.363608;6.646081;fa-graduation-cap;blue
135;Körnerstr. 17;Grundschule;Heinrichsschule;Sanierung Sanitäranlagen;Sanierung;; ;x;;; ;Gute Schule 2020-Mittel;625000;;51.363608;6.646081;fa-graduation-cap;blue
136;Körnerstr. 17;Grundschule;Heinrichsschule;Sanierung Klinkerfassade u. Hydrophobierung;Gebäudehülle;; ; ;;;x;;625000;;51.363608;6.646081;fa-graduation-cap;blue
137;Körnerstr. 17;Grundschule;Heinrichsschule;Erneuerung Fenster;Gebäudehülle;; ; ;;;x;;625000;;51.363608;6.646081;fa-graduation-cap;blue
138;Körnerstr. 17;Grundschule;Heinrichsschule;Einbau BS-Türen im UG/EG;Brandschutz;; ; ;;;x;;625000;;51.363608;6.646081;fa-graduation-cap;blue
139;Körnerstr. 17;Grundschule;Heinrichsschule;Klassen OG über Verwaltung, 2. Rettungsweg;Brandschutz;; ; ;;;x;;625000;;51.363608;6.646081;fa-graduation-cap;blue
140;Körnerstr. 17;Grundschule;Heinrichsschule;Bauunterhalt < 10.000 Euro;Sanierung;;x;x;x;x;x;;625000;;51.363608;6.646081;fa-graduation-cap;blue
142;Horkesgath 50;Grundschule;GGS Horkesgath;Verschattung Mensa;Gebäudehülle;;;x; ; ; ;;1095000;;51.337299;06.52905;fa-graduation-cap;blue
143;Horkesgath 50;Grundschule;GGS Horkesgath;Durchbruch HM-Wohnung f. schulische Nutzung;Nutzung;;x; ; ; ; ;;1095000;;51.337299;06.52905;fa-graduation-cap;blue
144;Horkesgath 50;Grundschule;GGS Horkesgath;Digitalisierung;Digitalisierung;;;;x; ; ;Gute Schule 2020-Mittel;1095000;;51.337299;06.52905;fa-graduation-cap;blue
145;Horkesgath 50;Grundschule;GGS Horkesgath;Sanierung Klassenräume, Mensa;Sanierung;;x; ; ; ;;Gute Schule 2020-Mittel;1095000;;51.337299;06.52905;fa-graduation-cap;blue
146;Horkesgath 50;Grundschule;GGS Horkesgath;Sanierung Flure;Sanierung;;x; ; ; ;;Gute Schule 2020-Mittel;1095000;;51.337299;06.52905;fa-graduation-cap;blue
147;Horkesgath 50;Grundschule;GGS Horkesgath;Sanierung Sanitäranlagen;Sanierung;; ; ; ;x;;;1095000;;51.337299;06.52905;fa-graduation-cap;blue
148;Kempener Allee 142/NG;Grundschule;GGS Horkesgath;Sanierung Grundleitungen Abwasser-/Regenwasser;Sanierung;;x; ; ; ; ;;1095000;;51.341356;6.530377;fa-graduation-cap;blue
149;Kempener Allee 142/NG;Grundschule;GGS Horkesgath;Sanierung Klassenräume/Treppenhäuser;Sanierung;;x; ; ; ; ;Gute Schule 2020-Mittel;1095000;;51.341356;6.530377;fa-graduation-cap;blue
150;Kempener Allee 142/NG;Grundschule;GGS Horkesgath;Erneuerung Fenster;Gebäudehülle;; ;x; ; ; ;Gute Schule 2020-Mittel;1095000;;51.341356;6.530377;fa-graduation-cap;blue
151;Kempener Allee 142/NG;Grundschule;GGS Horkesgath;Digitalisierung;Digitalisierung;; ; ;x; ; ;Gute Schule 2020-Mittel;1095000;;51.341356;6.530377;fa-graduation-cap;blue
152;Kempener Allee 142/NG;Grundschule;GGS Horkesgath;Sanierung Sanitäranlagen;Sanierung;; ; ; ;x;;;1095000;;51.341356;6.530377;fa-graduation-cap;blue
153;Kempener Allee 142/NG;Grundschule;GGS Horkesgath;Sanierung Flachdächer BT A/B;Gebäudehülle;; ; ; ; ;x;;1095000;;51.341356;6.530377;fa-graduation-cap;blue
154;Kempener Allee 142/NG;Grundschule;GGS Horkesgath;Turnhalle, Erneuerung Geräteraumtore und Prallwände;Sanierung;;x; ; ; ; ;Gute Schule 2020-Mittel;1095000;;51.341356;6.530377;fa-graduation-cap;blue
155;Kempener Allee 142/NG;Grundschule;GGS Horkesgath;Turnhalle: Sanierung Sanitäranlagen;Sanierung;; ; ; ;x;;;1095000;;51.341356;6.530377;fa-graduation-cap;blue
156;Kempener Allee 142/NG;Grundschule;GGS Horkesgath;Turnhalle, Montage Sekuranten;Verkehrssicherheit;;x; ; ; ; ;;1095000;;51.341356;6.530377;fa-graduation-cap;blue
157;Kempener Allee 142/NG;Grundschule;GGS Horkesgath;Turnhalle, Sanierung Sportboden;Sanierung;;;x; ; ; ;Gute Schule 2020-Mittel;1095000;;51.341356;6.530377;fa-graduation-cap;blue
158;Horkesgath 50;Grundschule;GGS Horkesgath;Bauunterhalt < 10.000 Euro;Sanierung;;x;x;x;x;x;;1095000;;51.337299;06.52905;fa-graduation-cap;blue
160;Girmesdyk 17-19;Grundschule;Jahnschule;Rauchmeldertausch;Brandschutz;;x; ; ; ; ;;855000;;51.344891;6.552899;fa-graduation-cap;blue
161;Girmesdyk 17-19;Grundschule;Jahnschule;Sanierung Klassenräume;Sanierung;; ;x; ; ; ;Gute Schule 2020-Mittel;855000;;51.344891;6.552899;fa-graduation-cap;blue
162;Girmesdyk 17-19;Grundschule;Jahnschule;Sanierung Flure ;Sanierung;; ;x; ; ; ;Gute Schule 2020-Mittel;855000;;51.344891;6.552899;fa-graduation-cap;blue
163;Girmesdyk 17-19;Grundschule;Jahnschule;Sanierung Sanitäranlagen;Sanierung;; ;x; ; ; ;Gute Schule 2020-Mittel;855000;;51.344891;6.552899;fa-graduation-cap;blue
164;Girmesdyk 17-19;Grundschule;Jahnschule;Digitalisierung;Digitalisierung;;x; ; ; ;;Gute Schule 2020-Mittel;855000;;51.344891;6.552899;fa-graduation-cap;blue
165;Girmesdyk 17-19;Grundschule;Jahnschule;Schulhofsanierung;Außenanlagen;; ; ; ; ;x;Gute Schule 2020-Mittel;855000;;51.344891;6.552899;fa-graduation-cap;blue
166;Girmesdyk 17-19;Grundschule;Jahnschule;Ersatz Pavillons, Prüfung auf Grundlage SEP und Musterraumprog.;Nutzung/SEP;; ; ; ; ; ;;855000;;51.344891;6.552899;fa-graduation-cap;blue
167;Girmesdyk 17-19;Grundschule;Jahnschule;Turnhalle, Austausch Beleuchtung LED (Förderprojekt);Energetische Sanierung;; ;x; ; ; ;;855000;;51.344891;6.552899;fa-graduation-cap;blue
168;Girmesdyk 17-19;Grundschule;Jahnschule;Turnhalle, Sanierung Prallschutz u. Parkettboden;Sanierung;; ;x; ; ; ;Gute Schule 2020-Mittel;855000;;51.344891;6.552899;fa-graduation-cap;blue
169;Girmesdyk 17-19;Grundschule;Jahnschule;Turnhalle: Sanierung Sanitäranlagen;Sanierung;; ;x; ; ; ;Gute Schule 2020-Mittel;855000;;51.344891;6.552899;fa-graduation-cap;blue
170;Girmesdyk 17-19;Grundschule;Jahnschule;Turnhalle, Altbau, Abdichtung/Trockenlegung KG;Sanierung;; ;x; ; ; ;;855000;;51.344891;6.552899;fa-graduation-cap;blue
171;Girmesdyk 17-19;Grundschule;Jahnschule;Bauunterhalt < 10.000 Euro;Sanierung;;x;x;x;x;x;;855000;;51.344891;6.552899;fa-graduation-cap;blue
172;Girmesdyk 17-19;Grundschule;Jahnschule;Turnhalle/ Versammlungsstätte  Überprüfung/Ertüchtigung;Verkehrssicherheit;;;;;;;;855000;;51.344891;6.552899;fa-graduation-cap;blue
174;Kohlplatzweg 25;Grundschule;Johansenschule;Dämmung obere Geschossdecke;Energetische Sanierung;; ;       ;x; ; ;;805000;;51.338053;6.646787;fa-graduation-cap;blue
175;Kohlplatzweg 25;Grundschule;Johansenschule;Digitalisierung;Digitalisierung;;; ;                                                                 ;x; ;Gute Schule 2020-Mittel;805000;;51.338053;6.646787;fa-graduation-cap;blue
176;Kohlplatzweg 25;Grundschule;Johansenschule;Hauptgebäude, Reparatur Fenster ;Gebäudehülle;;;x; ; ; ;;805000;;51.338053;6.646787;fa-graduation-cap;blue
177;Kohlplatzweg 25;Grundschule;Johansenschule;Sanierung Sanitäranlagen;Sanierung;;; ;x; ; ;;805000;;51.338053;6.646787;fa-graduation-cap;blue
178;Kohlplatzweg 25;Grundschule;Johansenschule;Anstrich Flure, Treppenräume;Sanierung;;;x; ; ; ;Gute Schule 2020-Mittel;805000;;51.338053;6.646787;fa-graduation-cap;blue
179;Kohlplatzweg 25;Grundschule;Johansenschule;Sanierung Klassenräume;Sanierung;;;x; ; ; ;Gute Schule 2020-Mittel;805000;;51.338053;6.646787;fa-graduation-cap;blue
180;Kohlplatzweg 25;Grundschule;Johansenschule;Erneuerung Innenraumtüren;Sanierung;;;; ;x; ;;805000;;51.338053;6.646787;fa-graduation-cap;blue
181;Kohlplatzweg 25;Grundschule;Johansenschule;Schulhofsanierung;Außenanlagen;;;; ; ;x;Gute Schule 2020-Mittel;805000;;51.338053;6.646787;fa-graduation-cap;blue
182;Kohlplatzweg 25;Grundschule;Johansenschule;Turnhalle, Umstellung Beleuchtung auf LED;Energetische Sanierung;x;;;;; ;;805000;;51.338053;6.646787;fa-graduation-cap;blue
183;Kohlplatzweg 25;Grundschule;Johansenschule;Turnhalle, Sanierung Bodenbelag Umkleiden;Sanierung;;;x; ; ; ;Gute Schule 2020-Mittel;805000;;51.338053;6.646787;fa-graduation-cap;blue
184;Kohlplatzweg 25;Grundschule;Johansenschule;Turnhalle, neue Decken Umkleiden u. Flure;Sanierung;;; ;x; ; ;;805000;;51.338053;6.646787;fa-graduation-cap;blue
185;Kohlplatzweg 25;Grundschule;Johansenschule;Turnhalle, Erneuerung RWA Dach;Brandschutz;;; ; ; ;x;;805000;;51.338053;6.646787;fa-graduation-cap;blue
186;Kohlplatzweg 25;Grundschule;Johansenschule;Turnhalle, Abklebung Dachhaut;Gebäudehülle;;; ; ; ;x;;805000;;51.338053;6.646787;fa-graduation-cap;blue
187;Kohlplatzweg 25;Grundschule;Johansenschule;Turnhalle: Sanierung Sanitäranlagen;Sanierung;;; ;x; ; ;;805000;;51.338053;6.646787;fa-graduation-cap;blue
188;Kohlplatzweg 25;Grundschule;Johansenschule;Turnhalle, Dach mit Attika aus Schiefer;Gebäudehülle;;; ; ; ;x;;805000;;51.338053;6.646787;fa-graduation-cap;blue
189;Kohlplatzweg 25;Grundschule;Johansenschule;Turnhalle, Sanierung Bodenbelag;Sanierung;;; ;x; ; ;;805000;;51.338053;6.646787;fa-graduation-cap;blue
190;Kohlplatzweg 25;Grundschule;Johansenschule;Bauunterhalt < 10.000 Euro;Sanierung;;x;x;x;x;x;;805000;;51.338053;6.646787;fa-graduation-cap;blue
192;An der Josefkirche 2;Grundschule;Josefschule;Notmaßnahme Decken (Rest aus 2017);Verkehrssicherheit;x;; ; ; ; ;;665000;;51.327285;06.55693;fa-graduation-cap;blue
193;An der Josefkirche 2;Grundschule;Josefschule;Digitalisierung;Digitalisierung;;;;x; ; ;Gute Schule 2020-Mittel;665000;;51.327285;06.55693;fa-graduation-cap;blue
194;An der Josefkirche 2;Grundschule;Josefschule;Geländererhöhung Treppenhaus;Verkehrssicherheit;;x; ; ; ; ;;665000;;51.327285;06.55693;fa-graduation-cap;blue
195;An der Josefkirche 2;Grundschule;Josefschule;Einbau RW-Fenster u. Abtrennung Keller;Brandschutz;; ; ; ; ;x;;665000;;51.327285;06.55693;fa-graduation-cap;blue
196;An der Josefkirche 2;Grundschule;Josefschule;Parkettböden abschleifen/versiegeln;Sanierung;; ;; ;x; ;;665000;;51.327285;06.55693;fa-graduation-cap;blue
197;An der Josefkirche 2;Grundschule;Josefschule;Sanierung Sanitäranlagen;Sanierung;; ; ; ; ;x;;665000;;51.327285;06.55693;fa-graduation-cap;blue
198;Südstr. 22/NG;Grundschule;Josefschule;NG Südstr., Sanierung Dach mit Glasaufbau/Wände;Gebäudehülle;; ;x; ; ; ;;665000;;51.326772;6.559606;fa-graduation-cap;blue
199;Südstr. 22/NG;Grundschule;Josefschule;NG Südstr. Sanierung Sanitäranlagen;Sanierung;; ; ;x; ; ;;665000;;51.326772;6.559606;fa-graduation-cap;blue
200;Südstr. 22/NG;Grundschule;Josefschule;NG Südstr., Digitalisierung;Digitalisierung;; ; ;x; ; ;Gute Schule 2020-Mittel;665000;;51.326772;6.559606;fa-graduation-cap;blue
201;Südstr. 22/NG;Grundschule;Josefschule;NG Südstr., Sanierung Klassenräume;Sanierung;;x; ; ; ; ;Gute Schule 2020-Mittel;665000;;51.326772;6.559606;fa-graduation-cap;blue
202;Südstr. 22/NG;Grundschule;Josefschule;NG Südstr., Sanierung Treppenhaus;Sanierung;;x; ; ; ; ;Gute Schule 2020-Mittel;665000;;51.326772;6.559606;fa-graduation-cap;blue
203;An der Josefkirche 2;Grundschule;Josefschule;Bauunterhalt < 10.000 Euro;Sanierung;;x;x;x;x;x;;665000;;51.327285;06.55693;fa-graduation-cap;blue
205;Oberbruchstr. 87;Grundschule;GS Königshof;Digitalisierung;Digitalisierung;; ; ; ;x; ;Gute Schule 2020-Mittel;630000;;51.315926;6.590567;fa-graduation-cap;blue
206;Oberbruchstr. 87;Grundschule;GS Königshof;BS-technische Ertüchtigung ;Brandschutz;;x; ; ; ; ;;630000;;51.315926;6.590567;fa-graduation-cap;blue
207;Oberbruchstr. 87;Grundschule;GS Königshof;Sanierung Parkettböden;Sanierung;;x;;;;;Gute Schule 2020-Mittel;630000;;51.315926;6.590567;fa-graduation-cap;blue
208;Oberbruchstr. 87;Grundschule;GS Königshof;Sanierung Klassenräume;Sanierung;;x; ; ; ; ;Gute Schule 2020-Mittel;630000;;51.315926;6.590567;fa-graduation-cap;blue
209;Oberbruchstr. 87;Grundschule;GS Königshof;Dämmung obere Geschossdecke;Energetische Sanierung;; ; ; ; ;x;;630000;;51.315926;6.590567;fa-graduation-cap;blue
210;Oberbruchstr. 87;Grundschule;GS Königshof;Sanierung Treppenhäuser und Flure;Sanierung;;x; ; ; ; ;Gute Schule 2020-Mittel;630000;;51.315926;6.590567;fa-graduation-cap;blue
211;Oberbruchstr. 87;Grundschule;GS Königshof;Sanierung OGS;Sanierung;; ;x; ; ; ;;630000;;51.315926;6.590567;fa-graduation-cap;blue
212;Oberbruchstr. 87;Grundschule;GS Königshof;Kellerabdichtung;Sanierung;; ; ; ; ;x;;630000;;51.315926;6.590567;fa-graduation-cap;blue
213;Oberbruchstr. 87;Grundschule;GS Königshof;Schulhofsanierung;Außenanlagen;; ;; ; ;x;Gute Schule 2020-Mittel;630000;;51.315926;6.590567;fa-graduation-cap;blue
214;Oberbruchstr. 87;Grundschule;GS Königshof;Sanierung Sanitäranlagen;Sanierung;; ;x; ; ; ;Gute Schule 2020-Mittel;630000;;51.315926;6.590567;fa-graduation-cap;blue
215;Oberbruchstr. 87;Grundschule;GS Königshof;Ersatz Pavillons, Prüfung auf Grundlage SEP und Musterraumprog.;Nutzung/SEP;; ;; ;; ;;630000;;51.315926;6.590567;fa-graduation-cap;blue
216;Oberbruchstr. 87;Grundschule;GS Königshof;Bauunterhalt < 10.000 Euro;Sanierung;;x;x;x;x;x;;630000;;51.315926;6.590567;fa-graduation-cap;blue
218;Gießerpfad 2-10;Grundschule;Lindenschule;Erweiterung Alarmierung BMZ;Brandschutz;x;; ; ; ; ;;480000;;51.320251;6.536653;fa-graduation-cap;blue
219;Gießerpfad 2-10;Grundschule;Lindenschule;Gestaltung Schulhof;Außenanlagen;; ;;; ;x;Gute Schule 2020-Mittel;480000;;51.320251;6.536653;fa-graduation-cap;blue
220;Gießerpfad 2-10;Grundschule;Lindenschule;Schallisolation Decke in 5 Klassen;Verkehrssicherheit;; ;x;; ; ;Gute Schule 2020-Mittel;480000;;51.320251;6.536653;fa-graduation-cap;blue
221;Gießerpfad 2-10;Grundschule;Lindenschule;Digitalisierung;Digitalisierung;; ; ;x; ; ;Gute Schule 2020-Mittel;480000;;51.320251;6.536653;fa-graduation-cap;blue
222;Gießerpfad 2-10;Grundschule;Lindenschule;Sanierung Flure u. Treppenhäuser;Sanierung;; ; ; ; ;x;Gute Schule 2020-Mittel;480000;;51.320251;6.536653;fa-graduation-cap;blue
223;Gießerpfad 2-10;Grundschule;Lindenschule;Anstrich Fenster;Gebäudehülle;; ; ;x; ; ;;480000;;51.320251;6.536653;fa-graduation-cap;blue
224;Gießerpfad 2-10;Grundschule;Lindenschule;Einbau BS-Tür bei Milchausgabe;Brandschutz;; ; ; ; ;x;;480000;;51.320251;6.536653;fa-graduation-cap;blue
225;Gießerpfad 2-10;Grundschule;Lindenschule;Ggf. Erweiterung auf Grundlage SEP u. Musterraumprogramm;SEP;; ; ; ;  ; ;;480000;;51.320251;6.536653;fa-graduation-cap;blue
226;Gießerpfad 2-10;Grundschule;Lindenschule;Sanierung Klassenräume;Sanierung;; ; ; ; ;x;Gute Schule 2020-Mittel;480000;;51.320251;6.536653;fa-graduation-cap;blue
227;Gießerpfad 2-10;Grundschule;Lindenschule;Sanierung Sanitäranlagen;Sanierung;; ; ; ; ;x;;480000;;51.320251;6.536653;fa-graduation-cap;blue
228;Gießerpfad 2-10;Grundschule;Lindenschule;Bauunterhalt< 10.000 Euro;Sanierung;;x;x;x;x;x;;480000;;51.320251;6.536653;fa-graduation-cap;blue
230;Gießerpfad 2-10;Grundschule;St. Michael Schule;Schulhofsanierung ;Außenanlagen;;;;;;x;Gute Schule 2020-Mittel;315000;;51.319832;6.535928;fa-graduation-cap;blue
231;Gießerpfad 2-10;Grundschule;St. Michael Schule;Ggf. Erweiterung auf Grundlage SEP u. Musterraumprogramm;SEP;; ; ; ; ; ;;315000;;51.319832;6.535928;fa-graduation-cap;blue
232;Gießerpfad 2-10;Grundschule;St. Michael Schule;Digitalisierung;Digitalisierung;; ; ;x; ; ;Gute Schule 2020-Mittel;315000;;51.319832;6.535928;fa-graduation-cap;blue
233;Gießerpfad 2-10;Grundschule;St. Michael Schule;Sanierung Klassenräume;Verkehrssicherheit;;x; ; ; ; ;Gute Schule 2020-Mittel;315000;;51.319832;6.535928;fa-graduation-cap;blue
234;Gießerpfad 2-10;Grundschule;St. Michael Schule;Anstrich Eingangstüren;Gebäudehülle;;x; ; ; ; ;;315000;;51.319832;6.535928;fa-graduation-cap;blue
235;Gießerpfad 2-10;Grundschule;St. Michael Schule;Erneuerung Bodenbelag;Verkehrssicherheit;;x; ; ; ; ;Gute Schule 2020-Mittel;315000;;51.319832;6.535928;fa-graduation-cap;blue
236;Gießerpfad 2-10;Grundschule;St. Michael Schule;Bauunterhalt < 10.000 Euro;Sanierung;;x;x;x;x;x;;315000;;51.319832;6.535928;fa-graduation-cap;blue
238;Mariannenstr. 29;Grundschule;Mariannenschule;Dach-  und Fassadensanierung;Gebäudehülle;; ; ;x; ;;;775000;;51.329765;6.570988;fa-graduation-cap;blue
239;Mariannenstr. 29;Grundschule;Mariannenschule;Sanierung Klassenräume;Sanierung;; ; ;x; ;;;775000;;51.329765;6.570988;fa-graduation-cap;blue
240;Mariannenstr. 29;Grundschule;Mariannenschule;Sanierung Sanitäranlagen ;Sanierung;; ;x; ; ;;Gute Schule 2020-Mittel;775000;;51.329765;6.570988;fa-graduation-cap;blue
241;Mariannenstr. 97, NG;Grundschule;Mariannenschule;Erneuerung Fenster;Gebäudehülle;;;x; ; ; ;Gute Schule 2020-Mittel;775000;;51.332105;6.569809;fa-graduation-cap;blue
242;Mariannenstr. 29;Grundschule;Mariannenschule;Sanierung Flure u. Treppenhaus;Sanierung;; ; ;x; ;;;775000;;51.329765;6.570988;fa-graduation-cap;blue
243;Mariannenstr. 97, NG;Grundschule;Mariannenschule;Digitalisierung;Digitalisierung;;; ; ;x; ;Gute Schule 2020-Mittel;775000;;51.332105;6.569809;fa-graduation-cap;blue
244;Mariannenstr. 97, NG;Grundschule;Mariannenschule;Anbau Hofseite, Behebung Putzschäden Fassade;Gebäudehülle;;;x; ; ; ;Gute Schule 2020-Mittel;775000;;51.332105;6.569809;fa-graduation-cap;blue
245;Mariannenstr. 97, NG;Grundschule;Mariannenschule;Erneuerung WW-Verteilung + Dem. Einzelraumregelung;Energetische Sanierung;;x; ; ; ; ;;775000;;51.332105;6.569809;fa-graduation-cap;blue
246;Mariannenstr. 97, NG;Grundschule;Mariannenschule;Erneuerung Heizkörper Klassenräume;Energetische Sanierung;;;x; ; ; ;;775000;;51.332105;6.569809;fa-graduation-cap;blue
247;Mariannenstr. 29;Grundschule;Mariannenschule;Digitalisierung;Digitalisierung;; ; ; ;x; ;Gute Schule 2020-Mittel;775000;;51.329765;6.570988;fa-graduation-cap;blue
248;Mariannenstr. 29;Grundschule;Mariannenschule;Bauunterhalt < 10.000 Euro;Sanierung;;x;x;x;x;x;;775000;;51.329765;6.570988;fa-graduation-cap;blue
250;Hofstr. 45;Grundschule;Mosaikschule;Turnhalle, Sanierung Außenfassade;Gebäudehülle;; ;x; ; ; ;;585500;;51.338849;6.553821;fa-graduation-cap;blue
251;Hofstr. 45;Grundschule;Mosaikschule;Digitalisierung (gem. FB 40 z.Z. noch nicht);Digitalisierung; ; ;x; ; ;;Gute Schule 2020-Mittel;585500;;51.338849;6.553821;fa-graduation-cap;blue
252;Hofstr. 45;Grundschule;Mosaikschule;Schottung Treppenhäuser inkl. Ausgänge;Brandschutz;; ; ; ; ;x;;585500;;51.338849;6.553821;fa-graduation-cap;blue
253;Hofstr. 45;Grundschule;Mosaikschule;Prüfung Neubau  / Umzug inkl. Erweiterung;SEP;;;;;;;;585500;;51.338849;6.553821;fa-graduation-cap;blue
254;Felbelstr. 24/NG;Grundschule;Mosaikschule;Schottung Treppenhaus 1. OG, Einbau BS-Türen zum Klassenraum;Brandschutz;; ;x; ; ; ;;585500;;51.336184;6.568006;fa-graduation-cap;blue
255;Felbelstr. 24/NG;Grundschule;Mosaikschule;Sanierung Klassenräume;Sanierung;;;x; ; ; ;Gute Schule 2020-Mittel;585500;;51.336184;6.568006;fa-graduation-cap;blue
256;Felbelstr. 24/NG;Grundschule;Mosaikschule;Notmaßnahme Decken (Rest aus 2017);Brandschutz;x;; ; ; ; ;;585500;;51.336184;6.568006;fa-graduation-cap;blue
257;Felbelstr. 24/NG;Grundschule;Mosaikschule;Sanierung Flure u. Treppenhaus;Sanierung;;;x; ; ; ;Gute Schule 2020-Mittel;585500;;51.336184;6.568006;fa-graduation-cap;blue
258;Felbelstr. 24/NG;Grundschule;Mosaikschule;Digitalisierung;Digitalisierung; ; ;x; ; ;;Gute Schule 2020-Mittel;585500;;51.336184;6.568006;fa-graduation-cap;blue
259;Felbelstr. 24/NG;Grundschule;Mosaikschule;Ggf. Erweiterung auf Grundlage SEP u. Musterraumprogramm;SEP;;;;;;;;585500;;51.336184;6.568006;fa-graduation-cap;blue
260;Felbelstr. 24/NG;Grundschule;Mosaikschule;Turnhalle, Sanierung Flachdach und Fassade;Gebäudehülle;; ;; ;x; ;;585500;;51.336184;6.568006;fa-graduation-cap;blue
261;Felbelstr. 24/NG;Grundschule;Mosaikschule;Turnhalle, Erweiterung Alarmierung;Brandschutz;; ;x; ; ; ;;585500;;51.336184;6.568006;fa-graduation-cap;blue
262;Hofstr. 45;Grundschule;Mosaikschule;Bauunterhalt < 10.000 Euro;Sanierung;;x;x;x;x;x;;585500;;51.338849;6.553821;fa-graduation-cap;blue
263;Hofstr. 45;Grundschule;Mosaikschule;Versammlungsstätte  Überprüfung/Ertüchtigung;Verkehrssicherheit;;;;;;;;585500;;51.338849;6.553821;fa-graduation-cap;blue
265;Joseph-Görres-Str. 20;Grundschule;Paul-Gerhardt-Schule;Sanierung Sanitäranlagen (Toilettenhaus u. Pavillon);Sanierung;;x; ;  ; ; ;Gute Schule 2020-Mittel;555000;;51.352301;6.645455;fa-graduation-cap;blue
266;Joseph-Görres-Str. 20;Grundschule;Paul-Gerhardt-Schule;Digitalisierung;Digitalisierung;; ;x; ; ; ;Gute Schule 2020-Mittel;555000;;51.352301;6.645455;fa-graduation-cap;blue
267;Joseph-Görres-Str. 20;Grundschule;Paul-Gerhardt-Schule;Sanierung Parkettböden;Sanierung;;x; ; ; ; ;Gute Schule 2020-Mittel;555000;;51.352301;6.645455;fa-graduation-cap;blue
268;Joseph-Görres-Str. 20;Grundschule;Paul-Gerhardt-Schule;Hauptgebäude, Erneuerung Fenster;Gebäudehülle;; ;x; ; ; ;Gute Schule 2020-Mittel;555000;;51.352301;6.645455;fa-graduation-cap;blue
269;Joseph-Görres-Str. 20;Grundschule;Paul-Gerhardt-Schule;Hauptgebäude/Fluchttreppenturm 1. OG;Brandschutz;; ; ; ; ;x;;555000;;51.352301;6.645455;fa-graduation-cap;blue
270;Joseph-Görres-Str. 20;Grundschule;Paul-Gerhardt-Schule;Ggf. Erweiterung auf Grundlage SEP u. Musterraumprogramm;SEP;; ; ; ; ; ;;555000;;51.352301;6.645455;fa-graduation-cap;blue
271;Joseph-Görres-Str. 20;Grundschule;Paul-Gerhardt-Schule;Bauunterhalt < 10.000 Euro;Sanierung;;x;x;x;x;x;;555000;;51.352301;6.645455;fa-graduation-cap;blue
273;Hülser Str. 449;Grundschule;Pestalozzischule;Sanierung Parkettböden;Sanierung;;x; ; ; ; ;Gute Schule 2020-Mittel;420000;;51.351859;6.537767;fa-graduation-cap;blue
274;Hülser Str. 449;Grundschule;Pestalozzischule;Digitalisierung;Digitalisierung;;x; ; ; ;;Gute Schule 2020-Mittel;420000;;51.351859;6.537767;fa-graduation-cap;blue
275;Hülser Str. 449;Grundschule;Pestalozzischule;Einbau Sonnenschutz ;Gebäudehülle;; ;x; ; ; ;;420000;;51.351859;6.537767;fa-graduation-cap;blue
276;Hülser Str. 449;Grundschule;Pestalozzischule;Dämmung obere Geschossdecke;Energetische Sanierung;; ;x; ; ; ;;420000;;51.351859;6.537767;fa-graduation-cap;blue
277;Hülser Str. 449;Grundschule;Pestalozzischule;Anstrich Flure u. Treppenräume;Sanierung;;x; ; ; ; ;Gute Schule 2020-Mittel;420000;;51.351859;6.537767;fa-graduation-cap;blue
278;Hülser Str. 449;Grundschule;Pestalozzischule;Altbau, Treppenhaus, BS-Türen, Schottung UG;Brandschutz;; ; ; ; ;x;;420000;;51.351859;6.537767;fa-graduation-cap;blue
279;Hülser Str. 449;Grundschule;Pestalozzischule;Dachsanierung;Gebäudehülle;; ; ; ;x;;;420000;;51.351859;6.537767;fa-graduation-cap;blue
280;Hülser Str. 449;Grundschule;Pestalozzischule;Bauunterhalt < 10.000 Euro;Sanierung;;x;x;x;x;x;;420000;;51.351859;6.537767;fa-graduation-cap;blue
282;Gladbacher Str. 277;Grundschule;Regenbogenschule;Erneuerung Fenster, Brandschutzkonzept;Gebäudehülle;; ; ; ;x;;;5185000;;51.315677;6.558698;fa-graduation-cap;blue
283;Gladbacher Str. 277;Grundschule;Regenbogenschule;Austausch RWA;Brandschutz;; ; ; ; ;x;;5185000;;51.315677;6.558698;fa-graduation-cap;blue
284;Gladbacher Str. 277;Grundschule;Regenbogenschule;Einbau HAZ;Brandschutz;;x; ; ; ;;;5185000;;51.315677;6.558698;fa-graduation-cap;blue
285;Gladbacher Str. 277;Grundschule;Regenbogenschule;Digitalisierung;Digitalisierung;; ;x; ; ; ;Gute Schule 2020-Mittel;5185000;;51.315677;6.558698;fa-graduation-cap;blue
286;Gladbacher Str. 277;Grundschule;Regenbogenschule;Planung/Arch. Sanierung Nebengebäude;Sanierung;x; ; ; ; ; ;KInvFöG-Mittel;5185000;;51.315677;6.558698;fa-graduation-cap;blue
287;Gladbacher Str. 277;Grundschule;Regenbogenschule;Neubau (Planung) inkl. Erweiterung gemäß SEP;Neubau/SEP;x;;;; ; ;Gute Schule 2020-Mittel;5185000;;51.315677;6.558698;fa-graduation-cap;blue
288;Gladbacher Str. 277;Grundschule;Regenbogenschule;Überdachung;Gebäudehülle;; ;x;;; ;;5185000;;51.315677;6.558698;fa-graduation-cap;blue
289;Gladbacher Str. 277;Grundschule;Regenbogenschule;Trockenlegung Keller Hauptgebäude;Sanierung;;x;;;;;;5185000;;51.315677;6.558698;fa-graduation-cap;blue
290;Gladbacher Str. 277;Grundschule;Regenbogenschule;Erneuerung Dachdämmung oberste Geschossdecke;Energetische Sanierung;;;x;;;;;5185000;;51.315677;6.558698;fa-graduation-cap;blue
291;Gladbacher Str. 277;Grundschule;Regenbogenschule;Bauunterhalt < 10.000 Euro;Sanierung;;x;x;x;x;x;;5185000;;51.315677;6.558698;fa-graduation-cap;blue
293;Thielenstr. 40;Grundschule;Schönwasserschule;Erneuerung Schuleinfriedung;Verkehrssicherheit;x;; ; ; ; ;;560000;;51.331845;6.610782;fa-graduation-cap;blue
294;Thielenstr. 40;Grundschule;Schönwasserschule;Erneuerung Brandschutztüren;Brandschutz;;x; ; ; ; ;;560000;;51.331845;6.610782;fa-graduation-cap;blue
295;Thielenstr. 40;Grundschule;Schönwasserschule;Sanierung Klassenräume;Sanierung;;; ; ; ;x;;560000;;51.331845;6.610782;fa-graduation-cap;blue
296;Thielenstr. 40;Grundschule;Schönwasserschule;Digitalisierung;Digitalisierung;; ; ; ;x; ;Gute Schule 2020-Mittel;560000;;51.331845;6.610782;fa-graduation-cap;blue
297;Thielenstr. 40;Grundschule;Schönwasserschule;Sanierung Treppenhäuser u. Flure;Sanierung;;; ; ; ;x;;560000;;51.331845;6.610782;fa-graduation-cap;blue
298;Thielenstr. 40;Grundschule;Schönwasserschule;Dachsanierung;Gebäudehülle;; ;x;; ; ;Gute Schule 2020-Mittel;560000;;51.331845;6.610782;fa-graduation-cap;blue
299;Thielenstr. 40;Grundschule;Schönwasserschule;Gestaltung Schulhof;Außenanlagen;; ;;x; ;;;560000;;51.331845;6.610782;fa-graduation-cap;blue
300;Thielenstr. 40;Grundschule;Schönwasserschule;Erneuerung  Fenster Altbau;Gebäudehülle;;x; ; ; ; ;Gute Schule 2020-Mittel;560000;;51.331845;6.610782;fa-graduation-cap;blue
301;Thielenstr. 40;Grundschule;Schönwasserschule;Prüfung Raumbedarf auf Grundlage SEP und Musterraumprog.;Nutzung/SEP;;;;;;;;560000;;51.331845;6.610782;fa-graduation-cap;blue
302;Thielenstr. 40;Grundschule;Schönwasserschule;Bauunterhalt < 10.000 Euro;Sanierung;;x;x;x;x;x;;560000;;51.331845;6.610782;fa-graduation-cap;blue
304;Herrenweg 10-14;Grundschule;GS an der Burg;Sanierung Sanitäranlagen;Sanierung;; ; ; ; ;x;;575000;;51.374774;6.511297;fa-graduation-cap;blue
305;Herrenweg 10-14;Grundschule;GS an der Burg;Erneuerung Fenster 3./4. BA;Gebäudehülle;; ; ;x; ; ;;575000;;51.374774;6.511297;fa-graduation-cap;blue
306;Herrenweg 10-14;Grundschule;GS an der Burg;Sanierung Klassenräume;Sanierung;; ; ;; ;x;;575000;;51.374774;6.511297;fa-graduation-cap;blue
307;Herrenweg 10-14;Grundschule;GS an der Burg;Digitalisierung;Digitalisierung;; ;x; ; ; ;Gute Schule 2020-Mittel;575000;;51.374774;6.511297;fa-graduation-cap;blue
308;Herrenweg 10-14;Grundschule;GS an der Burg;Sanierung Flurbereiche;Sanierung;; ; ;; ;x;;575000;;51.374774;6.511297;fa-graduation-cap;blue
309;Herrenweg 10-14;Grundschule;GS an der Burg;Schulhof, Umbau Eingangsbereich mit Einzeltor;Außenanlagen;; ;x; ; ; ;Gute Schule 2020-Mittel;575000;;51.374774;6.511297;fa-graduation-cap;blue
310;Herrenweg 10-14;Grundschule;GS an der Burg;Bauunterhalt < 10.000 Euro;Sanierung;;x;x;x;x;x;;575000;;51.374774;6.511297;fa-graduation-cap;blue
312;Neukirchener Str. 3;Grundschule;Schule an Haus Rath;Turnhalle, Ant. Modernisierung HZ/RLT/WWB (SWK);Energetische Sanierung;; ; ; ; ;x;;890000;;51.370269;6.617085;fa-graduation-cap;blue
313;Neukirchener Str. 3;Grundschule;Schule an Haus Rath;Digitalisierung;Digitalisierung; ; ;x; ; ;;Gute Schule 2020-Mittel;890000;;51.370269;6.617085;fa-graduation-cap;blue
314;Neukirchener Str. 3;Grundschule;Schule an Haus Rath;Turnhalle, Sanierung Hallenboden;Sanierung;; x; ; ; ; ;KInvFöG-Mittel;890000;;51.370269;6.617085;fa-graduation-cap;blue
315;Neukirchener Str. 3;Grundschule;Schule an Haus Rath;Turnhalle, Sanierung Prallschutz;Sanierung;;x; ; ; ; ;KInvFöG-Mittel;890000;;51.370269;6.617085;fa-graduation-cap;blue
316;Neukirchener Str. 3;Grundschule;Schule an Haus Rath;Turnhalle, Sanierung Sanitäranlagen;Sanierung;;x; ; ; ; ;KInvFöG-Mittel;890000;;51.370269;6.617085;fa-graduation-cap;blue
317;Neukirchener Str. 3;Grundschule;Schule an Haus Rath;Sanierung Klassenräume;Sanierung;;; ; ; ;x;;890000;;51.370269;6.617085;fa-graduation-cap;blue
318;Neukirchener Str. 3;Grundschule;Schule an Haus Rath;Fassadensanierung, 2. BA;Gebäudehülle;; ;x;; ; ;KInvFöG-Mittel;890000;;51.370269;6.617085;fa-graduation-cap;blue
319;Neukirchener Str. 3;Grundschule;Schule an Haus Rath;HM-Haus, Sanierung;Sanierung;;x; ; ; ; ;;890000;;51.370269;6.617085;fa-graduation-cap;blue
320;Neukirchener Str. 3;Grundschule;Schule an Haus Rath;Sanierung Flure u. Treppenhaus;Sanierung;;; ; ; ;x;;890000;;51.370269;6.617085;fa-graduation-cap;blue
321;Neukirchener Str. 3;Grundschule;Schule an Haus Rath;Bauunterhalt < 10.000 Euro;Sanierung;;x;x;x;x;x;;890000;;51.370269;6.617085;fa-graduation-cap;blue
323;Sollbrüggenstr. 81;Grundschule;Sollbrüggenschule;Altbau, diverse Brandschutzmaßnahmen;Brandschutz; ; ;x;; ; ;;4240000;;51.346608;6.612757;fa-graduation-cap;blue
324;Sollbrüggenstr. 81;Grundschule;Sollbrüggenschule;Digitalisierung;Digitalisierung; ; ;x; ; ; ;Gute Schule 2020-Mittel;4240000;;51.346608;6.612757;fa-graduation-cap;blue
325;Sollbrüggenstr. 81;Grundschule;Sollbrüggenschule;Umbau Lehrerzimmer (Rest aus 2017);Neubau;x;; ; ; ; ;;4240000;;51.346608;6.612757;fa-graduation-cap;blue
326;Sollbrüggenstr. 81;Grundschule;Sollbrüggenschule;Sanierung Klassenräume;Sanierung;; ;x;x; ; ;Gute Schule 2020-Mittel;4240000;;51.346608;6.612757;fa-graduation-cap;blue
327;Sollbrüggenstr. 81;Grundschule;Sollbrüggenschule;Hauptgeb., Fluchttreppenturm für 1. OG;Brandschutz;; ;x; ; ; ;;4240000;;51.346608;6.612757;fa-graduation-cap;blue
328;Sollbrüggenstr. 81;Grundschule;Sollbrüggenschule;Sanierung Flure und Treppenhäuser;Sanierung;; ;x;; ; ;Gute Schule 2020-Mittel;4240000;;51.346608;6.612757;fa-graduation-cap;blue
329;Sollbrüggenstr. 81;Grundschule;Sollbrüggenschule;Neubau, Austausch Eingangstüren;Sanierung;; ; ; ; ;x;;4240000;;51.346608;6.612757;fa-graduation-cap;blue
330;Sollbrüggenstr. 81;Grundschule;Sollbrüggenschule;Einbau RWA in Treppenhaus;Brandschutz;; ;x; ; ; ;;4240000;;51.346608;6.612757;fa-graduation-cap;blue
331;Sollbrüggenstr. 81;Grundschule;Sollbrüggenschule;Austausch Flurdecken;Sanierung;; ; ; ;x;;;4240000;;51.346608;6.612757;fa-graduation-cap;blue
332;Sollbrüggenstr. 81;Grundschule;Sollbrüggenschule;Erneuerung der Fenster;Gebäudehülle;; ; ; ; ;x;;4240000;;51.346608;6.612757;fa-graduation-cap;blue
333;Sollbrüggenstr. 81;Grundschule;Sollbrüggenschule;Altbau, Dachsanierung;Gebäudehülle;; ; ; ; ;x;;4240000;;51.346608;6.612757;fa-graduation-cap;blue
334;Sollbrüggenstr. 81;Grundschule;Sollbrüggenschule;Neubau (Planung) inkl. Erweiterung gemäß SEP;Neubau/SEP;x;;;; ; ;KInvFöG-Mittel;4240000;;51.346608;6.612757;fa-graduation-cap;blue
335;Sollbrüggenstr. 81;Grundschule;Sollbrüggenschule;Turnhalle, Sekuranten;Verkehrssicherheit;; ;x; ; ; ;;4240000;;51.346608;6.612757;fa-graduation-cap;blue
336;Sollbrüggenstr. 81;Grundschule;Sollbrüggenschule;Turnhalle, Ertüchtigung zur Versammlungsstätte;Verkehrssicherheit;; ;x; ; ; ;;4240000;;51.346608;6.612757;fa-graduation-cap;blue
337;Sollbrüggenstr. 81;Grundschule;Sollbrüggenschule;Bauunterhalt < 10.000 Euro;Sanierung;;x;x;x;x;x;;4240000;;51.346608;6.612757;fa-graduation-cap;blue
339;Vulkanstr. 264;Grundschule;GS Am Stadtpark-Fi;Anstrich Treppenräume u. Flure;Sanierung;; ; ;x; ; ;;1490000;;51.30829;6.556808;fa-graduation-cap;blue
340;Vulkanstr. 264;Grundschule;GS Am Stadtpark-Fi;Neue Zaunanlage;Außenanlagen;; ; ; ; ;x;;1490000;;51.30829;6.556808;fa-graduation-cap;blue
341;Vulkanstr. 264;Grundschule;GS Am Stadtpark-Fi;Digitalisierung;Digitalisierung; ; ;x;; ; ;Gute Schule 2020-Mittel;1490000;;51.30829;6.556808;fa-graduation-cap;blue
342;Vulkanstr. 264;Grundschule;GS Am Stadtpark-Fi;Sanierung Sanitäranlagen;Sanierung;; ;x; ; ;;Gute Schule 2020-Mittel;1490000;;51.30829;6.556808;fa-graduation-cap;blue
343;Vulkanstr. 264;Grundschule;GS Am Stadtpark-Fi;Sanierung Klassenräume ;Sanierung;; ;;x; ; ;;1490000;;51.30829;6.556808;fa-graduation-cap;blue
344;Vulkanstr. 264;Grundschule;GS Am Stadtpark-Fi;Erneuerung Beleuchtung;Verkehrssicherheit;;x; ; ; ;  ;;1490000;;51.30829;6.556808;fa-graduation-cap;blue
345;Vulkanstr. 264;Grundschule;GS Am Stadtpark-Fi;Sanierung Flure;Sanierung;; ;;x; ; ;;1490000;;51.30829;6.556808;fa-graduation-cap;blue
346;Vulkanstr. 264;Grundschule;GS Am Stadtpark-Fi;Schulhofsanierung;Außenanlagen;; ; ;x; ; ;;1490000;;51.30829;6.556808;fa-graduation-cap;blue
347;Vulkanstr. 264;Grundschule;GS Am Stadtpark-Fi;Ersatz Pavillons, Prüfung auf Grundlage SEP und Musterraumprog.;Nutzung/SEP;; ;; ;x; ;;1490000;;51.30829;6.556808;fa-graduation-cap;blue
348;Vulkanstr. 264;Grundschule;GS Am Stadtpark-Fi;Nebengebäude, Fluchttreppenturm für 1. OG;Brandschutz;; ; ; ; ;x;;1490000;;51.30829;6.556808;fa-graduation-cap;blue
349;Vulkanstr. 264;Grundschule;GS Am Stadtpark-Fi;Turnhalle, Erneuerung Lüftung und Warmwasser ;Sanierung;;x;; ; ; ;;1490000;;51.30829;6.556808;fa-graduation-cap;blue
350;Vulkanstr. 264;Grundschule;GS Am Stadtpark-Fi;Turnhalle Sanierung Sanitäranlagen;Sanierung;; ;x; ; ;;Gute Schule 2020-Mittel;1490000;;51.30829;6.556808;fa-graduation-cap;blue
351;Vulkanstr. 264;Grundschule;GS Am Stadtpark-Fi;Turnhalle, Sanierung Bodenbelag Umkleiden;Sanierung;; ;x; ; ; ;;1490000;;51.30829;6.556808;fa-graduation-cap;blue
352;Vulkanstr. 264;Grundschule;GS Am Stadtpark-Fi;Bauunterhalt < 10.000 Euro;Sanierung; ;x;x;x;x;x;;1490000;;51.30829;6.556808;fa-graduation-cap;blue
353;Wimmersweg 21;Grundschule;GS Am Stadtpark-Fi;Einbau HAZ;Brandschutz; ;x; ; ; ; ;;1490000;;51.304266;6.582063;fa-graduation-cap;blue
354;Wimmersweg 21;Grundschule;GS Am Stadtpark-Fi;Brandschutzkonzept (Rest aus 2017);Brandschutz;x;; ; ; ; ;;1490000;;51.304266;6.582063;fa-graduation-cap;blue
355;Wimmersweg 21;Grundschule;GS Am Stadtpark-Fi;Digitalisierung;Digitalisierung; ; ;x; ; ;;Gute Schule 2020-Mittel;1490000;;51.304266;6.582063;fa-graduation-cap;blue
356;Wimmersweg 21;Grundschule;GS Am Stadtpark-Fi;Sanierung Klassenräume;Sanierung;; ; ;x; ; ;;1490000;;51.304266;6.582063;fa-graduation-cap;blue
357;Wimmersweg 21;Grundschule;GS Am Stadtpark-Fi;Sanierung Sanitäranlagen;Sanierung;; ;x; ; ; ;Gute Schule 2020-Mittel;1490000;;51.304266;6.582063;fa-graduation-cap;blue
358;Wimmersweg 21;Grundschule;GS Am Stadtpark-Fi;Sanierung Flurbereiche;Sanierung;; ; ;x; ; ;;1490000;;51.304266;6.582063;fa-graduation-cap;blue
359;Wimmersweg 21;Grundschule;GS Am Stadtpark-Fi;Sanierung Kanalleitungen;Sanierung;; ;x; ; ; ;;1490000;;51.304266;6.582063;fa-graduation-cap;blue
360;Wimmersweg 21;Grundschule;GS Am Stadtpark-Fi;Dachsanierung;Gebäudehülle;; ;x; ; ; ;Gute Schule 2020-Mittel;1490000;;51.304266;6.582063;fa-graduation-cap;blue
361;Wimmersweg 21;Grundschule;GS Am Stadtpark-Fi;Erneuerung Fenster;Gebäudehülle;; ; ;x; ; ;;1490000;;51.304266;6.582063;fa-graduation-cap;blue
362;Wimmersweg 21;Grundschule;GS Am Stadtpark-Fi;Ersatz Pavillons;Sanierung;; ; ; ; ; ;;1490000;;51.304266;6.582063;fa-graduation-cap;blue
363;Wimmersweg 21;Grundschule;GS Am Stadtpark-Fi;Ggf. Erweiterung auf Grundlage SEP u. Musterraumprogramm;SEP;;;;;;;;1490000;;51.304266;6.582063;fa-graduation-cap;blue
364;Wimmersweg 21;Grundschule;GS Am Stadtpark-Fi;Turnhalle, Ertüchtigung zur Versammlungsstätte;Sanierung;x; ; ; ;x; ;;1490000;;51.304266;6.582063;fa-graduation-cap;blue
365;Wimmersweg 21;Grundschule;GS Am Stadtpark-Fi;Turnhalle, Sanierung Sanitäranlagen;Sanierung;; ;x; ; ; ;Gute Schule 2020-Mittel;1490000;;51.304266;6.582063;fa-graduation-cap;blue
366;Wimmersweg 21;Grundschule;GS Am Stadtpark-Fi;Turnhalle, Sicherheitsbeleuchtung;Verkehrssicherheit;;x; ; ; ; ;;1490000;;51.304266;6.582063;fa-graduation-cap;blue
367;Marienstr. 81 a/NG;Grundschule;GS Am Stadtpark-Fi;Erneuerung Treppenaufgang/Hauptzugang;Sanierung;; ; ;x; ; ;;1490000;;51.304551;6.584294;fa-graduation-cap;blue
368;Marienstr. 81 a/NG;Grundschule;GS Am Stadtpark-Fi;Digitalisierung (beide Standorte);Digitalisierung; ; ;x; ; ; ;Gute Schule 2020-Mittel;1490000;;51.304551;6.584294;fa-graduation-cap;blue
369;Marienstr. 81 a/NG;Grundschule;GS Am Stadtpark-Fi;Außenanstrich Fenster;Gebäudehülle;;x; ; ; ; ;;1490000;;51.304551;6.584294;fa-graduation-cap;blue
370;Marienstr. 81 a/NG;Grundschule;GS Am Stadtpark-Fi;Sanierung Klassenräume;Sanierung;; ;x; ; ; ;Gute Schule 2020-Mittel;1490000;;51.304551;6.584294;fa-graduation-cap;blue
371;Marienstr. 81 a/NG;Grundschule;GS Am Stadtpark-Fi;Sanierung Flure und Treppenhaus;Sanierung;; ;x; ; ; ;Gute Schule 2020-Mittel;1490000;;51.304551;6.584294;fa-graduation-cap;blue
372;Wimmersweg 21;Grundschule;GS Am Stadtpark-Fi;Bauunterhalt < 10.000 Euro;Sanierung;;x;x;x;x;x;;1490000;;51.304266;6.582063;fa-graduation-cap;blue
374;Kölner Str. 667;Grundschule;Südschule;Errichtung Überdachung Bt. A + B;Gebäudehülle;; ; ; ; ;x;;560000;;51.299440;6.592936;fa-graduation-cap;blue
375;Kölner Str. 667;Grundschule;Südschule;BT C hinten, Fassadenanstrich;Gebäudehülle;; ;x; ; ;;;560000;;51.299440;6.592936;fa-graduation-cap;blue
376;Kölner Str. 667;Grundschule;Südschule;Digitalisierung;Digitalisierung; ; ; ; ; ;x;Gute Schule 2020-Mittel;560000;;51.299440;6.592936;fa-graduation-cap;blue
377;Kölner Str. 667;Grundschule;Südschule;BT C Keller, Trockenlegung;Sanierung;; ; ; ; ;x;;560000;;51.299440;6.592936;fa-graduation-cap;blue
378;Kölner Str. 667;Grundschule;Südschule;Austausch Sand gegen Fallschutzmatten;Außenanlagen;; ;x; ; ; ;;560000;;51.299440;6.592936;fa-graduation-cap;blue
379;Kölner Str. 667;Grundschule;Südschule;Sanierung Sanitäranlagen;Sanierung;; ; ; ; ;x;;560000;;51.299440;6.592936;fa-graduation-cap;blue
380;Kölner Str. 667;Grundschule;Südschule;Sanierung Klassenräume;Sanierung;; ; ; ; ;x;;560000;;51.299440;6.592936;fa-graduation-cap;blue
381;Kölner Str. 667;Grundschule;Südschule;Rauchmeldertausch;Brandschutz;;x; ; ; ; ;;560000;;51.299440;6.592936;fa-graduation-cap;blue
382;Kölner Str. 667;Grundschule;Südschule;Sanierung Flure;Sanierung;; ; ; ; ;x;;560000;;51.299440;6.592936;fa-graduation-cap;blue
383;Kölner Str. 667;Grundschule;Südschule;Bauunterhalt < 10.000 Euro;Sanierung;;x;x;x;x;x;;560000;;51.299440;6.592936;fa-graduation-cap;blue
385;Breslauer Str. 280;Hauptschule;Gartenstadtschule;Einbau HAZ Altbau;Brandschutz;;x; ; ; ; ;;1765000;;51.366158;6.617466;fa-graduation-cap;blue
386;Breslauer Str. 280;Hauptschule;Gartenstadtschule;Digitalisierung;Digitalisierung/SEP; ; ; ; ; ;x;Gute Schule 2020-Mittel;1765000;Abhängig von weiterer Nutzung;51.366158;6.617466;fa-graduation-cap;blue
387;Breslauer Str. 280;Hauptschule;Gartenstadtschule;Sanierung Klassenräume für Nutzung FS Stettiner Str. (Inklusion);Sanierung;x; ; ; ; ; ;;1765000;;51.366158;6.617466;fa-graduation-cap;blue
388;Breslauer Str. 280;Hauptschule;Gartenstadtschule;Sanierung Sanitäranlagen (ohne Turnhalle);Sanierung/SEP;; ;x; ; ; ;Gute Schule 2020-Mittel;1765000;Abhängig von weiterer Nutzung;51.366158;6.617466;fa-graduation-cap;blue
389;Breslauer Str. 280;Hauptschule;Gartenstadtschule;Austausch Flurdecken;Sanierung/SEP;; ; ; ; ;x;;1765000;Abhängig von weiterer Nutzung;51.366158;6.617466;fa-graduation-cap;blue
390;Breslauer Str. 280;Hauptschule;Gartenstadtschule;Anbau Außentreppen;Brandschutz/SEP;; ; ; ; ;x;;1765000;Abhängig von weiterer Nutzung;51.366158;6.617466;fa-graduation-cap;blue
391;Breslauer Str. 280;Hauptschule;Gartenstadtschule;Turnhalle, Sanierung;Sanierung/SEP;; ; ; ; ;x;;1765000;Abhängig von weiterer Nutzung;51.366158;6.617466;fa-graduation-cap;blue
392;Breslauer Str. 280;Hauptschule;Gartenstadtschule;Prüfung der weiteren schul. Nutzung (Ausbau/Umbau?);SEP;;;;;;;;1765000;;51.366158;6.617466;fa-graduation-cap;blue
393;Breslauer Str. 280;Hauptschule;Gartenstadtschule;Bauunterhalt < 10.000 Euro;Sanierung/SEP;;x;x;x;x;x;;1765000;Abhängig von weiterer Nutzung;51.366158;6.617466;fa-graduation-cap;blue
395;Hafelsstr. 41;Hauptschule;Josef-Hafels-Schule;Einbau HAZ;Brandschutz; ; ;x; ; ; ;;1100000;;51.307656;6.589413;fa-graduation-cap;blue
396;Hafelsstr. 41;Hauptschule;Josef-Hafels-Schule;Erneuerung Flurdecke 1. OG + 2.OG;Brandschutz;; ;; ;x; ;;1100000;;51.307656;6.589413;fa-graduation-cap;blue
397;Hafelsstr. 41;Hauptschule;Josef-Hafels-Schule;Digitalisierung;Digitalisierung; ; ; ; ; ;x;Gute Schule 2020-Mittel;1100000;Abhängig von weiterer Nutzung;51.307656;6.589413;fa-graduation-cap;blue
398;Hafelsstr. 41;Hauptschule;Josef-Hafels-Schule;Feuerwehr-/Flucht-/Rettungswegpläne (Rest aus 2017);Brandschutz;x;x; ; ; ; ;;1100000;;51.307656;6.589413;fa-graduation-cap;blue
399;Hafelsstr. 41;Hauptschule;Josef-Hafels-Schule;Schottung 1. Rettungsweg bei Hausmeisterloge;Brandschutz;; ; ; ; ;x;;1100000;;51.307656;6.589413;fa-graduation-cap;blue
400;Hafelsstr. 41;Hauptschule;Josef-Hafels-Schule;Sanierung Bodenbelag Flure;Sanierung; ; ; ;x; ; ;;1100000;;51.307656;6.589413;fa-graduation-cap;blue
401;Hafelsstr. 41;Hauptschule;Josef-Hafels-Schule;Fluchtweg-/Sicherheitsbeleuchtung Treppentürme;Verkehrssicherheit;;x; ; ; ; ;;1100000;;51.307656;6.589413;fa-graduation-cap;blue
402;Hafelsstr. 41;Hauptschule;Josef-Hafels-Schule;behindertengerechter Ausbau (nicht förd.fähiger Anteil);Nutzung;x; ; ; ; ; ;;1100000;;51.307656;6.589413;fa-graduation-cap;blue
403;Hafelsstr. 41;Hauptschule;Josef-Hafels-Schule;Sanierung Klassenräume;Sanierung;; ; ; ; ;x;;1100000;;51.307656;6.589413;fa-graduation-cap;blue
404;Hafelsstr. 41;Hauptschule;Josef-Hafels-Schule;Sanierung Abflussrinne Parkplatz;Sanierung;; ; ; ; ;x;;1100000;;51.307656;6.589413;fa-graduation-cap;blue
405;Hafelsstr. 41;Hauptschule;Josef-Hafels-Schule;Sanierung Technikräume Arbeitslehre;Sanierung;; ; ; ;x; ;;1100000;;51.307656;6.589413;fa-graduation-cap;blue
406;Hafelsstr. 41;Hauptschule;Josef-Hafels-Schule;Sanierung Pausenhallenboden;Sanierung;; ;x; ; ; ;;1100000;;51.307656;6.589413;fa-graduation-cap;blue
407;Hafelsstr. 41;Hauptschule;Josef-Hafels-Schule;Sanierung Sanitäranlagen;Sanierung;; ;x; ; ; ;;1100000;;51.307656;6.589413;fa-graduation-cap;blue
408;Hafelsstr. 41;Hauptschule;Josef-Hafels-Schule;Schulhofsanierung;Außenanlagen;; ; ; ; ;x;;1100000;;51.307656;6.589413;fa-graduation-cap;blue
409;Hafelsstr. 41;Hauptschule;Josef-Hafels-Schule;Turnhalle, Erneuerung Geräteraumtore;Sanierung; ; ;x; ; ; ;;1100000;;51.307656;6.589413;fa-graduation-cap;blue
410;Hafelsstr. 41;Hauptschule;Josef-Hafels-Schule;Turnhalle, Sanierung Sanitäranlagen;Sanierung;; ;x; ; ; ;;1100000;;51.307656;6.589413;fa-graduation-cap;blue
411;Hafelsstr. 41;Hauptschule;Josef-Hafels-Schule;Turnhalle, Dachsanierung;Gebäudehülle;; ; ; ;x;;;1100000;;51.307656;6.589413;fa-graduation-cap;blue
412;Hafelsstr. 41;Hauptschule;Josef-Hafels-Schule;Ersatz/Austausch Pavillon;Sanierung;; ; ; ;x;;;1100000;;51.307656;6.589413;fa-graduation-cap;blue
413;Hafelsstr. 41;Hauptschule;Josef-Hafels-Schule;Prüfung der weiteren schul. Nutzung nach 2021 (Ausbau/Umbau?);SEP;;;;;;;;1100000;;51.307656;6.589413;fa-graduation-cap;blue
414;Hafelsstr. 41;Hauptschule;Josef-Hafels-Schule;Bauunterhalt < 10.000 Euro;Sanierung;;x;x;x;x;x;;1100000;;51.307656;6.589413;fa-graduation-cap;blue
416;Prinz-Ferdinand-Strasse 155;Sonstige Nutzung;Prinz-Ferdinand-Schule;Sanierung Sanitäranlagen;Sanierung;; ; ; ; ;x;;895000;;51.333176;6.551460;fa-graduation-cap;blue
417;Prinz-Ferdinand-Strasse 155;Sonstige Nutzung;Prinz-Ferdinand-Schule;Dämmung oberste Geschossdecke;Energetische Sanierung;; ; ; ; ;x;;895000;;51.333176;6.551460;fa-graduation-cap;blue
418;Prinz-Ferdinand-Strasse 155;Sonstige Nutzung;Prinz-Ferdinand-Schule;Digitalisierung;Digitalisierung; ;;;; ;x;Gute Schule 2020-Mittel;895000;;51.333176;6.551460;fa-graduation-cap;blue
419;Prinz-Ferdinand-Strasse 155;Sonstige Nutzung;Prinz-Ferdinand-Schule;Erneuerung naturwisschenschafltiche Räume;Sanierung;;;;;  ;x;;895000;;51.333176;6.551460;fa-graduation-cap;blue
420;Prinz-Ferdinand-Strasse 155;Sonstige Nutzung;Prinz-Ferdinand-Schule;zwei Fluchttreppen;Brandschutz;;;;; ;x;;895000;;51.333176;6.551460;fa-graduation-cap;blue
421;Prinz-Ferdinand-Strasse 155;Sonstige Nutzung;Prinz-Ferdinand-Schule;Einbau HAZ mit Schulnutzung;Brandschutz;;;;; ;x;;895000;;51.333176;6.551460;fa-graduation-cap;blue
422;Prinz-Ferdinand-Strasse 155;Sonstige Nutzung;Prinz-Ferdinand-Schule;Turnhalle, Abklebung Dach;Gebäudehülle; ;;;; ;x;;895000;;51.333176;6.551460;fa-graduation-cap;blue
423;Prinz-Ferdinand-Strasse 155;Sonstige Nutzung;Prinz-Ferdinand-Schule;Turnhalle, Erneuerung Geräteraumtore;Sanierung; ;;x;;;;;895000;;51.333176;6.551460;fa-graduation-cap;blue
424;Prinz-Ferdinand-Strasse 155;Sonstige Nutzung;Prinz-Ferdinand-Schule;Turnhalle, Sanierung Sanitäranlagen;Sanierung;; ; ; ; ;x;;895000;;51.333176;6.551460;fa-graduation-cap;blue
425;Prinz-Ferdinand-Strasse 155;Sonstige Nutzung;Prinz-Ferdinand-Schule;Turnhalle, Erneuerung Lichtbänder;Gebäudehülle;;;x;;;;;895000;;51.333176;6.551460;fa-graduation-cap;blue
426;Prinz-Ferdinand-Strasse 155;Sonstige Nutzung;Prinz-Ferdinand-Schule;Turnhalle, Abhangdecken in Umkleiden;Sanierung;;;;x;;;;895000;;51.333176;6.551460;fa-graduation-cap;blue
427;Prinz-Ferdinand-Strasse 155;Sonstige Nutzung;Prinz-Ferdinand-Schule;Turnhalle, Erneuerung Lüftungsschaltschrank;Sanierung;;;;;;x;;895000;;51.333176;6.551460;fa-graduation-cap;blue
428;Prinz-Ferdinand-Strasse 155;Sonstige Nutzung;Prinz-Ferdinand-Schule;Prüfung der weiteren schul. Nutzung (Ausbau/Umbau?);SEP;;;;;;;;895000;;51.333176;6.551460;fa-graduation-cap;blue
429;Prinz-Ferdinand-Strasse 155;Sonstige NutzungPrinz-Ferdinand-Schule;Prinz-Ferdinand-Schule;Bauunterhalt < 10.000 Euro;Sanierung;;x;x;x;x;x;;895000;;51.333176;6.551460;fa-graduation-cap;blue
431;Rote-Kreuz-Str. 25;Realschule;Realschule Oppum;Einbau HAZ;Brandschutz;x;x;;;;;;1100000;;51.335365;6.591459;fa-graduation-cap;blue
432;Rote-Kreuz-Str. 25;Realschule;Realschule Oppum;Umsetzung Brandschutzkonzept (Rest aus 2017);Brandschutz;x;x;;;;;;1100000;;51.335365;6.591459;fa-graduation-cap;blue
433;Rote-Kreuz-Str. 25;Realschule;Realschule Oppum;Sanierung Sanitäranlagen;Sanierung;;x;;;;;;1100000;;51.335365;6.591459;fa-graduation-cap;blue
434;Rote-Kreuz-Str. 25;Realschule;Realschule Oppum;Digitalisierung;Digitalisierung; ;;;;;x;Gute Schule 2020-Mittel;1100000;;51.335365;6.591459;fa-graduation-cap;blue
435;Rote-Kreuz-Str. 25;Realschule;Realschule Oppum;Sanierung Klassenräume;Sanierung;;;;;;x;;1100000;;51.335365;6.591459;fa-graduation-cap;blue
436;Rote-Kreuz-Str. 25;Realschule;Realschule Oppum;Außentreppe als 2. Rettungsweg;Brandschutz;;;;;;x;;1100000;;51.335365;6.591459;fa-graduation-cap;blue
437;Rote-Kreuz-Str. 25;Realschule;Realschule Oppum;Austausch hölzerner Flur- u. Treppenhausdecken etc.;Sanierung;;;;;;x;;1100000;;51.335365;6.591459;fa-graduation-cap;blue
438;Rote-Kreuz-Str. 25;Realschule;Realschule Oppum;Sanierung Flurbereiche;Sanierung;;;;;;x;;1100000;;51.335365;6.591459;fa-graduation-cap;blue
439;Rote-Kreuz-Str. 25;Realschule;Realschule Oppum;Erneuerung naturwisschenschafltiche Räume;Sanierung;;;;;;x;;1100000;;51.335365;6.591459;fa-graduation-cap;blue
440;Rote-Kreuz-Str. 25;Realschule;Realschule Oppum;Teilsanierung Asphaltfläche;Außenanlagen;;;x;;;;Gute Schule 2020-Mittel;1100000;;51.335365;6.591459;fa-graduation-cap;blue
441;Rote-Kreuz-Str. 25;Realschule;Realschule Oppum;Turnhalle, Sanierung Sportboden;Sanierung;;;;;;x;;1100000;;51.335365;6.591459;fa-graduation-cap;blue
442;Rote-Kreuz-Str. 25;Realschule;Realschule Oppum;Prüfung der weiteren schul. Nutzung (Ausweichmöglichkeit GES Kaiserplatz);SEP;;;;;;;;1100000;;51.335365;6.591459;fa-graduation-cap;blue
443;Rote-Kreuz-Str. 25;Realschule;Realschule Oppum;Bauunterhalt < 10.000 Euro;Sanierung;;x;x;x;x;x;;1100000;;51.335365;6.591459;fa-graduation-cap;blue
445;Lewerentzstr. 136;Realschule;Albert-Schweitzer-Schule;Schulflure Ost-/Westflügel, Estrich/Unterbau;Verkehrssicherheit; ;;x;;;;;790000;;51.325570;6.557354;fa-graduation-cap;blue
446;Lewerentzstr. 136;Realschule;Albert-Schweitzer-Schule;Digitalisierung;Digitalisierung; ;x;;;;;Gute Schule 2020-Mittel;790000;;51.325570;6.557354;fa-graduation-cap;blue
447;Lewerentzstr. 136;Realschule;Albert-Schweitzer-Schule;Pflasterung Bereiche Rindenmulch;Außenanlagen;;;x;;;;;790000;;51.325570;6.557354;fa-graduation-cap;blue
448;Lewerentzstr. 136;Realschule;Albert-Schweitzer-Schule;Rauchmeldertausch;Brandschutz;;;;;;x;;790000;;51.325570;6.557354;fa-graduation-cap;blue
449;Lewerentzstr. 136;Realschule;Albert-Schweitzer-Schule;Übergang Hauptgebäude Klassentrakt;Sanierung;;;;;;x;;790000;;51.325570;6.557354;fa-graduation-cap;blue
450;Lewerentzstr. 136;Realschule;Albert-Schweitzer-Schule;Sanierung Sanitäranlagen;Sanierung;;;;;;x;;790000;;51.325570;6.557354;fa-graduation-cap;blue
451;Lewerentzstr. 136;Realschule;Albert-Schweitzer-Schule;Sanierung Klassenräume;Sanierung;;;;x;;;;790000;;51.325570;6.557354;fa-graduation-cap;blue
452;Lewerentzstr. 136;Realschule;Albert-Schweitzer-Schule;Erweiterung Lehrerzimmer;Nutzung;;;;;;;;790000;;51.325570;6.557354;fa-graduation-cap;blue
453;Lewerentzstr. 136;Realschule;Albert-Schweitzer-Schule;Sanierung Flure und Treppenhäuser;Sanierung;;;;x;;;;790000;;51.325570;6.557354;fa-graduation-cap;blue
454;Lewerentzstr. 136;Realschule;Albert-Schweitzer-Schule;Bauunterhalt < 10.000 Euro;Sanierung;;;;;;;;790000;;51.325570;6.557354;fa-graduation-cap;blue
455;Lewerentzstr. 136;Realschule;Albert-Schweitzer-Schule;Ggf. Erweiterung auf Grundlage SEP (u. a. §132c SchulG);SEP;;;;;;;;790000;;51.325570;6.557354;fa-graduation-cap;blue
456;Lewerentzstr. 136;Realschule;Albert-Schweitzer-Schule;Versammlungsstätte/Mensa/Aula      Überprüfung/Ertüchtigung;Verkehrssicherheit;;x;x;x;x;x;;790000;;51.325570;6.557354;fa-graduation-cap;blue
458;Von Ketteler-Str. 31;Realschule;Freiherr-vom-Stein-Schule;Einbau von T30/RS-Türen;Brandschutz; ;;x;;;;;2625000;;51.313011;6.583335;fa-graduation-cap;blue
459;Von Ketteler-Str. 31;Realschule;Freiherr-vom-Stein-Schule;Digitalisierung;Digitalisierung; ;;x;;; ;Gute Schule 2020-Mittel;2625000;;51.313011;6.583335;fa-graduation-cap;blue
460;Von Ketteler-Str. 31;Realschule;Freiherr-vom-Stein-Schule;Erweiterung HAZ (Rest aus 2017);Brandschutz;;x;;;;;;2625000;;51.313011;6.583335;fa-graduation-cap;blue
461;Von Ketteler-Str. 31;Realschule;Freiherr-vom-Stein-Schule;Erneuerung Unterverteilung Hausmeisterloge;Brandschutz;x;x;;;;;;2625000;;51.313011;6.583335;fa-graduation-cap;blue
462;Von Ketteler-Str. 31;Realschule;Freiherr-vom-Stein-Schule;Erneuerung Unterverteilung Nebenräume;Brandschutz;x;x;;;;;;2625000;;51.313011;6.583335;fa-graduation-cap;blue
463;Von Ketteler-Str. 31;Realschule;Freiherr-vom-Stein-Schule;Sanierung naturwisschenschafltiche Räume;Sanierung;x;x;;;;;;2625000;;51.313011;6.583335;fa-graduation-cap;blue
464;Von Ketteler-Str. 31;Realschule;Freiherr-vom-Stein-Schule;Erneuerung Rohrleitungen;Sanierung;x;;x;;;;;2625000;;51.313011;6.583335;fa-graduation-cap;blue
465;Von Ketteler-Str. 31;Realschule;Freiherr-vom-Stein-Schule;Sanierung Sanitäranlagen;Sanierung;;;x;;;;Gute Schule 2020-Mittel;2625000;;51.313011;6.583335;fa-graduation-cap;blue
466;Von Ketteler-Str. 31;Realschule;Freiherr-vom-Stein-Schule;Sanierung Bodenbelag Flure;Sanierung;;;x;;;;Gute Schule 2020-Mittel;2625000;;51.313011;6.583335;fa-graduation-cap;blue
467;Von Ketteler-Str. 31;Realschule;Freiherr-vom-Stein-Schule;Sanierung Klassenräume;Sanierung;;;x;;;;Gute Schule 2020-Mittel;2625000;;51.313011;6.583335;fa-graduation-cap;blue
468;Von Ketteler-Str. 31;Realschule;Freiherr-vom-Stein-Schule;Kanalsanierung;Sanierung;;;x;;;;;2625000;;51.313011;6.583335;fa-graduation-cap;blue
469;Von Ketteler-Str. 31;Realschule;Freiherr-vom-Stein-Schule;Turnhalle: Sanierung Parkett inkl. Linierung;Sanierung;;;x;;;;Gute Schule 2020-Mittel;2625000;;51.313011;6.583335;fa-graduation-cap;blue
470;Von Ketteler-Str. 31;Realschule;Freiherr-vom-Stein-Schule;Turnhalle, Sanierung Sanitäranlagen;Sanierung;;;x;;;;Gute Schule 2020-Mittel;2625000;;51.313011;6.583335;fa-graduation-cap;blue
471;Von Ketteler-Str. 31;Realschule;Freiherr-vom-Stein-Schule;Gymnastikraum,Nebengebäude, Anpassung;Nutzung;;x;;;;;;2625000;;51.313011;6.583335;fa-graduation-cap;blue
472;Von Ketteler-Str. 31;Realschule;Freiherr-vom-Stein-Schule;Fluchttreppenturm 1. OG, Nebengebäude;Brandschutz;;;;x;;;;2625000;;51.313011;6.583335;fa-graduation-cap;blue
473;Von Ketteler-Str. 31;Realschule;Freiherr-vom-Stein-Schule;Schottung Treppenhaus, Nebengebäude;Brandschutz;;;;x;;;;2625000;;51.313011;6.583335;fa-graduation-cap;blue
474;Von Ketteler-Str. 31;Realschule;Freiherr-vom-Stein-Schule;Sanierung Gebäudehülle, Nebengebäude;Gebäudehülle;;;;x;;;;2625000;;51.313011;6.583335;fa-graduation-cap;blue
475;Von Ketteler-Str. 31;Realschule;Freiherr-vom-Stein-Schule;NG Erneuerung Trinkwasser- u. Abwassserrohre;Verkehrssicherheit;;; ;x;;;;2625000;;51.313011;6.583335;fa-graduation-cap;blue
476;Von Ketteler-Str. 31;Realschule;Freiherr-vom-Stein-Schule;Bauunterhalt < 10.000 Euro;Sanierung;;x;x;x;x;x;;2625000;;51.313011;6.583335;fa-graduation-cap;blue
477;Von Ketteler-Str. 31;Realschule;Freiherr-vom-Stein-Schule;Versammlungsstätte  Überprüfung/Ertüchtigung;Verkehrssicherheit;;;;;;;;2625000;;51.313011;6.583335;fa-graduation-cap;blue
479;Schmiedestr. 90;Gesamtschule;Gesamtschule Oppum;Bauteil B, Erneuerung BS-Türen zum Treppenhaus;Brandschutz; ;x;;;;;;17955000;;51.331475;6.605328;fa-graduation-cap;blue
480;Schmiedestr. 90;Gesamtschule;Gesamtschule Oppum;Digitalisierung (im Neubau enthalten);Digitalisierung; ;;;;;  ;;17955000;;51.331475;6.605328;fa-graduation-cap;blue
481;Schmiedestr. 90;Gesamtschule;Gesamtschule Oppum;Austausch Abhangdecken, Bauteile B, C (Rest aus 2017);Sanierung;x;x;;;;;;17955000;;51.331475;6.605328;fa-graduation-cap;blue
482;Schmiedestr. 90;Gesamtschule;Gesamtschule Oppum;konsumtiver Anteil;Neubau/SEP;x;;;;;;KInvFöG-Mittel;17955000;;51.331475;6.605328;fa-graduation-cap;blue
483;Schmiedestr. 90;Gesamtschule;Gesamtschule Oppum;Errichtung, Hochbau;Neubau/SEP;x;;;;;;Gute Schule 2020-Mittel;17955000;;51.331475;6.605328;fa-graduation-cap;blue
484;Schmiedestr. 90;Gesamtschule;Gesamtschule Oppum;Errichtung, Einrichtung;Neubau/SEP;x;;;;;;;17955000;;51.331475;6.605328;fa-graduation-cap;blue
485;Schmiedestr. 90;Gesamtschule;Gesamtschule Oppum;Werkstattgebäude u. Lagerhaus;Neubau/SEP;x;;;;;;KInvFöG-Mittel;17955000;;51.331475;6.605328;fa-graduation-cap;blue
486;Schmiedestr. 90;Gesamtschule;Gesamtschule Oppum;Turnhalle, Bauteil A Austausch Deckenplatten  inkl. Beleuchtung (Rest/ 2017);Sanierung;x;;;;;;;17955000;;51.331475;6.605328;fa-graduation-cap;blue
487;Schmiedestr. 90;Gesamtschule;Gesamtschule Oppum;Turnhalle, barrierefreies WC;Sanierung;;;;x; ; ;;17955000;;51.331475;6.605328;fa-graduation-cap;blue
488;Schmiedestr. 90;Gesamtschule;Gesamtschule Oppum;Bauunterhalt < 10.000 Euro;Sanierung;;x;x;x;x;x;;17955000;;51.331475;6.605328;fa-graduation-cap;blue
489;Schmiedestr. 90;Gesamtschule;Gesamtschule Oppum;Turnhalle/ Versammlungsstätte, Überprüfung/Ertüchtigung;Verkehrssicherheit;;;;;;;;17955000;;51.331475;6.605328;fa-graduation-cap;blue
491;Lübecker Weg 56;Gesamtschule;Gesamtschule Uerdingen;Erneuerung Gasleitung;Verkehrssicherheit;; ; ; ; ;x;;20515000;;51.355144;6.634433;fa-graduation-cap;blue
492;Lübecker Weg 56;Gesamtschule;Gesamtschule Uerdingen;Komplettierung HAZ auf Altbau  + Turnhalle;Brandschutz;;x;; ; ;;;20515000;;51.355144;6.634433;fa-graduation-cap;blue
493;Lübecker Weg 56;Gesamtschule;Gesamtschule Uerdingen;Digitalisierung;Digitalisierung; ; ; ;x; ; ;;20515000;;51.355144;6.634433;fa-graduation-cap;blue
494;Lübecker Weg 56;Gesamtschule;Gesamtschule Uerdingen;Sanierung Klassenräume;Sanierung;;;;;;x;;20515000;;51.355144;6.634433;fa-graduation-cap;blue
495;Lübecker Weg 56;Gesamtschule;Gesamtschule Uerdingen;Umnutzung ehemaliges Schüler-WC;Nutzung;;;;;;x;;20515000;;51.355144;6.634433;fa-graduation-cap;blue
496;Lübecker Weg 56;Gesamtschule;Gesamtschule Uerdingen;Sanierung Flure;Sanierung;;;;;;x;;20515000;;51.355144;6.634433;fa-graduation-cap;blue
497;Lübecker Weg 56;Gesamtschule;Gesamtschule Uerdingen;Errichtung barrierefreies WC;Sanierung;; ;x; ; ; ;;20515000;;51.355144;6.634433;fa-graduation-cap;blue
498;Lübecker Weg 56;Gesamtschule;Gesamtschule Uerdingen;Sanierung Außenhülle (Beginn in 2017);Energetische Sanierung;x;;;;;;;20515000;;51.355144;6.634433;fa-graduation-cap;blue
499;Lübecker Weg 56;Gesamtschule;Gesamtschule Uerdingen;Ersatz Pavillon (im Rahmen des Neubaus);Neubau/SEP;;;;;;x;;20515000;;51.355144;6.634433;fa-graduation-cap;blue
500;Lübecker Weg 56;Gesamtschule;Gesamtschule Uerdingen;Turnhalle, Komplettsanierung (Beginn in 2017);Sanierung;x;;;;;;;20515000;;51.355144;6.634433;fa-graduation-cap;blue
501;Lübecker Weg 56;Gesamtschule;Gesamtschule Uerdingen;Turnhalle, Erweiterung Alarmierung auf Turnhalle;Brandschutz;x; ; ; ; ; ;;20515000;;51.355144;6.634433;fa-graduation-cap;blue
502;Lübecker Weg 56;Gesamtschule;Gesamtschule Uerdingen;Turnhalle, Erneuerung Übergabe SWK,  Eigenanteil (Rest aus 2017);Energetische Sanierung;;x; ; ; ; ;;20515000;;51.355144;6.634433;fa-graduation-cap;blue
503;Lübecker Weg 56;Gesamtschule ;Gesamtschule Uerdingen;Energetische Sanierung Außenhülle, KInvFöG;Energetische Sanierung;x;x; ; ; ; ;;20515000;;51.355144;6.634433;fa-graduation-cap;blue
504;Lübecker Weg 56;Gesamtschule ;Gesamtschule Uerdingen;konsumtive Anteile (2018:Lehrerzimmer,2020:Klassenzimmer);Nutzung;x;;;;; ;;20515000;;51.355144;6.634433;fa-graduation-cap;blue
505;Lübecker Weg 56;Gesamtschule ;Gesamtschule Uerdingen;Digitalisierung;Digitalisierung; ; ;;;;x;;20515000;;51.355144;6.634433;fa-graduation-cap;blue
506;Uerdinger Str. 783;Gesamtschule ;Gesamtschule Uerdingen;Erweiterung, Hochbau;Neubau/SEP;x;;;;; ;;20515000;;51.349754;6.632974;fa-graduation-cap;blue
507;Uerdinger Str. 783;Gesamtschule ;Gesamtschule Uerdingen;Gestaltung Außenfläche  (Neubau- mit ausgeschrieben ???);Außenanlagen;x;;; ;;;;20515000;;51.349754;6.632974;fa-graduation-cap;blue
508;Uerdinger Str. 783;Gesamtschule ;Gesamtschule Uerdingen;Erweiterung, Einrichtung;Neubau/SEP;x;;;;; ;;20515000;;51.349754;6.632974;fa-graduation-cap;blue
509;Uerdinger Str. 783;Gesamtschule;Gesamtschule Uerdingen;Montage Sekuranten;Verkehrssicherheit;;;x;;;;;20515000;;51.349754;6.632974;fa-graduation-cap;blue
510;Uerdinger Str. 783;Gesamtschule;Gesamtschule Uerdingen;Feststellanlagen;Brandschutz;;x;;;;;;20515000;;51.349754;6.632974;fa-graduation-cap;blue
511;Uerdinger Str. 783;Gesamtschule;Gesamtschule Uerdingen;Erneuerung Eingangsbereich;Sanierung;;;;x;;;;20515000;;51.349754;6.632974;fa-graduation-cap;blue
512;Uerdinger Str. 783;Gesamtschule;Gesamtschule Uerdingen;Digitalisierung;Digitalisierung; ;;x;;; ;;20515000;;51.349754;6.632974;fa-graduation-cap;blue
513;Uerdinger Str. 783;Gesamtschule;Gesamtschule Uerdingen;Fassade Treppenhaus;Gebäudehülle;;;x;;;;;20515000;;51.349754;6.632974;fa-graduation-cap;blue
514;Uerdinger Str. 783;Gesamtschule;Gesamtschule Uerdingen;Austausch Flurdecken u. Abschottung Wände oberhalb der Decken;Brandschutz;;;x;;;;;20515000;;51.349754;6.632974;fa-graduation-cap;blue
515;Uerdinger Str. 783;Gesamtschule;Gesamtschule Uerdingen;Einbau BS-Tür zur Verwaltung;Brandschutz;;;;;;x;;20515000;;51.349754;6.632974;fa-graduation-cap;blue
516;Uerdinger Str. 783;Gesamtschule;Gesamtschule Uerdingen;Herrichtung Verwaltungspavillons;Sanierung;;;;;;x;;20515000;;51.349754;6.632974;fa-graduation-cap;blue
517;Uerdinger Str. 783;Gesamtschule;Gesamtschule Uerdingen;Sonnenschutz Klassentrakt;Verkehrssicherheit;;;;x;;;;20515000;;51.349754;6.632974;fa-graduation-cap;blue
518;Uerdinger Str. 783;Gesamtschule;Gesamtschule Uerdingen;Sanierung Sanitäranlagen;Sanierung;;;;;;x;;20515000;;51.349754;6.632974;fa-graduation-cap;blue
519;Uerdinger Str. 783;Gesamtschule;Gesamtschule Uerdingen;Erneuerung HAZ;Brandschutz;;;;;;x;;20515000;;51.349754;6.632974;fa-graduation-cap;blue
520;Uerdinger Str. 783;Gesamtschule;Gesamtschule Uerdingen;Einbau Lehrküche;Neubau/SEP;;;;;;x;;20515000;;51.349754;6.632974;fa-graduation-cap;blue
521;Uerdinger Str. 783;Gesamtschule;Gesamtschule Uerdingen;Errichtung Aula (Neubau);Neubau/SEP;x;;;;;;;20515000;;51.349754;6.632974;fa-graduation-cap;blue
522;Uerdinger Str. 783;Gesamtschule;Gesamtschule Uerdingen;Turnhalle, Fassade;Gebäudehülle;;;x;;;;;20515000;;51.349754;6.632974;fa-graduation-cap;blue
523;Uerdinger Str. 783;Gesamtschule;Gesamtschule Uerdingen;Turnhalle, Sanierung Sanitäranlagen;Sanierung;;;;;;x;;20515000;;51.349754;6.632974;fa-graduation-cap;blue
524;Uerdinger Str. 783;Gesamtschule;Gesamtschule Uerdingen;Turnhalle, Erneuerung Fenster in Umkleide;Gebäudehülle;;;;x;;;;20515000;;51.349754;6.632974;fa-graduation-cap;blue
525;Uerdinger Str. 783;Gesamtschule;Gesamtschule Uerdingen;Turnhalle, Schallschutzdecke;Verkehrssicherheit;;;x;;;;;20515000;;51.349754;6.632974;fa-graduation-cap;blue
526;Uerdinger Str. 783;Gesamtschule;Gesamtschule Uerdingen;Bauunterhalt < 10.000 Euro (beide Standorte);Sanierung;;x;x;x;x;x;;20515000;;51.349754;6.632974;fa-graduation-cap;blue
528;Danziger Platz 1;Weiterb.-Kolleg;Weiterbildungskolleg;Digitalisierung;Digitalisierung; ;x;;;;;Gute Schule 2020-Mittel;655000;;51.336055;6.643849;fa-graduation-cap;blue
529;Danziger Platz 1;Weiterb.-Kolleg;Weiterbildungskolleg;Erneuerung abgehängte Decken Flure;Sanierung;;;;x;;;;655000;;51.336055;6.643849;fa-graduation-cap;blue
530;Danziger Platz 1;Weiterb.-Kolleg;Weiterbildungskolleg;Sanierung Klassenräume;Sanierung;;;;x;;;;655000;;51.336055;6.643849;fa-graduation-cap;blue
531;Danziger Platz 1;Weiterb.-Kolleg;Weiterbildungskolleg;Erneuerung der Türen in der Aula;Sanierung;;;x;;;;;655000;;51.336055;6.643849;fa-graduation-cap;blue
532;Danziger Platz 1;Weiterb.-Kolleg;Weiterbildungskolleg;Erneuerung Raffstoreanlage Südseite;Sanierung;;;;;x;;;655000;;51.336055;6.643849;fa-graduation-cap;blue
533;Danziger Platz 1;Weiterb.-Kolleg;Weiterbildungskolleg;Gymnastikhalle, Dachsanierung;Gebäudehülle; ;;;;x;;;655000;;51.336055;6.643849;fa-graduation-cap;blue
534;Danziger Platz 1;Weiterb.-Kolleg;Weiterbildungskolleg;Sanierung Sanitäranlagen;Sanierung;;;x;;;;;655000;;51.336055;6.643849;fa-graduation-cap;blue
535;Danziger Platz 1;Weiterb.-Kolleg;Weiterbildungskolleg;Turnhalle, Prallschutz anbringen;Sanierung;;;;;x;;;655000;;51.336055;6.643849;fa-graduation-cap;blue
536;Danziger Platz 1;Weiterb.-Kolleg;Weiterbildungskolleg;Turnhalle, Sanierung Sanitäranlagen;Sanierung;;;x;;;;;655000;;51.336055;6.643849;fa-graduation-cap;blue
537;Danziger Platz 1;Weiterb.-Kolleg;Weiterbildungskolleg;Turnhalle, Notausgang Umkleidebereich;Brandschutz;;;x;;; ;;655000;;51.336055;6.643849;fa-graduation-cap;blue
538;Danziger Platz 1;Weiterb.-Kolleg;Weiterbildungskolleg;Bauunterhalt < 10.000 Euro;Sanierung;;x;x;x;x;x;;655000;;51.336055;6.643849;fa-graduation-cap;blue
540;Dionysiusstr. 51;Gymnasium;Arndt-Gymnasium;Dachsanierung;Gebäudehülle; ;;;;x;;;2355000;;51.331779;6.555485;fa-graduation-cap;blue
541;Dionysiusstr. 51;Gymnasium;Arndt-Gymnasium;Erneuerung HAZ;Brandschutz;;x;;;;;Gute Schule 2020-Mittel;2355000;;51.331779;6.555485;fa-graduation-cap;blue
542;Dionysiusstr. 51;Gymnasium;Arndt-Gymnasium;Digitalisierung;Digitalisierung; ;;x;;;;Gute Schule 2020-Mittel;2355000;;51.331779;6.555485;fa-graduation-cap;blue
543;Dionysiusstr. 51;Gymnasium;Arndt-Gymnasium;Sanierung Klassenräume;Sanierung;;;x;;;;Gute Schule 2020-Mittel;2355000;;51.331779;6.555485;fa-graduation-cap;blue
544;Dionysiusstr. 51;Gymnasium;Arndt-Gymnasium;Sanierung Bodenbelag Flure;Sanierung;;;x;;;;Gute Schule 2020-Mittel;2355000;;51.331779;6.555485;fa-graduation-cap;blue
545;Dionysiusstr. 51;Gymnasium;Arndt-Gymnasium;Anstrich Treppenhäuser;Sanierung;;;x;;;;Gute Schule 2020-Mittel;2355000;;51.331779;6.555485;fa-graduation-cap;blue
546;Dionysiusstr. 51;Gymnasium;Arndt-Gymnasium;Sanierung Sanitäranlagen;Sanierung;;;;;;x;;2355000;;51.331779;6.555485;fa-graduation-cap;blue
547;Dionysiusstr. 51;Gymnasium;Arndt-Gymnasium;Herstellung 2. Fluchtweg zur St.Antonstr.;Brandschutz;;;x;;;;;2355000;;51.331779;6.555485;fa-graduation-cap;blue
548;Dionysiusstr. 51;Gymnasium;Arndt-Gymnasium;Erweiterung Cafeteria;Nutzung;;;x;;;;;2355000;;51.331779;6.555485;fa-graduation-cap;blue
549;Dionysiusstr. 51;Gymnasium;Arndt-Gymnasium;Prüfung Ausbau G 9;SEP;;;;;;;;2355000;;51.331779;6.555485;fa-graduation-cap;blue
550;Dionysiusstr. 51;Gymnasium;Arndt-Gymnasium;Bauunterhalt < 10.000 Euro  (altes Arndt);Sanierung;;x;x;x;x;x;;2355000;;51.331779;6.555485;fa-graduation-cap;blue
551;Dionysiusstr. 51;Gymnasium;Arndt-Gymnasium;Turnhalle, Sanierung Sanitäranlagen;Sanierung;;;;;;x;;2355000;;51.331779;6.555485;fa-graduation-cap;blue
552;Dionysiusstr. 51;Gymnasium;Arndt-Gymnasium;Turnhalle/ Versammlungsstätte,   Überprüfung/Ertüchtigung;Verkehrssicherheit;;;;;;;;2355000;;51.331779;6.555485;fa-graduation-cap;blue
553;Hubertusstr. 120/Turnhalle;Gymnasium;Arndt-Gymnasium;Turnhalle, Austausch Beleuchtung LED (Förderprojekt);Energetische Sanierung;x;;;;;;;2355000;;51.333404;6.555390;fa-graduation-cap;blue
554;Steinstr. 82/Turnhalle;Gymnasium;Arndt-Gymnasium;Turnhalle, Sanierung Sanitäranlagen ;Sanierung;;;;;;x;;2355000;;51.331265;6.555226;fa-graduation-cap;blue
555;Lindenstr. 52;Gymnasium;Arndt-Gymnasium;Rauchmeldertausch (Rest aus 2017);Brandschutz;x;x;;;;;;2355000;;51.327749;6.560633;fa-graduation-cap;blue
556;Lindenstr. 52;Gymnasium;Arndt-Gymnasium;Erweiterung Alarmierung;Brandschutz;x;x;;;;;;2355000;;51.327749;6.560633;fa-graduation-cap;blue
557;Lindenstr. 52;Gymnasium;Arndt-Gymnasium;Digitalisierung;Digitalisierung; ;;x;;;;Gute Schule 2020-Mittel;2355000;;51.327749;6.560633;fa-graduation-cap;blue
558;Lindenstr. 52;Gymnasium;Arndt-Gymnasium;Eingangstüranlage;Sanierung;;;x;;;;;2355000;;51.327749;6.560633;fa-graduation-cap;blue
559;Lindenstr. 52;Gymnasium;Arndt-Gymnasium;Sanierung Klassenräume;Sanierung;;;x;;;;Gute Schule 2020-Mittel;2355000;;51.327749;6.560633;fa-graduation-cap;blue
560;Lindenstr. 52;Gymnasium;Arndt-Gymnasium;Dachsanierung ;Gebäudehülle;;;;;;x;;2355000;;51.327749;6.560633;fa-graduation-cap;blue
561;Lindenstr. 52;Gymnasium;Arndt-Gymnasium;Sanierung Sanitäranlagen;Sanierung;;;;;;x;;2355000;;51.327749;6.560633;fa-graduation-cap;blue
562;Lindenstr. 52;Gymnasium;Arndt-Gymnasium;Sanierung Treppenhäuser;Sanierung;;;x;;;;Gute Schule 2020-Mittel;2355000;;51.327749;6.560633;fa-graduation-cap;blue
563;Lindenstr. 52;Gymnasium;Arndt-Gymnasium;Sanierung naturwisschenschafltiche Räume;Sanierung;;;;;;x;;2355000;;51.327749;6.560633;fa-graduation-cap;blue
564;Lindenstr. 52;Gymnasium;Arndt-Gymnasium;Erneuerung Bänke Schulhof;Außenanlagen;;;;x;;;Gute Schule 2020-Mittel;2355000;;51.327749;6.560633;fa-graduation-cap;blue
565;Lindenstr. 52;Gymnasium;Arndt-Gymnasium;Turnhalle, Sanierung Sportboden, Fenster, Sanitär (Beginn in 2017);Sanierung;x;;;;;;Gute Schule 2020-Mittel;2355000;;51.327749;6.560633;fa-graduation-cap;blue
566;Lindenstr. 52;Gymnasium;Arndt-Gymnasium;Bauunterhalt < 10.000 Euro  (altes Fichte);Sanierung;;x;x;x;x;x;;2355000;;51.327749;6.560633;fa-graduation-cap;blue
567;Lindenstr. 52;Gymnasium;Arndt-Gymnasium;Versammlungsstätte/Aula  Überprüfung/Ertüchtigung;Verkehrssicherheit;;;;;;;Gute Schule 2020-Mittel;2355000;;51.327749;6.560633;fa-graduation-cap;blue
568;Lindenstr. 52;Gymnasium;Arndt-Gymnasium;Prüfung Ausbau G 9;SEP;;;;;;;;2355000;;51.327749;6.560633;fa-graduation-cap;blue
570;Moltkeplatz 12;Gymnasium;Am Moltkeplatz;Energetische Sanierung des Anbaus;Gebäudehülle; ;;x;;;;KInvFöG-Mittel;;;;;fa-graduation-cap;blue
571;Moltkeplatz 12;Gymnasium;Am Moltkeplatz;Fassadenarbeiten/Gesimse Fortführung;Gebäudehülle; ;;x;;;;;;;;;fa-graduation-cap;blue
572;Moltkeplatz 12;Gymnasium;Am Moltkeplatz;Digitalisierung;Digitalisierung; ;;;;x; ;Gute Schule 2020-Mittel;;;;;fa-graduation-cap;blue
573;Moltkeplatz 12;Gymnasium;Am Moltkeplatz;Erneuerung Hauptverteilung (Rest aus 2015);Brandschutz; ;x;;;;;;;;;;fa-graduation-cap;blue
574;Moltkeplatz 12;Gymnasium;Am Moltkeplatz;Einbau RWA Treppenhäuser Altbau;Brandschutz;;;;x;;;;;;;;fa-graduation-cap;blue
575;Moltkeplatz 12;Gymnasium;Am Moltkeplatz;Sanierung Sanitäranlagen;Sanierung;;;x;;;;KInvFöG-Mittel;;;;;fa-graduation-cap;blue
576;Moltkeplatz 12;Gymnasium;Am Moltkeplatz;Sanierung naturwisschenschafltiche Räume;Sanierung;;x;;;;;;;;;;fa-graduation-cap;blue
577;Moltkeplatz 12;Gymnasium;Am Moltkeplatz;Einbau RS-Türen Flure Altbau;Brandschutz;;;;x;;;KInvFöG-Mittel;;;;;fa-graduation-cap;blue
578;Moltkeplatz 12;Gymnasium;Am Moltkeplatz;Sanierung Beleuchtung Altbau;Energetische Sanierung;;;;x;;;KInvFöG-Mittel;;;;;fa-graduation-cap;blue
579;Moltkeplatz 12;Gymnasium;Am Moltkeplatz;Einbau BS-Türen zu Klassenräumen Altbau an Treppenhäusern;Brandschutz;;;;x;;;KInvFöG-Mittel;;;;;fa-graduation-cap;blue
580;Moltkeplatz 12;Gymnasium;Am Moltkeplatz;T30-Abtrennung Neubau/Altbau;Brandschutz;;;;x;;;KInvFöG-Mittel;;;;;fa-graduation-cap;blue
581;Moltkeplatz 12;Gymnasium;Am Moltkeplatz;Fensteraustausch Turmzimmer, Treppenhaus, Eingangsbereich;Gebäudehülle;;;;;;x;;;;;;fa-graduation-cap;blue
582;Moltkeplatz 12;Gymnasium;Am Moltkeplatz;Sanierung Klassenräume;Sanierung;;;x;;;;KInvFöG-Mittel;;;;;fa-graduation-cap;blue
583;Moltkeplatz 12;Gymnasium;Am Moltkeplatz;Sanierung Treppenhäuser und Flure;Sanierung;;;x;;;;KInvFöG-Mittel;;;;;fa-graduation-cap;blue
584;Moltkeplatz 12;Gymnasium;Am Moltkeplatz;Aktualisierung BS-Konzept (Rest aus 2017);Brandschutz;x;x;;;;;;;;;;fa-graduation-cap;blue
585;Moltkeplatz 12;Gymnasium;Am Moltkeplatz;Turnhalle: Sanierung Sanitäranlagen;Sanierung;;;x;;;;KInvFöG-Mittel;;;;;fa-graduation-cap;blue
586;Moltkeplatz 12;Gymnasium;Am Moltkeplatz;Erneuerung Pausensignalanlage;Brandschutz;;x;;;;;;;;;;fa-graduation-cap;blue
587;Moltkeplatz 12;Gymnasium;Am Moltkeplatz;Schulhofsanierung;Außenanlagen;; ;;x;; ;Gute Schule 2020-Mittel;;;;;fa-graduation-cap;blue
588;Moltkeplatz 12;Gymnasium;Am Moltkeplatz;Bauunterhalt < 10.000 Euro;Sanierung;;x;x;x;x;x;;;;;;fa-graduation-cap;blue
589;Moltkeplatz 12;Gymnasium;Am Moltkeplatz;Versammlungsstätte/Aula  Überprüfung/Ertüchtigung;Verkehrssicherheit;;;;;;;;;;;;fa-graduation-cap;blue
590;Moltkeplatz 12;Gymnasium;Am Moltkeplatz;Prüfung Ausbau G 9;SEP;;;;;;;;;;;;fa-graduation-cap;blue
591;;;Am Moltkeplatz;Gesamtbedarf bis 2022;2150000;;;;;;;;;;;;fa-graduation-cap;blue
592;Fabritiusstr. 15a;Gymnasium;Gymnasium Fabritianum;Deckensanierung Pädag. Zentrum, Flure (Rest aus 2017);Sanierung;x;;;;;;;;;;;fa-graduation-cap;blue
593;Fabritiusstr. 15a;Gymnasium;Gymnasium Fabritianum;Sanierung Klassenräume;Sanierung;;;;;x;;;;;;;fa-graduation-cap;blue
594;Fabritiusstr. 15a;Gymnasium;Gymnasium Fabritianum;Erneuerung Unterverteilungen Neubau;Verkehrssicherheit;x;x;;;;;;;;;;fa-graduation-cap;blue
595;Fabritiusstr. 15a;Gymnasium;Gymnasium Fabritianum;Sanierung Treppenhäuser und Flure;Sanierung;;;;;x;;;;;;;fa-graduation-cap;blue
596;Fabritiusstr. 15a;Gymnasium;Gymnasium Fabritianum;Digitalisierung;Digitalisierung; ;;x;;; ;Gute Schule 2020-Mittel;;;;;fa-graduation-cap;blue
597;Fabritiusstr. 15a;Gymnasium;Gymnasium Fabritianum;Umsetzung BS-Konzept und Nutzungsänderung;Brandschutz;x;;;x;;;;;;;;fa-graduation-cap;blue
598;Fabritiusstr. 15a;Gymnasium;Gymnasium Fabritianum;Erneuerung  Zaunanlage;Außenanlagen;;;x;;;;;;;;;fa-graduation-cap;blue
599;Fabritiusstr. 15a;Gymnasium;Gymnasium Fabritianum;Sanierung naturwisschenschafltiche Räume;Sanierung;;x;x;x;;;;;;;;fa-graduation-cap;blue
600;Fabritiusstr. 15a;Gymnasium;Gymnasium Fabritianum;Sanierung Sanitäranlagen;Sanierung;;;;;;x;;;;;;fa-graduation-cap;blue
601;Fabritiusstr. 15a;Gymnasium;Gymnasium Fabritianum;Dachsanierung Neubau ;Gebäudehülle;;;;;;;;;;;;fa-graduation-cap;blue
602;Fabritiusstr. 15a;Gymnasium;Gymnasium Fabritianum;Erneuerung Fensteranlagen Neubau, 1. BA;Gebäudehülle;;;;;x;;;;;;;fa-graduation-cap;blue
603;Fabritiusstr. 15a;Gymnasium;Gymnasium Fabritianum;BMA, Rauchmeldertausch;Brandschutz;;x;;;;;;;;;;fa-graduation-cap;blue
604;Fabritiusstr. 15a/Turnhalle;Gymnasium;Gymnasium Fabritianum;Turnhalle, Erneuerung Hallenfenster + Sonnenschutz;Gebäudehülle; ;;;x;;;;;;;;fa-graduation-cap;blue
605;Fabritiusstr. 15a;Gymnasium;Gymnasium Fabritianum;Turnhalle, Sanierung Sanitäranlagen;Sanierung;;;;;;x;;;;;;fa-graduation-cap;blue
606;Fabritiusstr. 15a/Turnhalle;Gymnasium;Gymnasium Fabritianum;Turnhalle, Heizung, Sanierung Hallendecke inkl. Beleuchtung;Sanierung;x;x;;;;;;;;;;fa-graduation-cap;blue
607;Fabritiusstr. 15;Gymnasium;Gymnasium Fabritianum;Bauunterhalt < 10.000 Euro;Sanierung;;x;x;x;x;x;;;;;;fa-graduation-cap;blue
608;Fabritiusstr. 15;Gymnasium;Gymnasium Fabritianum;Versammlungsstätte/Aula  Überprüfung/Ertüchtigung;Verkehrssicherheit;;;;;;;;;;;;fa-graduation-cap;blue
609;Fabritiusstr. 15;Gymnasium;Gymnasium Fabritianum;Prüfung Ausbau G 9;SEP;;;;;;;;;;;;fa-graduation-cap;blue
610;;;Gymnasium Fabritianum;Gesamtbedarf bis 2022;1745000;;;;;;;;;;;;fa-graduation-cap;blue
611;Nikolaus-Groß-Str. 31;Gymnasium;GY-Am Stadtpark;Sanierung naturwisschenschafltiche Räume;Sanierung;x;x;;;;x;;;;;;fa-graduation-cap;blue
612;Nikolaus-Groß-Str. 31;Gymnasium;GY-Am Stadtpark;Erweiterung HAZ;Brandschutz; ;;;;;;;;;;;fa-graduation-cap;blue
613;Nikolaus-Groß-Str. 31;Gymnasium;GY-Am Stadtpark;Digitalisierung;Digitalisierung; ;;x;;;;Gute Schule 2020-Mittel;;;;;fa-graduation-cap;blue
614;Nikolaus-Groß-Str. 31;Gymnasium;GY-Am Stadtpark;Erneuerung Unterverteilungen;Verkehrssicherheit;x;;;;;x;;;;;;fa-graduation-cap;blue
615;Nikolaus-Groß-Str. 31;Gymnasium;GY-Am Stadtpark;Sanierung Klassenräume;Sanierung; ;;;x;;;Gute Schule 2020-Mittel;;;;;fa-graduation-cap;blue
616;Nikolaus-Groß-Str. 31;Gymnasium;GY-Am Stadtpark;Erneuerung Flurdecken;Brandschutz; ;;x;;;;Gute Schule 2020-Mittel;;;;;fa-graduation-cap;blue
617;Nikolaus-Groß-Str. 31;Gymnasium;GY-Am Stadtpark;Erhöhung aller Treppengeländer;Verkehrssicherheit;;x;;;;;;;;;;fa-graduation-cap;blue
618;Nikolaus-Groß-Str. 31;Gymnasium;GY-Am Stadtpark;Fassade Treppenhaus D;Gebäudehülle;;;;x;;;;;;;;fa-graduation-cap;blue
619;Nikolaus-Groß-Str. 31;Gymnasium;GY-Am Stadtpark;Fassadensanierung, Umbau Dachüberstände, Blitzschutz;Gebäudehülle;;;;;;x;;;;;;fa-graduation-cap;blue
620;Nikolaus-Groß-Str. 31;Gymnasium;GY-Am Stadtpark;Schottung Treppenhaus D/C im UG;Brandschutz;;x;;;;;;;;;;fa-graduation-cap;blue
621;Nikolaus-Groß-Str. 31;Gymnasium;GY-Am Stadtpark;Erneuerung  Unterverteilung ELT;Brandschutz;;x;;;;;;;;;;fa-graduation-cap;blue
622;Nikolaus-Groß-Str. 31;Gymnasium;GY-Am Stadtpark;Sanierung Sanitäranlagen ;Sanierung;;x;;;;;;;;;;fa-graduation-cap;blue
623;Nikolaus-Groß-Str. 31;Gymnasium;GY-Am Stadtpark;Sonnenschutzanlage Bauteil D, Südseite;Sanierung;;;x;;;;;;;;;fa-graduation-cap;blue
624;Nikolaus-Groß-Str. 31;Gymnasium;GY-Am Stadtpark;Sanierung Aula, Flure, Lehrerzimmer;Verkehrssicherheit;;;x;;;;Gute Schule 2020-Mittel;;;;;fa-graduation-cap;blue
625;Nikolaus-Groß-Str. 31;Gymnasium;GY-Am Stadtpark;Umsetzung Brandschutzerfordernisse;Brandschutz;;;;;;x;;;;;;fa-graduation-cap;blue
626;Nikolaus-Groß-Str. 31;Gymnasium;GY-Am Stadtpark;Erweiterung (Planung);SEP;;;;;;;;;;;;fa-graduation-cap;blue
627;Nikolaus-Groß-Str. 31;Gymnasium;GY-Am Stadtpark;Versammlungsstätte/Aula  Überprüfung/Ertüchtigung;Verkehrssicherheit;;;;;;;;;;;;fa-graduation-cap;blue
628;Nikolaus-Groß-Str. 31/Turnhhalle;Gymnasium;GY-Am Stadtpark;Turnhalle, Sanierung Hallenboden inkl. Geräteraum;Sanierung;;;x;;;;Gute Schule 2020-Mittel;;;;;fa-graduation-cap;blue
629;Nikolaus-Groß-Str. 31;Gymnasium;GY-Am Stadtpark;Turnhalle, Sanierung Sanitäranlagen ;Sanierung;;x;;;;;;;;;;fa-graduation-cap;blue
630;Nikolaus-Groß-Str. 31;Gymnasium;GY-Am Stadtpark;Bauunterhalt < 10.000 Euro;Sanierung;;x;x;x;x;x;;;;;;fa-graduation-cap;blue
631;Nikolaus-Groß-Str. 31;Gymnasium;GY-Am Stadtpark;Prüfung Ausbau G 9;SEP;;;;;;;;;;;;fa-graduation-cap;blue
632;;;GY-Am Stadtpark;Gesamtbedarf bis 2022;1540000;;;;;;;;;;;;fa-graduation-cap;blue
633;Joh. Blum Str. 101;Gymnasium;Maria-Sybilla-Merian;Sanierung Lüftungsteuerung;Sanierung;;x; ; ;;;;;;;;fa-graduation-cap;blue
634;Joh. Blum Str. 101;Gymnasium;Maria-Sybilla-Merian;Digitalisierung;Digitalisierung; ;x; ; ;;;Gute Schule 2020-Mittel;;;;;fa-graduation-cap;blue
635;Joh. Blum Str. 101;Gymnasium;Maria-Sybilla-Merian;Erweiterung HAZ;Brandschutz;x;x; ; ;;;;;;;;fa-graduation-cap;blue
636;Joh. Blum Str. 101;Gymnasium;Maria-Sybilla-Merian;Herrichtung Selbstlernzentrum;Nutzung;x; ; ; ;;;;;;;;fa-graduation-cap;blue
637;Joh. Blum Str. 101;Gymnasium;Maria-Sybilla-Merian;Sanierung naturwisschenschafltiche Räume;Sanierung;;;x; ;;;;;;;;fa-graduation-cap;blue
638;Joh. Blum Str. 101;Gymnasium;Maria-Sybilla-Merian;Außenliegender Sonnenschutz;Nutzung;; ;x; ;;;;;;;;fa-graduation-cap;blue
639;Joh. Blum Str. 101;Gymnasium;Maria-Sybilla-Merian;Sanierung kleiner Übungsraum;Sanierung;;x; ; ;;;;;;;;fa-graduation-cap;blue
640;Joh. Blum Str. 101;Gymnasium;Maria-Sybilla-Merian;Sanierung Klassenräume;Sanierung;;x; ; ;;;Gute Schule 2020-Mittel;;;;;fa-graduation-cap;blue
641;Joh. Blum Str. 101;Gymnasium;Maria-Sybilla-Merian;Erneuerung Trafoschaltanlage;Brandschutz;x;x; ;;;;;;;;;fa-graduation-cap;blue
642;Joh. Blum Str. 101;Gymnasium;Maria-Sybilla-Merian;Sanierung Flurbereiche;Sanierung;;x; ; ;;;Gute Schule 2020-Mittel;;;;;fa-graduation-cap;blue
643;Joh. Blum Str. 101;Gymnasium;Maria-Sybilla-Merian;Sanierung Einrichtung, Chemie Übung;Sanierung;;x; ;;;;Gute Schule 2020-Mittel;;;;;fa-graduation-cap;blue
644;Joh. Blum Str. 101;Gymnasium;Maria-Sybilla-Merian;Sanierung Sanitäranlagen;Sanierung;; ; ;;x;;;;;;;fa-graduation-cap;blue
645;Joh. Blum Str. 101;Gymnasium;Maria-Sybilla-Merian;Erneuerung  Aufzug ;Sanierung;; ; ;;;x;;;;;;fa-graduation-cap;blue
646;Joh. Blum Str. 101/Turnhalle;Gymnasium;Maria-Sybilla-Merian;Turnhalle,  Dach- und Fassadensanierung;Gebäudehülle;;x; ; ;;;Gute Schule 2020-Mittel;;;;;fa-graduation-cap;blue
647;Joh. Blum Str. 101/Turnhalle;Gymnasium;Maria-Sybilla-Merian;Turnhalle,  Erneuerung Warmwasserbereitung;Sanierung;; ; ; ;;x;;;;;;fa-graduation-cap;blue
648;Joh. Blum Str. 101;Gymnasium;Maria-Sybilla-Merian;Turnhalle, Sanierung Sanitäranlagen;Sanierung;; ; ;;x;;;;;;;fa-graduation-cap;blue
649;Joh. Blum Str. 101;Gymnasium;Maria-Sybilla-Merian;Bauunterhalt < 10.000 Euro;Sanierung;;x;x;x;x;x;;;;;;fa-graduation-cap;blue
650;Joh. Blum Str. 101;Gymnasium;Maria-Sybilla-Merian;Versammlungsstätte Überprüfung/Ertüchtigung;Verkehrssicherheit;;;;;;;;;;;;fa-graduation-cap;blue
651;Joh. Blum Str. 101;Gymnasium;Maria-Sybilla-Merian;Prüfung Ausbau G 9;SEP;;;;;;;;;;;;fa-graduation-cap;blue
652;;;Maria-Sybilla-Merian;Gesamtbedarf bis 2022;1900000;;;;;;;;;;;;fa-graduation-cap;blue
653;Moerser Str. 36;Gymnasium;Gymnasium Ricarda-Huch;BS-Abkofferung Stahlträger UG;Brandschutz;x; ;x;;;;;;;;;fa-graduation-cap;blue
654;Moerser Str. 36;Gymnasium;Gymnasium Ricarda-Huch;Erstellung BS-Konzept;Brandschutz;;x;;;;;;;;;;fa-graduation-cap;blue
655;Moerser Str. 36;Gymnasium;Gymnasium Ricarda-Huch;Einbau BS-Türen UG u. Brandschotts;Brandschutz;;;x;;;;;;;;;fa-graduation-cap;blue
656;Moerser Str. 36;Gymnasium;Gymnasium Ricarda-Huch;Digitalisierung;Digitalisierung; ;;x;;;;Gute Schule 2020-Mittel;;;;;fa-graduation-cap;blue
657;Moerser Str. 36;Gymnasium;Gymnasium Ricarda-Huch;Einbau BS-Klassenzimmertüren an Treppenhäusern;Brandschutz;;;x;;;;;;;;;fa-graduation-cap;blue
658;Moerser Str. 36;Gymnasium;Gymnasium Ricarda-Huch;Sanierung Klassenräume;Sanierung;;;;x;;;;;;;;fa-graduation-cap;blue
659;Moerser Str. 36;Gymnasium;Gymnasium Ricarda-Huch;Sanierung Sanitäranlagen;Sanierung;;;;x;;;;;;;;fa-graduation-cap;blue
660;Moerser Str. 36;Gymnasium;Gymnasium Ricarda-Huch;Sanierung Flure und Treppenhäuser;Sanierung;;;;x;;;;;;;;fa-graduation-cap;blue
661;Moerser Str. 36;Gymnasium;Gymnasium Ricarda-Huch;Erweiterung BMA Neubau (Rest aus 2017);Brandschutz;x;;;;;;;;;;;fa-graduation-cap;blue
662;Moerser Str. 36;Gymnasium;Gymnasium Ricarda-Huch;Austausch Fenster 2. BA;Gebäudehülle;;;;;x;x;;;;;;fa-graduation-cap;blue
663;Moerser Str. 36;Gymnasium;Gymnasium Ricarda-Huch;Errichtung Lehrküche KG;Nutzung;;x;;;;;;;;;;fa-graduation-cap;blue
664;Moerser Str. 36;Gymnasium;Gymnasium Ricarda-Huch;Erneuerung Lüftungsschaltschrank;Sanierung;;;;;;x;;;;;;fa-graduation-cap;blue
665;Moerser Str. 36;Gymnasium;Gymnasium Ricarda-Huch;Schulhofsanierung;Außenanlagen;;;x;;;;Gute Schule 2020-Mittel;;;;;fa-graduation-cap;blue
666;Moerser Str. 36/Turnhalle;Gymnasium;Gymnasium Ricarda-Huch;Turnhalle,  Erneuerung Hauptverteilung;Verkehrssicherheit;x;;;;;;;;;;;fa-graduation-cap;blue
667;Moerser Str. 36/Turnhalle;Gymnasium;Gymnasium Ricarda-Huch;Turnhalle, Sanierung Hallenbeleuchtung;Energetische Sanierung; ;x;;;;;;;;;;fa-graduation-cap;blue
668;Moerser Str. 36/Turnhalle;Gymnasium;Gymnasium Ricarda-Huch;Turnhalle,  Erneuerung Übergabe SWK, Eigenanteil;Sanierung;x;;;;;;;;;;;fa-graduation-cap;blue
669;Moerser Str. 36;Gymnasium;Gymnasium Ricarda-Huch;Turnhalle, Sanierung Sanitäranlagen;Sanierung;;;;x;;;;;;;;fa-graduation-cap;blue
670;Moerser Str. 36/Turnhalle;Gymnasium;Gymnasium Ricarda-Huch;Turnhalle, Erneuerung HAZ;Brandschutz;;x;;;;;;;;;;fa-graduation-cap;blue
671;Moerser Str. 36;Gymnasium;Gymnasium Ricarda-Huch;Ersatz/Austausch Pavillon;Sanierung;;;;;x;;;;;;;fa-graduation-cap;blue
672;Moerser Str. 36;Gymnasium;Gymnasium Ricarda-Huch;Bauunterhalt < 10.000 Euro;Sanierung;;x;x;x;x;x;;;;;;fa-graduation-cap;blue
673;Moerser Str. 36;Gymnasium;Gymnasium Ricarda-Huch;Prüfung Ausbau G 9;SEP;;;;;;;;;;;;fa-graduation-cap;blue
674;Moerser Str. 36;Gymnasium;Gymnasium Ricarda-Huch;Versammlungsstätte/Aula  Überprüfung/Ertüchtigung;Verkehrssicherheit;;;;;;;;;;;;fa-graduation-cap;blue
675;;;Gymnasium Ricarda-Huch;Gesamtbedarf bis 2022;1775000;;;;;;;;;;;;fa-graduation-cap;blue
676;Kaiserplatz 31-50;Gesamtschule;Gesamtschule Kaiserplatz;Fenstererneuerung Südflügel inkl. Verschattung (Rest aus 2017);Gebäudehülle;x;x;;;;;;;;;;fa-graduation-cap;blue
677;Kaiserplatz 31-50;Gesamtschule;Gesamtschule Kaiserplatz;Montage RW-Außentreppe, inkl. Brandschutzkonzept;Brandschutz;x;x;;;;;;;;;;fa-graduation-cap;blue
678;Kaiserplatz 31-50;Gesamtschule;Gesamtschule Kaiserplatz;Anpassung Raumkapazität (Machbarkeitsstudie);Neubau/SEP;;x;;;;;;;Umfassende Standortbetrachtung notwendig, ggf. Einbeziehung Standort Rote-Kreuz-Str,;;;fa-graduation-cap;blue
679;Kaiserplatz 31-50;Gesamtschule;Gesamtschule Kaiserplatz;Erweiterung Lehrerzimmer;Neubau;;x;;;;;;;;;;fa-graduation-cap;blue
680;Kaiserplatz 31-50;Gesamtschule;Gesamtschule Kaiserplatz;Erneuerung Trinkwasser Eingangsstrecke Kaiserplatz 31;Verkehrssicherheit; ; ;x;;;;;;;;;fa-graduation-cap;blue
681;Kaiserplatz 31-50;Gesamtschule;Gesamtschule Kaiserplatz;Kanalsanierung Schulhof;Sanierung;; ;x;;;;;;;;;fa-graduation-cap;blue
682;Kaiserplatz 31-50;Gesamtschule;Gesamtschule Kaiserplatz;Schottung Treppenhaus 2.Teil;Brandschutz;;x;;;;;;;;;;fa-graduation-cap;blue
683;Kaiserplatz 31-50;Gesamtschule;Gesamtschule Kaiserplatz;Erneuerung NW-Einr., R. 1 BI 2, Biologie Übung, Schülerarbeitsplätze;Sanierung;; ;x;;;;;;;;;fa-graduation-cap;blue
684;Kaiserplatz 31-50;Gesamtschule;Gesamtschule Kaiserplatz;Sanierung Bodenbelag;Sanierung;;x;;;;;Gute Schule 2020-Mittel;;;;;fa-graduation-cap;blue
685;Kaiserplatz 31-50;Gesamtschule;Gesamtschule Kaiserplatz;Digitalisierung;Digitalisierung; ;x;;;;;Gute Schule 2020-Mittel;;;;;fa-graduation-cap;blue
686;Kaiserplatz 31-50;Gesamtschule;Gesamtschule Kaiserplatz;Erneuerung NW-Einr., R. 1 CH 2, Chemie Übung;Sanierung;; ;x;;;;;;;;;fa-graduation-cap;blue
687;Kaiserplatz 31-50;Gesamtschule;Gesamtschule Kaiserplatz;Erneuerung NW-Einr., R. 1 CH 1, Chemie Übung;Sanierung;; ;x;;;;;;;;;fa-graduation-cap;blue
688;Kaiserplatz 31-50;Gesamtschule;Gesamtschule Kaiserplatz;Nordtrakt, Sanierung Dach und Oberlichter;Sanierung;; ;;;x;;;;;;;fa-graduation-cap;blue
689;Kaiserplatz 31-50;Gesamtschule;Gesamtschule Kaiserplatz;Erw. Alarmierung;Brandschutz;;x;;;;;;;;;;fa-graduation-cap;blue
690;Kaiserplatz 31-50;Gesamtschule;Gesamtschule Kaiserplatz;Erneuerung Heizzentrale, Austausch WWB u. Thermostatventile;Sanierung;; ;;;;x;;;;;;fa-graduation-cap;blue
691;Kaiserplatz 31-50;Gesamtschule;Gesamtschule Kaiserplatz;Sanierung Klassenräume;Sanierung;;x;;;;;Gute Schule 2020-Mittel;;;;;fa-graduation-cap;blue
692;Kaiserplatz 31-50;Gesamtschule;Gesamtschule Kaiserplatz;Sanierung Parkett Forum/Mensa;Sanierung;;x;;;;;;;;;;fa-graduation-cap;blue
693;Kaiserplatz 31-50/Turnhalle;Gesamtschule;Gesamtschule Kaiserplatz;Turnhalle, Erneuerung Lüftungssteuerung;Sanierung;; ;;;;x;;;;;;fa-graduation-cap;blue
694;Kaiserplatz 31-50/Turnhalle;Gesamtschule;Gesamtschule Kaiserplatz;Turnhalle, Einbau LED-Beleuchtung große Turnhalle;Energetische Sanierung;; ;;;;x;;;;;;fa-graduation-cap;blue
695;Kaiserplatz 31-50/Turnhalle;Gesamtschule;Gesamtschule Kaiserplatz;Turnhalle, Einbau Hocheffizienzpumpe;Energetische Sanierung;;x;;;;;;;;;;fa-graduation-cap;blue
696;Kaiserplatz 31-50;Gesamtschule;Gesamtschule Kaiserplatz;Bauunterhalt < 10.000 Euro;Sanierung;;x;x;x;x;x;;;;;;fa-graduation-cap;blue
697;Kaiserplatz 31-50;Gesamtschule;Gesamtschule Kaiserplatz;Versammlungsstätte/Forum Überprüfung/Ertüchtigung;Verkehrssicherheit;;;;; ;;;;;;;fa-graduation-cap;blue
698;;;Gesamtschule Kaiserplatz;Gesamtbedarf bis 2022;6880000;;;;;;;;;;;;fa-graduation-cap;blue
699;Alte Gladbacher Str. 10;Gesamtschule;Kurt-Tucholsky;Umbau Sekretariat;Nutzung;x;x;;;;;;;;;;fa-graduation-cap;blue
700;Alte Gladbacher Str. 10;Gesamtschule;Kurt-Tucholsky;Erstellung/Umsetzung BS-Konzept (Rest aus 2017);Brandschutz; ;x;;;;;;;;;;fa-graduation-cap;blue
701;Alte Gladbacher Str. 10;Gesamtschule;Kurt-Tucholsky;BS, RS-Türen;Brandschutz;x;;x;;;;;;;;;fa-graduation-cap;blue
702;Alte Gladbacher Str. 10;Gesamtschule;Kurt-Tucholsky;Sanierung Klassenräume;Sanierung;;;;x;;;;;;;;fa-graduation-cap;blue
703;Alte Gladbacher Str. 10;Gesamtschule;Kurt-Tucholsky;Digitalisierung;Digitalisierung; ;x;;;;;Gute Schule 2020-Mittel;;;;;fa-graduation-cap;blue
704;Alte Gladbacher Str. 10;Gesamtschule;Kurt-Tucholsky;Einzelraumregelung;Energetische Sanierung; ;;x;;;;;;;;;fa-graduation-cap;blue
705;Alte Gladbacher Str. 10;Gesamtschule;Kurt-Tucholsky;Sanierung Gründach Unterrichtsturm II;Gebäudehülle;;;;;x;;;;;;;fa-graduation-cap;blue
706;Alte Gladbacher Str. 10;Gesamtschule;Kurt-Tucholsky;Erweiterung Schulstandort, Planung;Neubau/SEP;;;;;;;;;;;;fa-graduation-cap;blue
707;Alte Gladbacher Str. 10;Gesamtschule;Kurt-Tucholsky;Sanierung Treppenhäuser und Flure;Sanierung;;;;x;;;;;;;;fa-graduation-cap;blue
708;Alte Gladbacher Str. 10;Gesamtschule;Kurt-Tucholsky;Bauunterhalt < 10.000 Euro;Sanierung;;x;x;x;x;x;;;;;;fa-graduation-cap;blue
709;Alte Gladbacher Str. 10;Gesamtschule;Kurt-Tucholsky;Versammlungsstätte Überprüfung/Ertüchtigung;Verkehrssicherheit;;;;;;;;;;;;fa-graduation-cap;blue
710;;;Kurt-Tucholsky;Gesamtbedarf bis 2022;1180000;;;;;;;;;;;;fa-graduation-cap;blue
711;Reepenweg 40;Gesamtschule;Robert-Jungk;Erweiterung HAZ (Rest aus 2017);Brandschutz;x;x;;;;;;;;;;fa-graduation-cap;blue
712;Reepenweg 40;Gesamtschule;Robert-Jungk;Austausch Mittelspannungs-Trafoanlage;Verkehrssicherheit;x;x;;;;;;;;;;fa-graduation-cap;blue
713;Reepenweg 40;Gesamtschule;Robert-Jungk;Digitalisierung;Digitalisierung; ;;x;;; ;Gute Schule 2020-Mittel;;;;;fa-graduation-cap;blue
714;Reepenweg 40;Gesamtschule;Robert-Jungk;Sicherheitsbeleuchtung, Austausch Batterie;Verkehrssicherheit;;;;;;x;;;;;;fa-graduation-cap;blue
715;Reepenweg 40;Gesamtschule;Robert-Jungk;Austausch Decken in Fluren;Sanierung;;;x;;;;;;;;;fa-graduation-cap;blue
716;Reepenweg 40;Gesamtschule;Robert-Jungk;Brandschutztüren;Brandschutz;x;x;;;;;;;;;;fa-graduation-cap;blue
717;Reepenweg 40;Gesamtschule;Robert-Jungk;Sanierung Flure;Sanierung;;;;;;x;;;;;;fa-graduation-cap;blue
718;Reepenweg 40;Gesamtschule;Robert-Jungk;2. Rettungsweg Verwaltung;Brandschutz;x;x;;;;;;;;;;fa-graduation-cap;blue
719;Reepenweg 40;Gesamtschule;Robert-Jungk;Ertüchtigung RLT inkl. Schottung (Rest aus 2017);Brandschutz;x;x;;;;;;;;;;fa-graduation-cap;blue
720;Reepenweg 40;Gesamtschule;Robert-Jungk;Sanierung Sanitäranalgen Haupteingang;Sanierung;;;;;x;;;;;;;fa-graduation-cap;blue
721;Reepenweg 40;Gesamtschule;Robert-Jungk;Erneuerung Fensteranlage im EG;Gebäudehülle;;;x;;;;;;;;;fa-graduation-cap;blue
722;Reepenweg 40;Gesamtschule;Robert-Jungk;Sanierung Flachdach;Gebäudehülle;;;x;;;;Gute Schule 2020-Mittel;;;;;fa-graduation-cap;blue
723;Reepenweg 40;Gesamtschule;Gesamtschule Robert-Jungk;Erweiterung und Anpassung Schulstandort (u. a. Oberstufe Kerken), Planung;SEP;x;;;;;;;;;;;fa-graduation-cap;blue
724;Reepenweg 40;Gesamtschule;Robert-Jungk;Sanierung Klassenräume;Sanierung;;;;;;x;;;;;;fa-graduation-cap;blue
725;Reepenweg 40/Turnhalle;Gesamtschule;Robert-Jungk;Turnhalle, Erneuerung Übergabe SWK, Eigenanteil;Verkehrssicherheit;x;;;;;;;;;;;fa-graduation-cap;blue
726;Reepenweg 40/Turnhalle;Gesamtschule;Robert-Jungk;Turnhalle, Erneuerung Beleuchtung LED (Förderprojekt);Energetische Sanierung;x;;;;;;;;;;;fa-graduation-cap;blue
727;Reepenweg 40/Turnhalle;Gesamtschule;Robert-Jungk;Turnhalle, Umbau/Erw. BMA;Brandschutz;;x;;;;;;;;;;fa-graduation-cap;blue
728;Reepenweg 40/Turnhalle;Gesamtschule;Robert-Jungk;Turnhalle, Erneuerung Lüftungsschaltschränke;Sanierung;;;;;;x;;;;;;fa-graduation-cap;blue
729;Reepenweg 40;Gesamtschule;Robert-Jungk;Bauunterhalt < 10.000 Euro;Sanierung;;x;x;x;x;x;;;;;;fa-graduation-cap;blue
730;Reepenweg 41;Gesamtschule;Robert-Jungk;Versammlungsstätte PZ/Aula   Überprüfung/Ertüchtigung;Verkehrssicherheit;;;;;;;;;;;;fa-graduation-cap;blue
731;;;Robert-Jungk;Gesamtbedarf bis 2022;8375000;;;;;;;;;;;;fa-graduation-cap;blue
732;Tulpenstr. 11;Förderschule;Franz-Stollwerck-Schule;Ersatz Mietpavillon u. Erweiterung zur Deckung akuter Bedarfe;SEP;;x; ;;;;;;;;;fa-graduation-cap;blue
733;Tulpenstr. 11;Förderschule;Franz-Stollwerck-Schule;Mittelfristig: Prüfung weiterer Ausbau oder weiterer Standort im Rahmen SEP Förderschule;SEP;;;;;;;;;;;;fa-graduation-cap;blue
734;Tulpenstr. 11;Förderschule;Franz-Stollwerck-Schule;Sanierung Flurbereiche;Sanierung;;; ;;;x;;;;;;fa-graduation-cap;blue
735;Tulpenstr. 11;Förderschule;Franz-Stollwerck-Schule;Sanierung Sanitäranlagen;Sanierung;;; ;;;x;;;;;;fa-graduation-cap;blue
736;Tulpenstr. 11;Förderschule;Franz-Stollwerck-Schule;Digitalisierung;Digitalisierung; ;; ;x;; ;Gute Schule 2020-Mittel;;;;;fa-graduation-cap;blue
737;Tulpenstr. 11;Förderschule;Franz-Stollwerck-Schule;Betonsanierung Fassade;Gebäudehülle;;; ;;;x;;;;;;fa-graduation-cap;blue
738;Tulpenstr. 11;Förderschule;Franz-Stollwerck-Schule;Sanierung Klassenräume;Sanierung;;; ;;;x;;;;;;fa-graduation-cap;blue
739;Tulpenstr. 11;Förderschule;Franz-Stollwerck-Schule;Ersatz Klettergerüst;Außenanlagen;;x; ;;;;;;;;;fa-graduation-cap;blue
740;Tulpenstr. 11;Förderschule;Franz-Stollwerck-Schule;Bauunterhalt < 10.000 Euro;Sanierung;;x;x;x;x;x;;;;;;fa-graduation-cap;blue
741;;;Franz-Stollwerck-Schule;Gesamtbedarf bis 2022;575000;;;;;;;;;;;;fa-graduation-cap;blue
742;Alte Flur 21;Förderschule;Fried.-von-Bodelschwingh;Austausch Treppenhausdecke u. Flurdecken inkl. Beleuchtung;Sanierung; ;;x;;;;;;;;;fa-graduation-cap;blue
743;Alte Flur 21;Förderschule;Fried.-von-Bodelschwingh;Sanierung Klassenräume;Sanierung; ;;x;;;;Gute Schule 2020-Mittel;;;;;fa-graduation-cap;blue
744;Alte Flur 21;Förderschule;Fried.-von-Bodelschwingh;BS-Ertüchtigung Keller;Brandschutz; ;;;;;x;;;;;;fa-graduation-cap;blue
745;Alte Flur 21;Förderschule;Fried.-von-Bodelschwingh;Sonnenschutz Westseite u. Verwaltung;Sanierung;;;;;;x;;;;;;fa-graduation-cap;blue
746;Alte Flur 21;Förderschule;Fried.-von-Bodelschwingh;Digitalisierung (beide Standorte);Digitalisierung; ;x;;;;;Gute Schule 2020-Mittel;;;;;fa-graduation-cap;blue
747;Alte Flur 21/Turnhalle;Förderschule;Fried.-von-Bodelschwingh;Turnhalle, Sanierung Sportboden;Sanierung;;x;;;;;Gute Schule 2020-Mittel;;;;;fa-graduation-cap;blue
748;Alte Flur 21/Turnhalle;Förderschule;Fried.-von-Bodelschwingh;Turnhalle, Erneuerung Fenster;Gebäudehülle;;x;;;;;Gute Schule 2020-Mittel;;;;;fa-graduation-cap;blue
749;Stettiner Str. 1;Förderschule;Fried.-von-Bodelschwingh;Sanierung Klassenräume;Sanierung; ;;;;x;;Gute Schule 2020-Mittel;;;;;fa-graduation-cap;blue
750;Stettiner Str. 1;Förderschule;Fried.-von-Bodelschwingh;Hauptgebäude, Dachsanierung;Gebäudehülle; ;;x;;;;Gute Schule 2020-Mittel;;;;;fa-graduation-cap;blue
751;Stettiner Str. 1;Förderschule;Fried.-von-Bodelschwingh;Abkofferung für Heizungsleitung;Sanierung;;;;;x;;;;;;;fa-graduation-cap;blue
752;Stettiner Str. 1;Förderschule;Fried.-von-Bodelschwingh;Sanierung Sanitäranlagen;Sanierung;;;;;;x;;;;;;fa-graduation-cap;blue
753;Breslauer Str. 280;Förderschule;Fried.-von-Bodelschwingh;kurzfristig Herrichtung von Räumen in der Breslauer Str.;SEP;;;;;;;;;;;;fa-graduation-cap;blue
754;Stettiner Str. 1;Förderschule;Fried.-von-Bodelschwingh;Mittelfristig: Prüfung weiterer Ausbau oder weiterer Standort im Rahmen SEP Förderschule;SEP;;;;;;;;;;;;fa-graduation-cap;blue
755;Stettiner Str. 1/Turnhalle;Förderschule;Fried.-von-Bodelschwingh;Lehrbad/Turnhalle, Neuer Abschluss Eingangsbereich;;;;;x;;;;;;;;fa-graduation-cap;blue
756;Stettiner Str. 1;Förderschule;Fried.-von-Bodelschwingh;Turnhalle, Sanierung Sanitäranlagen;Sanierung;;;;;;x;;;;;;fa-graduation-cap;blue
757;Stettiner Str. 1/Turnhalle;Förderschule;Fried.-von-Bodelschwingh;Lehrbad/Turnhalle, Einbau Fluchttüren am Pausengang;Brandschutz;;;;;;x;;;;;;fa-graduation-cap;blue
758;Alte Flur 21/Turnhalle;Förderschule;Fried.-von-Bodelschwingh;Turnhalle Alte Flur, Erneuerung Prallschutzwände;Verkehrssicherheit;;x;;;;;Gute Schule 2020-Mittel;;;;;fa-graduation-cap;blue
759;Alte Flur 21/Turnhalle;Förderschule;Fried.-von-Bodelschwingh;Turnhalle Alte Flur, Austausch Treppenhaustüren;Verkehrssicherheit;x;x;;;;;;;;;;fa-graduation-cap;blue
760;beide Standorte;Förderschule;Fried.-von-Bodelschwingh;Bauunterhalt < 10.000 Euro;Sanierung;;x;x;x;x;x;;;;;;fa-graduation-cap;blue
761;;;Fried.-von-Bodelschwingh;Gesamtbedarf bis 2022;995000;;;;;;;;;;;;fa-graduation-cap;blue
762;Inrather Str. 611;Förderschule;Erich Kästner-Schule;Beseitigung BS-Mängel 2. OG und UG;Brandschutz;x;;;;;x;;;;;;fa-graduation-cap;blue
763;Inrather Str. 611;Förderschule;Erich Kästner-Schule;Erweiterung Alarmierung aufgr. TÜV-Mängeln (Rest aus 2017);Brandschutz;x;;;;;;;;;;;fa-graduation-cap;blue
764;Inrather Str. 611;Förderschule;Erich Kästner-Schule;Digitalisierung;Digitalisierung; ;;x;;; ;Gute Schule 2020-Mittel;;;;;fa-graduation-cap;blue
765;Inrather Str. 611;Förderschule;Erich Kästner-Schule;HAZ-Erweiterung;Brandschutz; ;x;;;;;;;;;;fa-graduation-cap;blue
766;Inrather Str. 611;Förderschule;Erich Kästner-Schule;Austausch Bodenbelag Überdachung ;Verkehrssicherheit;x;x;;;;;;;;;;fa-graduation-cap;blue
767;Inrather Str. 611;Förderschule;Erich Kästner-Schule;Sanierung Bodenbelag, Anstriche Flure, Treppenhaus;Sanierung; ;;x;;;;Gute Schule 2020-Mittel;;;;;fa-graduation-cap;blue
768;Inrather Str. 611;Förderschule;Erich Kästner-Schule;Dachsanierung Überdachung;Gebäudehülle;;x;;;;;;;;;;fa-graduation-cap;blue
769;Inrather Str. 611;Förderschule;Erich Kästner-Schule;Ersatz Seitenteile Überdachung;Gebäudehülle;;x;;;;;;;;;;fa-graduation-cap;blue
770;Inrather Str. 611;Förderschule;Erich Kästner-Schule;Sanierung Sanitäranlagen;Sanierung;;;;;;x;;;;;;fa-graduation-cap;blue
771;Inrather Str. 611;Förderschule;Erich Kästner-Schule;Nutzungsänderung: Neuer Werkraum u. Büroräume;Nutzung;;;;;;x;;;;;;fa-graduation-cap;blue
772;Inrather Str. 611;Förderschule;Erich Kästner-Schule;TurnhalleSanierung Sanitäranlagen;Sanierung;;;;;;x;;;;;;fa-graduation-cap;blue
773;Inrather Str. 611;Förderschule;Erich Kästner-Schule;Schulhofsanierung/Einzäunung  des Schulhofes;Außenanlagen;;;x;;;;;;;;;fa-graduation-cap;blue
774;Inrather Str. 611;Förderschule;Erich Kästner-Schule;Nebengebäude, Erneuerung Fensteranlage;Gebäudehülle;;;x;;;;;;;;;fa-graduation-cap;blue
775;Inrather Str. 612;Förderschule;Erich Kästner-Schule;Bauunterhalt < 10.000 Euro;Sanierung;;x;x;x;x;x;;;;;;fa-graduation-cap;blue
776;;;Erich Kästner-Schule;Gesamtbedarf bis 2022;730000;;;;;;;;;;;;fa-graduation-cap;blue
777;Rundweg 10;Förderschule;Am Uerdinger Rundweg;Umsetzung Brandschau, Erneuerung Sprachalarmierung;Brandschutz; ;x;;;;;;;;;;fa-graduation-cap;blue
778;Rundweg 10;Förderschule;Am Uerdinger Rundweg;Digitalisierung;Digitalisierung; ;;;;;x;Gute Schule 2020-Mittel;;;;;fa-graduation-cap;blue
779;Rundweg 10;Förderschule;Am Uerdinger Rundweg;Sanierung Klassenräume;Sanierung; ;;;x;;;Gute Schule 2020-Mittel;;;;;fa-graduation-cap;blue
780;Rundweg 10;Förderschule;Am Uerdinger Rundweg;Austausch Eingangstüren und Fenster;Sanierung; ;;;x;;;;;;;;fa-graduation-cap;blue
781;Rundweg 10;Förderschule;Am Uerdinger Rundweg;Sanierung Flure;Sanierung; ;;;x;;;Gute Schule 2020-Mittel;;;;;fa-graduation-cap;blue
782;Rundweg 10;Förderschule;Am Uerdinger Rundweg;Sanierung Grundleitungen;Sanierung;;;;;;;;;;;;fa-graduation-cap;blue
783;Rundweg 10;Förderschule;Am Uerdinger Rundweg;Erneuerung Thermostatventile;Energetische Sanierung;;;;;;x;;;;;;fa-graduation-cap;blue
784;Rundweg 10;Förderschule;Am Uerdinger Rundweg;Dämmung oberste Geschossdecke;Energetische Sanierung;;;;;;x;;;;;;fa-graduation-cap;blue
785;Rundweg 10;Förderschule;Am Uerdinger Rundweg;Dachsanierung;Gebäudehülle;;;;;;x;;;;;;fa-graduation-cap;blue
786;Rundweg 10;Förderschule;Am Uerdinger Rundweg;Prüfung Raumkapazität im Rahmen SEP Förderschulen;SEP;;;;;;;;;;;;fa-graduation-cap;blue
787;Rundweg 10;Förderschule;Am Uerdinger Rundweg;Bauunterhalt < 10.000 Euro;Sanierung;;x;x;x;x;x;;;;;;fa-graduation-cap;blue
788;;;Am Uerdinger Rundweg;Gesamtbedarf bis 2022;530000; ;;;;;;;;;;;fa-graduation-cap;blue
789;Alte Krefelder Str. 93;Berufskolleg;BK-Uerdingen;Erweiterung BMA;Brandschutz;x;x;x;;;;;;;;;fa-graduation-cap;blue
790;Alte Krefelder Str. 93;Berufskolleg;BK-Uerdingen;Beseitigung Brandschutzmängel;Brandschutz;;x;;;;;;;;;;fa-graduation-cap;blue
791;Alte Krefelder Str. 93;Berufskolleg;BK-Uerdingen;Digitalisierung;Digitalisierung; ;;;;x; ;Gute Schule 2020-Mittel;;;;;fa-graduation-cap;blue
792;Alte Krefelder Str. 93;Berufskolleg;BK-Uerdingen;Umsetzung BS-Konzept;Brandschutz;;;;;;x;;;;;;fa-graduation-cap;blue
793;Alte Krefelder Str. 93;Berufskolleg;BK-Uerdingen;diverse Sanierungen erf. lt. Aufstellung;Sanierung; ;;;;;;;;;;;fa-graduation-cap;blue
794;Alte Krefelder Str. 93;Berufskolleg;BK-Uerdingen;Erweiterung, Hochbau  (Prüfung Raumbestand);Neubau/SEP; ;;;x;x;;;;Abhängig von SEP BK;;;fa-graduation-cap;blue
795;Alte Krefelder Str. 93;Berufskolleg;BK-Uerdingen;Erweiterung, Tiefbau (Prüfung Raumbestand);Neubau/SEP; ;;; ;x;;;;Abhängig von SEP BK;;;fa-graduation-cap;blue
796;Alte Krefelder Str. 93;Berufskolleg;BK-Uerdingen;Erweiterung, Einrichtung (Prüfung Raumbestand);Neubau/SEP; ;;;x;;;;;Abhängig von SEP BK;;;fa-graduation-cap;blue
797;Alte Krefelder Str. 93;Berufskolleg;BK-Uerdingen;Sanierung Flurbereiche;Sanierung;;x;;;;;Gute Schule 2020-Mittel;;;;;fa-graduation-cap;blue
798;Alte Krefelder Str. 93;Berufskolleg;BK-Uerdingen;Erneuerung Unterverteilungen;Brandschutz;;x;;;;;;;;;;fa-graduation-cap;blue
799;Alte Krefelder Str. 93;Berufskolleg;BK-Uerdingen;Anschluss Schaltschrank;Sanierung;;;;;;x;;;;;;fa-graduation-cap;blue
800;Alte Krefelder Str. 93;Berufskolleg;BK-Uerdingen;Erneuerung RWAs;Brandschutz;;;;;;x;;;;;;fa-graduation-cap;blue
801;Alte Krefelder Str. 93;Berufskolleg;BK-Uerdingen;Sanierung Chemie Vorbereitung;Sanierung;;x;;;;;;;;;;fa-graduation-cap;blue
802;Alte Krefelder Str. 93;Berufskolleg;BK-Uerdingen;Wärmedämmung Überstand Eingang;Energetische Sanierung;;;x;;;;Gute Schule 2020-Mittel;;;;;fa-graduation-cap;blue
803;Alte Krefelder Str. 93;Berufskolleg;BK-Uerdingen;Sanierung Klassenräume;Sanierung;;x;;;;;Gute Schule 2020-Mittel;;;;;fa-graduation-cap;blue
804;Alte Krefelder Str. 93;Berufskolleg;BK-Uerdingen;Beton- u. Fassadensanierung;Sanierung;;;;x;;;;;;;;fa-graduation-cap;blue
805;Alte Krefelder Str. 93;Berufskolleg;BK-Uerdingen;Erneuerung Trafostation;Brandschutz;;x;;;;;;;;;;fa-graduation-cap;blue
806;Alte Krefelder Str. 93;Berufskolleg;BK-Uerdingen;Sanierung NW-Einrichtung, R. 00.17, Biologie Übung;Sanierung/SEP;;;;;;x;;;Abhängig von SEP BK;;;fa-graduation-cap;blue
807;Alte Krefelder Str. 93;Berufskolleg;BK-Uerdingen;Sanierung NW-Einrichtung, R. 00.14, Chemie Übung;Sanierung/SEP;;;;;x;;;;Abhängig von SEP BK;;;fa-graduation-cap;blue
808;Alte Krefelder Str. 93;Berufskolleg;BK-Uerdingen;Sanierung NW-Einrichtung, R. 00.32, Chemie Übung;Sanierung/SEP;;x;;;;;;;Abhängig von SEP BK;;;fa-graduation-cap;blue
809;Alte Krefelder Str. 93;Berufskolleg;BK-Uerdingen;Sanierung Attika (Rest);Sanierung;;;x;;;;Gute Schule 2020-Mittel;;;;;fa-graduation-cap;blue
810;Alte Krefelder Str. 93;Berufskolleg;BK-Uerdingen;Dachsanierung;Gebäudehülle;;;x;;;;Gute Schule 2020-Mittel;;;;;fa-graduation-cap;blue
811;Alte Krefelder Str. 93;Berufskolleg;BK-Uerdingen;Erneuerung / Modernisierung der Aufzugsanlage;Sanierung;;;x;;;;;;;;;fa-graduation-cap;blue
812;Alte Krefelder Str. 93/Turnhalle;Berufskolleg;BK-Uerdingen;Turnhalle, Umstellung Beleuchtung auf LED;Energetische Sanierung;x;;;;;;;;;;;fa-graduation-cap;blue
813;Alte Krefelder Str. 93/Turnhalle;Berufskolleg;BK-Uerdingen;Turnhalle, Erneuerung Prallschutz;Sanierung;;;x;;;;Gute Schule 2020-Mittel;;;;;fa-graduation-cap;blue
814;Alte Krefelder Str. 93/Turnhalle;Berufskolleg;BK-Uerdingen;Turnhalle, Sanierung Hallenboden;Sanierung;;;x;;;;Gute Schule 2020-Mittel;;;;;fa-graduation-cap;blue
815;Alte Krefelder Str. 93/Turnhalle;Berufskolleg;BK-Uerdingen;Turnhalle, Erneuerung Regenrohre in Zwischendecke;Sanierung;;;;;;x;;;;;;fa-graduation-cap;blue
816;Alte Krefelder Str. 93/Turnhalle;Berufskolleg;BK-Uerdingen;Turnhalle, Erneuerung Warmwasserbereitung;Sanierung;;;;;;x;;;;;;fa-graduation-cap;blue
817;Alte Krefelder Str. 93;Berufskolleg;BK-Uerdingen;Bauunterhalt < 10.000 Euro;Sanierung;;x;x;x;x;x;;;;;;fa-graduation-cap;blue
818;;;BK-Uerdingen;Gesamtbedarf bis 2022;7275000;;;;;;;;;;;;fa-graduation-cap;blue
819;Glockenspitz 348;Berufskolleg;BK-Glockenspitz;Neue Gefahrstofflagerschränke versch. Labore;Verkehrssicherheit;x;;;;;;;;;;;fa-graduation-cap;blue
820;Glockenspitz 348;Berufskolleg;BK-Glockenspitz;BMA/EMA - Mängelbeseitigung ;Brandschutz; ;x;;;;;;;;;;fa-graduation-cap;blue
821;Glockenspitz 348;Berufskolleg;BK-Glockenspitz;10 Flachdächer, BS-Türen;Brandschutz; ;x;;;;;;;;;;fa-graduation-cap;blue
822;Glockenspitz 348;Berufskolleg;BK-Glockenspitz;Öffnen 2. RW-Bypasstüren in allen Etagen und Haus A + B;Brandschutz;;;;;;x;;;;;;fa-graduation-cap;blue
823;Glockenspitz 348;Berufskolleg;BK-Glockenspitz;Sanierung bzw. Neugestaltung Cafeteria mit Küche;Nutzung;;;;;;;;;;;;fa-graduation-cap;blue
824;Glockenspitz 348;Berufskolleg;BK-Glockenspitz;Schreinerei, Erneuerung Funkenlöschanlage;Brandschutz;;;;;;x;;;;;;fa-graduation-cap;blue
825;Glockenspitz 348;Berufskolleg;BK-Glockenspitz;Trinkwasserverteiler ;Sanierung;x;;;;;;;;;;;fa-graduation-cap;blue
826;Glockenspitz 348;Berufskolleg;BK-Glockenspitz;Erneuerung Feuerlöschleitung, Überflurhydranten;Brandschutz;x; ;;;;;;;;;;fa-graduation-cap;blue
827;Glockenspitz 348;Berufskolleg;BK-Glockenspitz;Digitalisierung;Digitalisierung; ;x;;;; ;Gute Schule 2020-Mittel;;;;;fa-graduation-cap;blue
828;Glockenspitz 348;Berufskolleg;BK-Glockenspitz;Erneuerung NW-Einr., R. 215, Chemie Labor;Sanierung/SEP;;;;x;;;;;Abhängig von SEP BK;;;fa-graduation-cap;blue
829;Glockenspitz 348;Berufskolleg;BK-Glockenspitz;Erneuerung NW-Einr., R. 204, Chemie Labor;Sanierung/SEP;;;;x;;;;;Abhängig von SEP BK;;;fa-graduation-cap;blue
830;Glockenspitz 348;Berufskolleg;BK-Glockenspitz;Erneuerung NW-Einr., R. 203, Chemie Labor;Sanierung/SEP;;;;x;;;;;Abhängig von SEP BK;;;fa-graduation-cap;blue
831;Glockenspitz 348;Berufskolleg;BK-Glockenspitz;statische Prüfung Decken, ggf. Erneuerung;Verkehrssicherheit;;;x;;;;;;;;;fa-graduation-cap;blue
832;Glockenspitz 348;Berufskolleg;BK-Glockenspitz;Sanierung Sanitäranlagen;Sanierung;;;;;;x;;;;;;fa-graduation-cap;blue
833;Glockenspitz 348;Berufskolleg;BK-Glockenspitz;HM-Wohnung, Schimmelsanierung;Sanierung;;;;;x;;;;;;;fa-graduation-cap;blue
834;Glockenspitz 348;Berufskolleg;BK-Glockenspitz;Sanierung Bodenbelag Flure;Sanierung;;;x;;;;Gute Schule 2020-Mittel;;;;;fa-graduation-cap;blue
835;Glockenspitz 348;Berufskolleg;BK-Glockenspitz;Sanierung Klassenäume;Sanierung;;;;;x;;;;;;;fa-graduation-cap;blue
836;Glockenspitz 348;Berufskolleg;BK-Glockenspitz;Prüfung Raumbestand, einschl. Pavillon-Klassen;SEP;;;;;;;;;Abhängig von SEP BK;;;fa-graduation-cap;blue
837;Glockenspitz 348;Berufskolleg;BK-Glockenspitz;Bauunterhalt < 10.000 Euro;Sanierung;;x;x;x;x;x;;;;;;fa-graduation-cap;blue
838;;;BK-Glockenspitz;Gesamtbedarf bis 2022;2655000;;;;;;;;;;;;fa-graduation-cap;blue
839;Girmesgath 131;Berufskolleg;BK-Vera-Beckers;Erneuerung NW-Einrichtung R. B 306 Chemie Übung;Sanierung;x;;;;;;;;;;;fa-graduation-cap;blue
840;Girmesgath 131;Berufskolleg;BK-Vera-Beckers;Digitalisierung;Digitalisierung; ;x;;;;;Gute Schule 2020-Mittel;;;;;fa-graduation-cap;blue
841;Girmesgath 131;Berufskolleg;BK-Vera-Beckers;Installation Sicherheitsbeleuchtung;Verkehrssicherheit;x;x;;;;;;;;;;fa-graduation-cap;blue
842;Girmesgath 131;Berufskolleg;BK-Vera-Beckers;"Bt. B: ""Italo-Bau"" BS-Sanierung, Verkleidung der Stützenköpfe";Brandschutz;;;;;x;;;;;;;fa-graduation-cap;blue
843;Girmesgath 131;Berufskolleg;BK-Vera-Beckers;Einbau BS-Türen;Brandschutz;;;x;;;;KInvFöG-Mittel;;;;;fa-graduation-cap;blue
844;Girmesgath 131;Berufskolleg;BK-Vera-Beckers;Geländererhöhung Altbau, Treppenhaus T2;Verkehrssicherheit;x;x;;;;;;;;;;fa-graduation-cap;blue
845;Girmesgath 131;Berufskolleg;BK-Vera-Beckers;Personenaufzug (behindertenger. Zugang);Nutzung;;;;;;;;;;;;fa-graduation-cap;blue
846;Girmesgath 131;Berufskolleg;BK-Vera-Beckers;Aufschaltung und Erweiterung BMA, Rauchmeldertausch;Brandschutz;x;x;;;;;;;;;;fa-graduation-cap;blue
847;Girmesgath 131;Berufskolleg;BK-Vera-Beckers;Austausch Leuchten gegen LED, Nähräume;Energetische Sanierung;;x;;;;;;;;;;fa-graduation-cap;blue
848;Girmesgath 131;Berufskolleg;BK-Vera-Beckers;Erneuerung NW-Einr., R. B 202, Biologie Hörsaal, Lehrertisch;Sanierung;;;x;;;;;;;;;fa-graduation-cap;blue
849;Girmesgath 131;Berufskolleg;BK-Vera-Beckers;Erneuerung NW-Einr., R. B 302, Chemie Hörsaal, Lehrertisch, Schülertische;Sanierung;;;x;;;;;;;;;fa-graduation-cap;blue
850;Girmesgath 131;Berufskolleg;BK-Vera-Beckers;BT B, Sanierung Klassenräume;Sanierung;;x;;;;;Gute Schule 2020-Mittel;;;;;fa-graduation-cap;blue
851;Girmesgath 131;Berufskolleg;BK-Vera-Beckers;Sanierung Sanitäranlagen;Sanierung;;;;;;x;;;;;;fa-graduation-cap;blue
852;Girmesgath 131;Berufskolleg;BK-Vera-Beckers;Erneuerung Fassade u. Fenster Altbau;Gebäudehülle;;;x;;;;KInvFöG-Mittel;;;;;fa-graduation-cap;blue
853;Girmesgath 131;Berufskolleg;BK-Vera-Beckers;Erneuerung Aufzug;Sanierung;;;;;;x;;;;;;fa-graduation-cap;blue
854;Girmesgath 131;Berufskolleg;BK-Vera-Beckers;Erneuerung NW-Einr., R. C 027, Chemie Übung;Sanierung;;;;;;x;;;;;;fa-graduation-cap;blue
855;Girmesgath 131;Berufskolleg;BK-Vera-Beckers;Prüfung Raumbestand;SEP;;;;;;;;;Abhängig von SEP BK;;;fa-graduation-cap;blue
856;Girmesgath 131/Turnhalle;Berufskolleg;BK-Vera-Beckers;Turnhalle, Erneuerung Lüftungssteuerung;Sanierung; ;;x;;;;;;;;;fa-graduation-cap;blue
857;Girmesgath 131;Berufskolleg;BK-Vera-Beckers;Turnhalle, Sanierung Sanitäranlagen;Sanierung;;;;;;x;;;;;;fa-graduation-cap;blue
858;Girmesgath 131/Turnhalle;Berufskolleg;BK-Vera-Beckers;Turnhalle, Sanierung Hallenbeleuchtung (Umst. auf LED);Energetische Sanierung;x;;;;;;;;;;;fa-graduation-cap;blue
859;Westparkstr. 92-96;Berufskolleg;BK-Vera-Beckers;NG Westparkstr. (Miwi), BS-Maßnahmen;Brandschutz;;;;;;x;;;;;;fa-graduation-cap;blue
860;Girmesgath 131;Berufskolleg;BK-Vera-Beckers;Bauunterhalt < 10.000 Euro;Sanierung;;x;x;x;x;x;;;;;;fa-graduation-cap;blue
861;;;BK-Vera-Beckers;Gesamtbedarf bis 2022;2405000;;;;;;;;;;;;fa-graduation-cap;blue
862;Neuer Weg 121;Berufskolleg;BK-Kaufmannsschule;Sanierung Behinderten-WC;Sanierung; ;;x;;;;;;;;;fa-graduation-cap;blue
863;Neuer Weg 121;Berufskolleg;BK-Kaufmannsschule;HAZ, Bauteile E (Rest aus 2017);Brandschutz;x;;;;;;;;;;;fa-graduation-cap;blue
864;Neuer Weg 121;Berufskolleg;BK-Kaufmannsschule;Digitalisierung;Digitalisierung; ;;;;x; ;Gute Schule 2020-Mittel;;;;;fa-graduation-cap;blue
865;Neuer Weg 121;Berufskolleg;BK-Kaufmannsschule;Bauteil A, Schottung Treppenhaus (Rest aus 2017);Brandschutz;x;x;;;;;;;;;;fa-graduation-cap;blue
866;Neuer Weg 121;Berufskolleg;BK-Kaufmannsschule;Energetische Sanierung Außenhülle Bt. A/B (Beginn in 2017);Energetische Sanierung;x;;;;;;KInvFöG-Mittel;;;;;fa-graduation-cap;blue
867;Neuer Weg 121;Berufskolleg;BK-Kaufmannsschule;D-Trakt, Austausch Leuchten gegen LED;Energetische Sanierung;;x;;;;;;;;;;fa-graduation-cap;blue
868;Neuer Weg 121;Berufskolleg;BK-Kaufmannsschule;Sanierung Klassenräume;Sanierung;;;x;;;;Gute Schule 2020-Mittel;;;;;fa-graduation-cap;blue
869;Neuer Weg 121;Berufskolleg;BK-Kaufmannsschule;Montage Sekuranten;Verkehrssicherheit;;;x;;;;;;;;;fa-graduation-cap;blue
870;Neuer Weg 121;Berufskolleg;BK-Kaufmannsschule;Prüfung Raumbestand, einschl. Pavillon-Klassen;SEP;;;;;;;;;Abhängig von SEP BK;;;fa-graduation-cap;blue
871;Neuer Weg 121;Berufskolleg;BK-Kaufmannsschule;Sanierung Flure und Treppenhäuser;Sanierung;;;x;;;;Gute Schule 2020-Mittel;;;;;fa-graduation-cap;blue
872;Neuer Weg 121;Berufskolleg;BK-Kaufmannsschule;Dachdämmung HM-Haus;Energetische Sanierung;;;;;;x;;;;;;fa-graduation-cap;blue
873;Neuer Weg 121;Berufskolleg;BK-Kaufmannsschule;Sanierung Fassade Verbindungsgang BT A/B;Gebäudehülle;;;;x;;;;;;;;fa-graduation-cap;blue
874;Neuer Weg 121;Berufskolleg;BK-Kaufmannsschule;BT A, Dachsanierung;Gebäudehülle;;;;;x;;;;;;;fa-graduation-cap;blue
875;Neuer Weg 121;Berufskolleg;BK-Kaufmannsschule;Errichtung neuer NW-Raum;SEP;;;;;;;;;Abhängig von SEP BK;;;fa-graduation-cap;blue
876;Neuer Weg 121;Berufskolleg;BK-Kaufmannsschule;Einbau Hocheffizienzpumpe;Energetische Sanierung;;x;;;;;;;;;;fa-graduation-cap;blue
877;Neuer Weg 121;Berufskolleg;BK-Kaufmannsschule;Herrichtung Innenhof (Bauhausjahr);Außenanlagen;;;;x;;;Gute Schule 2020-Mittel;;;;;fa-graduation-cap;blue
878;Neuer Weg 121/Turnhalle;Berufskolleg;BK-Kaufmannsschule;Turnhalle, Sanierung Hallenboden und Prellwände;Sanierung; ;;x;;;;Gute Schule 2020-Mittel;;;;;fa-graduation-cap;blue
879;Neuer Weg 121/Turnhalle;Berufskolleg;BK-Kaufmannsschule;Turnhalle, Energetische Sanierung Außenhülle (Beginn in 2017);Energetische Sanierung;x;;;;;;KInvFöG-Mittel;;;;;fa-graduation-cap;blue
880;Neuer Weg 121/Turnhalle;Berufskolleg;BK-Kaufmannsschule;Turnhalle, Sanierung Duschen;Sanierung;;;;;;x;;;;;;fa-graduation-cap;blue
881;Am Konnertzfeld 19;Berufskolleg;BK-Kaufmannsschule;Sanierung Behinderten-WC;Sanierung;;;;;x;;;;;;;fa-graduation-cap;blue
882;Am Konnertzfeld 19;Berufskolleg;BK-Kaufmannsschule;Sanierung Klassenräume;Sanierung; ;;;;x; ;Gute Schule 2020-Mittel;;;;;fa-graduation-cap;blue
883;Am Konnertzfeld 19;Berufskolleg;BK-Kaufmannsschule; Digitalisierung;Digitalisierung; ;;;;x; ;Gute Schule 2020-Mittel;;;;;fa-graduation-cap;blue
884;Am Konnertzfeld 19;Berufskolleg;BK-Kaufmannsschule;Sanierung Flure;Sanierung; ;;;;x; ;Gute Schule 2020-Mittel;;;;;fa-graduation-cap;blue
885;Am Konnertzfeld 19;Berufskolleg;BK-Kaufmannsschule;Innere Schottung EG an HM-Loge;Brandschutz;;;x;;;;Gute Schule 2020-Mittel;;;;;fa-graduation-cap;blue
886;Am Konnertzfeld 19;Berufskolleg;BK-Kaufmannsschule;Sanierung Sanitäranlagen;Sanierung;;;;;;x;;;;;;fa-graduation-cap;blue
887;Am Konnertzfeld 19/Turnhalle;Berufskolleg;BK-Kaufmannsschule;Turnhalle, Sanierung Hallenboden;Sanierung;;;;x;;;;;;;;fa-graduation-cap;blue
888;Am Konnertzfeld 19;Berufskolleg;BK-Kaufmannsschule;Turnhalle, Sanierung Sanitäranlagen;Sanierung;;;;;;x;;;;;;fa-graduation-cap;blue
889;Am Konnertzfeld 19/Turnhalle;Berufskolleg;BK-Kaufmannsschule;Prüfung Raumbestand;SEP;;;;;;;;;Abhängig von SEP BK;;;fa-graduation-cap;blue
890;Neuer Weg 121;Berufskolleg;BK-Kaufmannsschule;Bauunterhalt < 10.000 Euro;Sanierung;;x;x;x;x;x;;;;;;fa-graduation-cap;blue
891;Neuer Weg 121;Berufskolleg;BK-Kaufmannsschule;Versammlungsstätte/Aula  Überprüfung/Ertüchtigung;Verkehrssicherheit;;;;;;;;;;;;fa-graduation-cap;blue
892;;;BK-Kaufmannsschule;Gesamtbedarf bis 2022;4690000;;;;;;;;;;;;fa-graduation-cap;blue
893;Horkesgath 33;Realschule ;Realschule Horkesgath;Hausmeister-Bungalow 2: Sanierung Flachdach, einschl. Attika-Dämmung;Gebäudehülle; ;;;;x;;;;;;;fa-graduation-cap;blue
894;Horkesgath 33;Realschule ;Realschule Horkesgath;Einbau BS-Abschnitte 1.Teil;Brandschutz; ;;x;;;;;;;;;fa-graduation-cap;blue
895;Horkesgath 33;Realschule ;Realschule Horkesgath;Einbau BS-Abschnitte 2.Teil Planung;Brandschutz;;;;x;;;;;;;;fa-graduation-cap;blue
896;Horkesgath 33;Realschule ;Realschule Horkesgath;Digitalisierung (anteilig vom 124000);Digitalisierung; ;;;;x; ;Gute Schule 2020-Mittel;;;;;fa-graduation-cap;blue
897;Horkesgath 33;Realschule ;Realschule Horkesgath;Schottung TGA-Durchbrüche;Brandschutz;;;x;;;;;;;;;fa-graduation-cap;blue
898;Horkesgath 33;Realschule;Realschule Horkesgath;Sanierung/Gestaltung Schulhof;Sanierung;;;x;;;;;;;;;fa-graduation-cap;blue
899;Horkesgath 33;Realschule ;Realschule Horkesgath;Sanierung Klassenräume;Sanierung;;x;;;;;Gute Schule 2020-Mittel;;;;;fa-graduation-cap;blue
900;Horkesgath 33;Realschule ;Realschule Horkesgath;Sanierung Sanitäranlagen;Sanierung;x;;;;;;Gute Schule 2020-Mittel;;;;;fa-graduation-cap;blue
901;Horkesgath 33;Realschule ;Realschule Horkesgath;Sanierung Flurbereiche;Sanierung;;x;;;;;Gute Schule 2020-Mittel;;;;;fa-graduation-cap;blue
902;Horkesgath 33;Realschule ;Realschule Horkesgath;Erneuerung Fensteranl. Inkl. Sonnenschutz;Gebäudehülle;;;;;x;;;;;;;fa-graduation-cap;blue
903;Horkesgath 33;Realschule ;Realschule Horkesgath;Erneuerung NW-Einr., R. 037, Chemie, Hörsaal, Lehrertisch;Sanierung;;;;;;x;;;;;;fa-graduation-cap;blue
904;Horkesgath 33;Realschule ;Realschule Horkesgath;Bauunterhalt < 10.000 Euro;Sanierung;;x;x;x;x;x;;;;;;fa-graduation-cap;blue
905;;;Realschule Horkesgath;Gesamtbedarf bis 2022;1435000;;;;;;;;;;;;fa-graduation-cap;blue
906;Horkesgath 33;Gymnasium;Gymnasium Horkesgath;Erneuerung der Türanlage Oberstufenhof;Sanierung; ;;x;;;;;;;;;fa-graduation-cap;blue
907;Horkesgath 33;Gymnasium;Gymnasium Horkesgath;RS-Türen ;Brandschutz; ;;x;;;;;;;;;fa-graduation-cap;blue
908;Horkesgath 33;Gymnasium;Gymnasium Horkesgath;Digitalisierung (anteilig vom 124000);Digitalisierung; ;;;;x; ;Gute Schule 2020-Mittel;;;;;fa-graduation-cap;blue
909;Horkesgath 33;Gymnasium;Gymnasium Horkesgath;Einbau BS-Abschnitte 1.Teil Planung;Brandschutz;;;x;;;;;;;;;fa-graduation-cap;blue
910;Horkesgath 33;Gymnasium;Gymnasium Horkesgath;Einbau BS-Abschnitte 2.Teil Planung;Brandschutz;;;;x;;;;;;;;fa-graduation-cap;blue
911;Horkesgath 33;Gymnasium;Gymnasium Horkesgath;Erneuerung NW-Einrichtung im R. 20 Chemie Vorbereitung/sammlung;Sanierung;x;;;;;;;;;;;fa-graduation-cap;blue
912;Horkesgath 33;Gymnasium;Gymnasium Horkesgath;Erneuerung NW-Einrichtung im R. 036, Physik Hörsaal, Lehrertisch;Sanierung;;;;;;x;;;;;;fa-graduation-cap;blue
913;Horkesgath 33;Gymnasium;Gymnasium Horkesgath;Austausch der Mittelspannungs-Trafoanlage (Hauptanlage);Brandschutz;x;x;;;;;;;;;;fa-graduation-cap;blue
914;Horkesgath 33;Gymnasium;Gymnasium Horkesgath;Erneuerung Unterverteilungen (beide Schulformen);Brandschutz;x;x;;;;;;;;;;fa-graduation-cap;blue
915;Horkesgath 33;Gymnasium;Gymnasium Horkesgath;Erneuerung Hauptwasserleitung Wasserzähler zu TH, HM-Wohnungen, Schulgeb. (Rest aus 2017);Sanierung;x;x;;;;;;;;;;fa-graduation-cap;blue
916;Horkesgath 33;Gymnasium;Gymnasium Horkesgath;Schottung TGA-Durchbrüche;Brandschutz;;;x;;;;;;;;;fa-graduation-cap;blue
917;Horkesgath 33;Gymnasium;Gymnasium Horkesgath;Hauptanlage Keller SWK;Energetische Sanierung;x;x;;;;;;;;;;fa-graduation-cap;blue
918;Horkesgath 33;Gymnasium;Gymnasium Horkesgath;Sanierung Fassaden  inkl. Dämmung;Gebäudehülle;;;;;x;;;;;;;fa-graduation-cap;blue
919;Horkesgath 33;Gymnasium;Gymnasium Horkesgath;Flachdachsanierung;Gebäudehülle;;x;x;;;;Gute Schule 2020-Mittel;;;;;fa-graduation-cap;blue
920;Horkesgath 33;Gymnasium;Gymnasium Horkesgath;Sanierung Sanitäranlagen (ohne Turnhalle) ;Sanierung;x;;;;;;Gute Schule 2020-Mittel;;;;;fa-graduation-cap;blue
921;Horkesgath 33;Gymnasium;Gymnasium Horkesgath;Erneuerung Fensteranl. Inkl. Sonnenschutz;Gebäudehülle;;;;;x;;;;;;;fa-graduation-cap;blue
922;Horkesgath 33;Gymnasium;Gymnasium Horkesgath;BMA, Rauchmeldertausch;Brandschutz;;x;;;;;;;;;;fa-graduation-cap;blue
923;Horkesgath 33;Gymnasium;Gymnasium Horkesgath;Austausch mobile Trennwand Aula, Entf. mobile Trennwandanlage;Sanierung;;;;;;x;;;;;;fa-graduation-cap;blue
924;Horkesgath 33;Gymnasium;Gymnasium Horkesgath;Einbau Hocheffizienzpumpe;Energetische Sanierung;;x;;;;;;;;;;fa-graduation-cap;blue
925;Horkesgath 33;Gymnasium;Gymnasium Horkesgath;Sanierung Klassenräume;Sanierung;;x;;;;;Gute Schule 2020-Mittel;;;;;fa-graduation-cap;blue
926;Horkesgath 33;Gymnasium;Gymnasium Horkesgath;Sanierung der naturwissenschaftlichen Einrichtung im Raum Physik Sammlung ;Sanierung;;;;;;x;;;;;;fa-graduation-cap;blue
927;Horkesgath 33;Gymnasium;Gymnasium Horkesgath;Sanierung Flurbereiche;Sanierung;;x;;;;;Gute Schule 2020-Mittel;;;;;fa-graduation-cap;blue
928;Horkesgath 33;Gymnasium;Gymnasium Horkesgath;Sanierung der naturwissenschaftlichen Einrichtung im Raum 036 Physik Übung;Sanierung;;;;;;x;;;;;;fa-graduation-cap;blue
929;Horkesgath 33;Gymnasium;Gymnasium Horkesgath;Sanierung/Gestaltung Schulhof;Sanierung;;;x;;;;;;;;;fa-graduation-cap;blue
930;Horkesgath 33/Turnhalle;Gymnasium;Gymnasium Horkesgath;Turnhalle 2, Sanierung Hallenboden (Rest aus 2017);Sanierung;x;x;;;;x;;;;;;fa-graduation-cap;blue
931;Horkesgath 33/Turnhalle;Gymnasium;Gymnasium Horkesgath;Turnhalle 2, Sanierung WC-Anlagen;Sanierung;;;;x;;;;;;;;fa-graduation-cap;blue
932;Horkesgath 33/Turnhalle;Gymnasium;Gymnasium Horkesgath;Turnhalle 2, Sanierung Sanitäranlagen Zuschauer;Sanierung;;x;;;;;Gute Schule 2020-Mittel;;;;;fa-graduation-cap;blue
933;Horkesgath 33/Turnhalle;Gymnasium;Gymnasium Horkesgath;Turnhalle 1, Umstellung Beleuchtung auf LED;Energetische Sanierung;x;;;;;;;;;;;fa-graduation-cap;blue
934;Horkesgath 33/Turnhalle;Gymnasium;Gymnasium Horkesgath;Turnhalle 1, Duschen u. WC-Anlagen;Sanierung;;;;;;x;;;;;;fa-graduation-cap;blue
935;Horkesgath 33/Turnhalle;Gymnasium;Gymnasium Horkesgath;Turnhalle 1/2, Sanierung Lüftung;Sanierung;x;;;;;;Gute Schule 2020-Mittel;;;;;fa-graduation-cap;blue
936;Horkesgath 33/Turnhalle;Gymnasium;Gymnasium Horkesgath;Turnhalle 1/2, Dachsanierung;Gebäudehülle;; ;x;;;;Gute Schule 2020-Mittel;;;;;fa-graduation-cap;blue
937;Horkesgath 33/Turnhalle;Gymnasium;Gymnasium Horkesgath;Turnhalle 1,  Sanierung Hallenboden Eigenanteil nach Brand;Sanierung;;x;;;;;;;;;;fa-graduation-cap;blue
938;Horkesgath 33;Gymnasium;Gymnasium Horkesgath;Bauunterhalt < 10.000 Euro;Sanierung;;x;x;x;x;x;;;;;;fa-graduation-cap;blue
939;Horkesgath 33;Gymnasium;Gymnasium Horkesgath;Prüfung Ausbau G 9;SEP;;;;;;;;;;;;fa-graduation-cap;blue
940;Horkesgath 33;Gymnasium;Gymnasium Horkesgath;Versammlungsstätte/PZ  Überprüfung/Ertüchtigung;Verkehrssicherheit;;;;;;;;;;;;fa-graduation-cap;blue
941;;;Gymnasium Horkesgath;Gesamtbedarf bis 2022;4215000;;;;;;;;;;;;fa-graduation-cap;blue
942;Horkesgath 15;Sport/FB 52;BSA Horkesgath;"Errichtung Kunstrasenplatz; Ausbau leichtathletische Anlage";Sanierung; ;;x;;;;;;;;;fa-graduation-cap;blue
943;Glockenspitz 348;Sport/FB 52;Sporthalle Glockenspitz;"Erneuerung des Bauwerkes; Erneuerung TGA";Sanierung; ;;;x;;;;;;;;fa-graduation-cap;blue
944;;;Bereich Sport;Gesamtbedarf bis 2022;4800000; ; ;;; ; ;;;;;;fa-graduation-cap;blue